HIERARCHY
ROOT Hips
{
	OFFSET 181.407898 92.019173 39.530121
	CHANNELS 6 Xposition Yposition Zposition Zrotation Yrotation Xrotation 
	JOINT LeftUpLeg
	{
		OFFSET 0.103458 1.857830 10.548511
		CHANNELS 3 Zrotation Yrotation Xrotation
		JOINT LeftLeg
		{
			OFFSET 43.500000 -0.000034 0.000002
			CHANNELS 3 Zrotation Yrotation Xrotation
			JOINT LeftFoot
			{
				OFFSET 42.372192 0.000015 -0.000005
				CHANNELS 3 Zrotation Yrotation Xrotation
				JOINT LeftToe
				{
					OFFSET 17.299999 -0.000002 0.000006
					CHANNELS 3 Zrotation Yrotation Xrotation
					End Site
					{
						OFFSET 0.000000 0.000000 0.000000
					}
				}
			}
		}
	}
	JOINT RightUpLeg
	{
		OFFSET 0.103456 1.857828 -10.548506
		CHANNELS 3 Zrotation Yrotation Xrotation
		JOINT RightLeg
		{
			OFFSET 43.500038 -0.000023 0.000004
			CHANNELS 3 Zrotation Yrotation Xrotation
			JOINT RightFoot
			{
				OFFSET 42.372265 -0.000004 0.000015
				CHANNELS 3 Zrotation Yrotation Xrotation
				JOINT RightToe
				{
					OFFSET 17.299994 -0.000005 -0.000004
					CHANNELS 3 Zrotation Yrotation Xrotation
					End Site
					{
						OFFSET 0.000000 0.000000 0.000000
					}
				}
			}
		}
	}
	JOINT Spine
	{
		OFFSET 6.901968 -2.603730 -0.000005
		CHANNELS 3 Zrotation Yrotation Xrotation
		JOINT Spine1
		{
			OFFSET 12.588101 -0.000001 0.000008
			CHANNELS 3 Zrotation Yrotation Xrotation
			JOINT Spine2
			{
				OFFSET 12.343199 -0.000002 0.000004
				CHANNELS 3 Zrotation Yrotation Xrotation
				JOINT Neck
				{
					OFFSET 25.832901 -0.000004 -0.000011
					CHANNELS 3 Zrotation Yrotation Xrotation
					JOINT Head
					{
						OFFSET 11.766607 0.000005 0.000000
						CHANNELS 3 Zrotation Yrotation Xrotation
						End Site
						{
							OFFSET 0.000000 0.000000 0.000000
						}
					}
				}
				JOINT LeftShoulder
				{
					OFFSET 19.745911 -1.480373 6.000101
					CHANNELS 3 Zrotation Yrotation Xrotation
					JOINT LeftArm
					{
						OFFSET 11.284123 -0.000010 -0.000027
						CHANNELS 3 Zrotation Yrotation Xrotation
						JOINT LeftForeArm
						{
							OFFSET 33.000042 0.000003 0.000027
							CHANNELS 3 Zrotation Yrotation Xrotation
							JOINT LeftHand
							{
								OFFSET 25.200010 0.000018 0.000014
								CHANNELS 3 Zrotation Yrotation Xrotation
								End Site
								{
									OFFSET 0.000000 0.000000 0.000000
								}
							}
						}
					}
				}
				JOINT RightShoulder
				{
					OFFSET 19.746101 -1.480375 -6.000073
					CHANNELS 3 Zrotation Yrotation Xrotation
					JOINT RightArm
					{
						OFFSET 11.284151 -0.000017 -0.000003
						CHANNELS 3 Zrotation Yrotation Xrotation
						JOINT RightForeArm
						{
							OFFSET 33.000095 0.000018 0.000001
							CHANNELS 3 Zrotation Yrotation Xrotation
							JOINT RightHand
							{
								OFFSET 25.199774 0.000135 0.000424
								CHANNELS 3 Zrotation Yrotation Xrotation
								End Site
								{
									OFFSET 0.000000 0.000000 0.000000
								}
							}
						}
					}
				}
			}
		}
	}
}
MOTION
Frames: 101
Frame Time: 0.033333
149.178604 8.292292 6.973062 98.704054 29.940373 52.127994 106.240635 -31.026694 -146.425377 -73.248622 8.774119 21.199333 84.681259 -25.140885 -41.553320 21.454550 0.003095 -0.000001 95.569079 0.909398 -157.751046 -51.996079 10.463559 14.989157 66.176269 -2.925050 23.222529 21.454557 -0.003108 -0.000008 15.491458 -3.242526 -1.491146 21.097128 -6.158766 -3.554700 20.777669 -6.179979 -3.517350 28.677683 2.667116 1.795501 -15.946871 -14.393346 7.174537 140.643294 -85.929462 37.972416 -9.897556 54.363279 -41.415340 -102.643011 1.729184 2.746669 -7.168804 -28.739039 30.469846 73.474715 79.796021 -105.625993 -1.586593 -72.189437 -18.994773 -51.830098 21.998810 -2.311408 -37.158719 50.442231 -57.995901 
149.508194 8.091607 7.231276 98.369108 29.775472 53.474398 104.405336 -30.216511 -146.492340 -73.552122 8.777188 21.530687 82.769755 -25.974835 -40.917775 21.454553 0.003087 -0.000003 94.738521 2.412699 -158.761108 -53.003354 10.847766 15.506549 66.176965 -3.202123 23.568471 21.454557 -0.003108 -0.000012 15.611567 -3.169795 -1.240500 21.321581 -6.056656 -3.049077 21.002027 -6.074820 -3.012348 28.597932 2.317702 1.777771 -16.441158 -13.770053 6.993359 158.541736 -85.071406 20.031109 -4.759594 57.381676 -38.545008 -100.863289 1.423380 2.689074 -8.170734 -31.279572 28.611478 74.006527 80.026813 -105.082638 2.807947 -71.966316 -21.587339 -51.840760 21.855869 -2.302061 -35.700381 50.758821 -55.950304 
149.803406 7.862598 7.401536 97.816136 29.663255 54.686555 102.793165 -29.518493 -146.380858 -73.696717 8.658463 21.707456 80.603554 -26.671332 -39.941474 21.454555 0.003090 -0.000002 94.213949 3.757293 -159.839827 -53.723994 11.335005 16.126676 66.178113 -3.471793 24.160519 21.454558 -0.003110 -0.000016 15.770886 -3.117159 -1.032845 21.628048 -5.986289 -2.634614 21.308414 -6.001945 -2.598298 28.342130 2.022502 1.830202 -16.913258 -13.254345 6.921740 167.614003 -83.681736 10.949597 1.791735 59.301820 -32.585443 -98.531278 0.930347 2.619803 -6.773514 -35.618511 24.619697 74.908365 80.177972 -104.179735 5.609480 -71.644019 -23.013375 -51.603070 21.738144 -2.285827 -33.774732 51.195697 -53.421375 
150.098206 7.721497 7.505415 97.085190 29.573350 55.632355 101.657660 -28.919998 -146.384601 -73.617568 8.762355 21.757026 78.739917 -27.169330 -39.080194 21.454550 0.003096 -0.000001 94.077325 4.943205 -160.204764 -54.213602 11.453785 16.508547 66.260013 -3.531375 24.847813 21.454555 -0.003106 -0.000022 15.946024 -3.087947 -0.872831 21.969857 -5.953962 -2.320015 21.650154 -5.967729 -2.283892 28.185230 1.428464 1.921183 -17.222829 -12.620215 6.813561 174.081701 -82.290898 4.460240 8.284046 60.646274 -25.275996 -95.091977 0.073918 2.526454 -5.988915 -37.053267 21.979743 76.428055 79.990319 -102.693028 6.825050 -71.226305 -23.444763 -50.917503 21.944903 -2.276291 -30.817404 51.711458 -49.983686 
150.398407 7.661396 7.511332 96.437989 29.442456 56.310313 100.885043 -28.390306 -146.342595 -73.462475 8.916828 21.616120 77.213014 -27.528104 -38.695846 21.454551 0.003087 -0.000004 94.160790 5.866310 -160.236361 -54.329688 11.496769 16.740760 66.338527 -3.557697 25.298374 21.454555 -0.003106 -0.000029 16.090129 -3.120185 -0.699830 22.251592 -6.047503 -1.990175 21.931765 -6.059272 -1.953483 28.048541 0.439581 1.885611 -17.455653 -11.679756 6.428670 177.207906 -81.075329 1.325973 15.013261 60.927801 -15.437882 -91.063675 -1.011108 2.423183 -2.965175 -35.750740 19.871040 77.948038 79.862335 -101.201205 6.736199 -70.913059 -23.033083 -49.726103 22.277191 -2.258451 -27.577119 51.842515 -46.233492 
150.682404 7.594911 7.487226 95.821598 29.285023 56.902149 100.111551 -27.723007 -146.019896 -73.436609 8.981032 21.530445 75.910381 -27.931678 -38.599233 21.454550 0.003100 0.000003 94.307953 6.798403 -159.858638 -54.420939 11.497294 16.767071 66.577569 -3.646962 25.231108 21.454560 -0.003108 -0.000008 16.193999 -3.193316 -0.537454 22.454698 -6.221570 -1.687685 22.134693 -6.231509 -1.649934 28.045995 -0.946097 1.856113 -17.812681 -10.391286 5.918512 177.858317 -80.390719 0.682656 21.318433 60.435604 -2.703855 -86.608124 -3.113933 2.373301 -0.301794 -35.618006 17.236920 80.143582 79.510410 -99.060501 6.547286 -70.524060 -22.697183 -48.381122 22.501401 -2.228916 -24.164168 51.835945 -42.367711 
150.860199 7.516373 7.393344 95.154746 29.127557 57.677649 99.329843 -26.761904 -145.416981 -73.383887 8.904365 21.491504 74.644132 -28.301674 -38.352424 21.454555 0.003087 -0.000001 94.646963 8.018993 -159.294915 -54.484047 11.744483 16.654416 67.013356 -3.757369 24.946233 21.454558 -0.003107 -0.000026 16.293227 -3.264252 -0.440741 22.651475 -6.379019 -1.515173 22.331336 -6.387918 -1.476452 28.060799 -2.404567 1.860890 -18.300698 -9.198721 5.484904 178.736884 -80.036143 -0.201551 26.087424 59.571995 11.076594 -82.590026 -6.199611 2.412925 1.263473 -34.789135 16.221047 82.618918 78.897373 -96.666670 6.408011 -70.036575 -23.008153 -47.125245 22.700583 -2.201530 -19.951495 51.996034 -38.266794 
150.897400 7.447830 7.298481 94.435097 28.917088 58.251241 98.460121 -26.014596 -144.683870 -73.441623 8.753486 21.548846 73.364182 -28.544078 -37.546014 21.454555 0.003097 0.000001 95.107734 9.082112 -158.307379 -54.590912 11.931588 16.368354 67.669806 -3.745609 24.758690 21.454558 -0.003108 -0.000012 16.357442 -3.366872 -0.299122 22.776784 -6.608888 -1.258174 22.456446 -6.616239 -1.218051 27.991019 -3.877740 1.870370 -18.640450 -7.894096 4.986462 179.087628 -79.490711 -0.546012 29.842743 58.792417 21.625965 -79.960970 -7.904409 2.417952 2.122837 -30.576223 15.546588 83.603100 78.403591 -95.737710 7.395287 -69.990314 -24.043794 -46.789555 22.478414 -2.175854 -16.042719 49.859312 -35.706334 
150.841202 7.415679 7.136270 93.922041 28.824054 58.929930 97.796213 -25.354612 -144.421290 -73.357734 8.645217 21.610420 72.049050 -28.638239 -36.325897 21.454550 0.003099 0.000001 95.657633 10.176692 -157.180329 -54.742306 12.024462 15.937594 68.621749 -3.649093 24.664187 21.454555 -0.003109 -0.000019 16.434412 -3.529105 -0.132284 22.928059 -6.961901 -0.964126 22.607441 -6.967458 -0.921847 28.061021 -5.034743 1.766870 -19.065380 -6.685182 4.413102 179.230407 -78.723101 -0.674515 31.936274 58.505959 28.099916 -78.112700 -8.911635 2.408774 0.094430 -28.290681 15.773067 82.144834 77.898690 -97.223508 10.065023 -70.855570 -26.400034 -47.915703 22.266219 -2.197858 -11.739656 46.804226 -34.141551 
150.760193 7.439291 6.984008 93.803346 28.807101 59.674174 97.266128 -24.883300 -144.802579 -73.235044 8.586220 21.706579 70.794747 -28.615322 -34.849780 21.454553 0.003084 -0.000003 95.961398 11.233505 -156.286066 -55.149188 12.113603 15.430362 69.965692 -3.687285 24.229924 21.454555 -0.003111 -0.000023 16.470151 -3.762013 0.060907 22.997143 -7.460891 -0.629822 22.676097 -7.464429 -0.584484 28.589997 -5.922789 1.618082 -19.840383 -5.724091 3.935723 179.786889 -78.152104 -1.229276 32.590401 59.375067 30.396951 -76.463804 -10.111262 2.421995 -3.598924 -24.379348 18.805831 80.289557 76.966656 -99.135565 15.631409 -72.062129 -31.737608 -51.301851 21.586745 -2.265169 -8.938359 46.210908 -33.551050 
150.637894 7.483355 6.780623 93.855637 28.515901 60.535502 96.511802 -24.477791 -145.173567 -72.973324 8.457670 21.812204 69.525725 -28.478754 -33.124102 21.454553 0.003093 0.000002 95.902604 12.253698 -155.356327 -55.730047 12.160226 14.916286 71.584863 -3.887491 23.404248 21.454558 -0.003109 -0.000005 16.438766 -3.945580 0.310703 22.924879 -7.874209 -0.168581 22.603495 -7.874949 -0.120704 29.060539 -7.017129 1.464409 -20.409541 -4.515983 3.329699 -178.596606 -77.668881 -2.868216 30.287880 60.215822 29.032440 -75.610338 -10.751109 2.430343 -2.294583 -22.355342 13.642329 78.437592 76.099803 -101.034132 21.474946 -73.677633 -37.994341 -55.367638 20.375129 -2.326272 -7.851980 49.140858 -31.721567 
150.520706 7.533733 6.508885 94.029015 28.167101 61.393251 95.956768 -24.146805 -145.419754 -72.433186 8.207785 21.845850 68.461780 -28.313024 -31.724945 21.454545 0.003099 0.000005 95.634451 13.147206 -154.782141 -56.421543 12.278529 14.421924 73.131839 -3.949639 22.973712 21.454555 -0.003106 -0.000025 16.416534 -4.083937 0.515551 22.871201 -8.188821 0.212270 22.549537 -8.187257 0.262075 29.079834 -9.055402 1.399928 -20.556465 -2.613240 2.470979 -176.146535 -77.494855 -5.365601 26.453818 61.102715 25.115475 -75.945065 -10.592830 2.430658 -0.054244 -20.992667 7.577948 77.131025 75.677806 -102.355009 24.937383 -75.637344 -42.058580 -59.592499 19.303764 -2.409943 -8.133728 51.588514 -31.781341 
150.418304 7.578274 6.238638 94.265968 27.860413 62.083489 95.567037 -24.028798 -145.595768 -71.816427 7.848547 21.772270 67.395321 -28.125688 -30.532933 21.454551 0.003089 0.000003 95.266160 13.706604 -154.372821 -57.170299 12.246766 13.905959 74.536536 -3.856687 22.889963 21.454558 -0.003107 -0.000015 16.400531 -4.182735 0.658695 22.832233 -8.412758 0.478193 22.510386 -8.409582 0.529365 29.031675 -11.645083 1.477556 -20.628693 -0.797535 1.784660 -173.142604 -77.971589 -8.436204 22.060268 62.082171 21.216063 -76.241816 -10.492749 2.427665 1.443097 -18.589654 3.224130 77.765488 74.964017 -101.790637 23.941661 -77.353818 -41.235303 -63.673592 18.394925 -2.505998 -6.076245 52.679552 -28.240882 
150.362595 7.610295 6.029010 94.440718 27.582623 62.552853 95.281494 -23.947302 -145.785156 -71.348368 7.676773 21.648013 66.609548 -27.901135 -29.590480 21.454550 0.003088 -0.000004 94.960748 14.055692 -153.899489 -57.839060 12.144086 13.293315 75.412733 -3.511032 23.097285 21.454555 -0.003108 -0.000015 16.400442 -4.202941 0.760119 22.825379 -8.472752 0.675816 22.503501 -8.468385 0.727353 28.929768 -14.272093 1.737620 -20.655556 0.479894 1.507053 -172.368184 -79.087792 -9.234806 18.429305 63.092862 19.062223 -75.598125 -10.798882 2.425496 3.382520 -17.020792 -0.975726 77.792043 74.525628 -101.801292 12.302793 -78.756275 -31.972778 -64.439836 18.180459 -2.521643 -0.321267 53.388218 -19.877790 
150.406799 7.647582 5.918029 94.561039 27.347348 62.737828 95.037950 -23.925000 -146.107609 -71.074429 7.793614 21.603502 66.031687 -27.959077 -29.355224 21.454550 0.003089 -0.000002 94.664475 14.318210 -153.565575 -58.489410 12.200906 12.676170 76.027389 -3.170572 23.117873 21.454560 -0.003109 -0.000026 16.428179 -4.147620 0.856981 22.872485 -8.382288 0.877374 22.550682 -8.376706 0.928354 28.719709 -17.201335 1.848786 -20.558461 1.762546 1.039143 -172.066481 -80.317383 -9.550887 14.665564 63.917423 18.804530 -73.490021 -11.977209 2.426362 4.535132 -16.977106 -2.947362 75.999085 73.809790 -103.620534 -7.304992 -78.496086 -17.457376 -59.630065 19.446880 -2.421261 8.704274 54.473446 -9.942166 
150.519501 7.720552 5.894534 94.798081 26.955354 62.813582 94.561032 -23.971691 -146.352799 -71.032854 7.813765 21.625274 65.700805 -28.076019 -29.343835 21.454553 0.003095 0.000002 94.213437 14.505597 -153.240745 -59.033223 12.228514 12.242469 76.814391 -3.051748 22.937256 21.454560 -0.003107 -0.000015 16.444133 -4.071521 0.999443 22.892250 -8.259742 1.174616 22.570606 -8.252363 1.224833 28.279276 -19.280318 1.902796 -20.332889 2.734610 0.597237 -171.660617 -81.852372 -9.973286 11.905239 64.933850 20.632308 -70.926986 -13.726746 2.441363 4.681240 -17.948895 -4.860581 74.448468 72.470650 -105.248106 -17.795913 -77.483852 -11.884134 -53.233460 20.344516 -2.247999 19.800314 61.625915 3.384910 
150.611893 7.826723 5.929005 95.216730 26.361759 62.959161 93.684890 -24.202692 -146.596596 -71.160299 7.526862 21.643527 65.253380 -28.061861 -28.957680 21.454555 0.003091 -0.000000 93.490523 14.691411 -152.860508 -59.536580 12.112060 12.071675 77.491761 -3.212157 22.309565 21.454557 -0.003109 -0.000019 16.409792 -3.970506 1.138337 22.811131 -8.086925 1.473314 22.489689 -8.077755 1.522457 28.134990 -20.598623 1.951071 -20.531378 3.170429 0.417432 -171.177614 -83.630373 -10.472913 9.796927 66.437653 22.403934 -67.657450 -15.449381 2.427255 4.223506 -17.547582 -8.015733 72.199949 71.453423 -107.526309 -19.646436 -77.738570 -12.679068 -49.576003 20.806409 -2.154220 28.239371 64.388678 14.190722 
150.670898 7.975042 6.054625 95.525660 25.696823 63.109261 92.498547 -24.555498 -147.442856 -71.536990 7.704640 21.618595 64.177250 -27.746967 -27.447807 21.454550 0.003092 0.000002 92.783264 15.068104 -152.595155 -60.118526 12.227823 12.165502 78.007891 -3.495608 21.846386 21.454557 -0.003106 -0.000015 16.302669 -3.853600 1.220367 22.588008 -7.870720 1.667062 22.266774 -7.860376 1.714855 28.519298 -21.082028 2.069443 -20.798766 3.088759 0.648762 -177.346313 -85.192827 -4.264244 8.440078 67.751884 23.927625 -64.438416 -16.581575 2.377054 4.185878 -18.091259 -9.900450 71.037130 71.670705 -108.644916 -22.500766 -77.648958 -12.044169 -46.686290 20.895406 -2.066703 34.429368 65.557747 21.705224 
150.617004 8.137148 6.275746 95.754451 25.145189 63.433920 91.139333 -25.099113 -148.400121 -72.037821 7.629073 21.593074 62.489278 -27.085194 -24.831624 21.454557 0.003093 -0.000005 92.010885 15.638507 -152.688756 -60.949466 12.419386 12.662163 78.338581 -3.959412 21.718101 21.454558 -0.003111 -0.000005 16.210663 -3.754491 1.196299 22.403128 -7.669033 1.644977 22.082085 -7.658814 1.691522 28.205341 -20.460832 2.289054 -20.616851 2.787630 0.960930 167.608170 -86.420731 10.846705 7.807060 68.871236 25.771834 -61.529786 -17.647076 2.337354 4.802176 -19.494379 -11.804627 70.934192 71.750953 -108.739303 -24.218379 -77.485395 -11.826643 -44.786869 20.867661 -2.006141 39.463501 65.948919 27.313940 
150.464798 8.300623 6.609680 95.894367 24.917367 63.971934 89.900507 -25.851197 -149.277746 -72.583894 7.017692 21.596249 60.281658 -25.997059 -21.152003 21.454551 0.003102 0.000002 91.286066 16.384505 -153.039445 -62.118603 12.331357 13.083315 78.439327 -4.132742 22.348958 21.454555 -0.003106 -0.000022 16.186698 -3.637054 1.093828 22.359570 -7.416417 1.465720 22.038667 -7.407305 1.510746 27.637544 -19.110490 2.471127 -20.659439 2.125024 1.341071 148.772189 -86.803037 29.749630 7.289185 69.220579 27.933283 -58.584780 -18.715357 2.299359 4.729786 -20.039118 -14.637164 72.111512 71.899748 -107.578082 -23.806648 -77.104510 -12.349164 -43.883726 20.472208 -1.952886 42.115667 66.595956 30.235086 
150.346100 8.516494 7.216353 95.822930 25.220820 64.676632 89.096041 -26.793389 -150.752233 -73.236362 6.849141 21.497035 59.185105 -25.473484 -19.624383 21.454553 0.003092 -0.000003 90.446881 17.196115 -154.101417 -63.978676 11.967399 13.284712 78.673834 -4.372413 22.148374 21.454557 -0.003109 -0.000022 16.224395 -3.450323 0.956125 22.440213 -7.020141 1.225988 22.119569 -7.012485 1.268597 27.472754 -17.645326 2.612987 -20.545810 1.404156 1.795257 129.495373 -86.682470 49.097135 6.560485 69.440949 30.134450 -55.455600 -19.232573 2.220361 4.984131 -21.001169 -17.407505 73.186515 71.874169 -106.529702 -22.373190 -76.906161 -13.686138 -42.915844 20.290356 -1.912470 43.198962 66.966228 31.585544 
150.249603 8.792540 8.072937 95.660187 26.219841 65.417653 89.028893 -28.011700 -152.075992 -74.012265 6.345136 20.967788 59.084545 -25.403673 -20.294925 21.454550 0.003089 0.000001 89.590936 17.775098 -155.974733 -66.379631 11.138357 13.922023 78.819037 -4.848550 22.177804 21.454558 -0.003109 -0.000015 16.350742 -3.269326 0.786469 22.699907 -6.629025 0.916816 22.379538 -6.623247 0.957029 27.588142 -16.229014 2.762905 -20.313411 0.855116 2.238667 117.450089 -86.023890 61.226307 5.998229 69.588809 32.103836 -52.565522 -19.420337 2.131702 5.890069 -21.846669 -20.402014 74.036204 71.768322 -105.707484 -21.174232 -76.834116 -14.714417 -41.577574 20.180967 -1.867011 43.383924 67.040199 32.045482 
150.157898 9.107761 9.144421 95.186151 27.738885 65.956726 89.456825 -29.497500 -153.156556 -75.094003 5.772228 20.247952 59.106743 -25.294690 -21.248604 21.454551 0.003097 -0.000004 88.924296 17.921091 -158.273378 -69.057761 10.001531 14.856729 78.446287 -5.540874 21.805247 21.454557 -0.003108 -0.000015 16.551519 -3.062851 0.636162 23.106298 -6.190747 0.648140 22.786203 -6.186586 0.685682 27.766479 -14.508999 2.873656 -20.043260 -0.174718 2.843284 116.855972 -85.296427 61.888119 5.643499 69.796822 33.726986 -50.027256 -19.842514 2.074654 6.646543 -21.970813 -22.207971 74.734202 71.728427 -105.028317 -20.028346 -76.787883 -15.766942 -39.980167 20.129314 -1.819505 43.340661 66.905309 32.265523 
150.113495 9.450418 10.420360 94.439373 29.324683 66.240930 89.864580 -30.989197 -154.097851 -76.569440 5.495338 19.794824 59.349290 -25.200493 -21.908651 21.454551 0.003094 0.000000 88.370415 17.741507 -160.857894 -71.710177 8.945531 15.759162 77.230738 -6.004538 21.615486 21.454558 -0.003107 -0.000015 16.718718 -2.829744 0.557470 23.440458 -5.713478 0.530398 23.120646 -5.710040 0.565033 28.023276 -12.512197 2.861184 -19.788658 -1.398066 3.395094 116.540444 -84.449914 62.282159 6.006212 70.300548 35.795116 -47.645173 -20.415225 2.035882 7.743061 -22.112288 -23.717181 75.563640 71.753603 -104.214979 -17.724573 -76.795922 -17.764946 -38.548167 19.980337 -1.771708 43.518004 66.691681 32.619187 
150.017700 9.792923 11.921840 93.324474 31.289814 66.662359 90.665126 -32.101698 -155.115563 -78.114886 5.677242 19.620268 59.466181 -25.534480 -22.948881 21.454557 0.003091 0.000001 88.047982 17.390505 -163.590120 -74.723519 7.299555 16.497774 75.479341 -5.872861 22.820516 21.454558 -0.003109 -0.000019 16.954432 -2.526304 0.481732 23.910037 -5.097397 0.431385 23.590568 -5.094563 0.462263 28.171477 -10.565955 2.810379 -19.409642 -2.388764 3.780788 117.382470 -83.734930 61.503634 7.090307 71.034418 37.361449 -45.763234 -20.598416 1.989381 8.425694 -21.724810 -24.959200 76.745993 71.918579 -103.044503 -14.157954 -76.708536 -20.826227 -37.265741 19.782011 -1.725922 43.399077 66.493845 32.664543 
149.966400 10.103490 13.564530 92.379914 32.927959 67.332654 91.027919 -32.850601 -155.878044 -79.858060 5.867428 19.578949 59.231879 -25.951635 -23.754421 21.454553 0.003094 0.000001 87.124035 16.710898 -166.834651 -77.988323 5.818666 16.855109 74.062528 -5.748560 23.088111 21.454553 -0.003108 -0.000015 17.042382 -2.196867 0.389022 24.083833 -4.426413 0.312586 23.764699 -4.424311 0.339389 28.255699 -8.459136 2.726099 -18.669590 -3.734268 4.238244 119.006457 -83.193780 59.924303 8.682682 71.534122 39.682617 -43.877490 -20.364407 1.917195 8.453406 -21.249128 -25.811888 77.920383 72.158619 -101.874382 -9.160365 -76.718153 -25.000188 -36.064488 19.518239 -1.679090 42.658527 66.371107 32.082375 
149.928696 10.399380 15.293650 91.267419 34.803488 68.136225 91.697154 -33.031806 -155.944680 -81.779549 5.777542 19.484127 58.921262 -26.133320 -24.106343 21.454551 0.003086 -0.000002 86.745581 15.948596 -169.841137 -81.213381 4.290236 16.338868 73.179610 -4.870564 24.016625 21.454555 -0.003107 -0.000015 17.180277 -1.846999 0.283981 24.357658 -3.712278 0.173123 24.038849 -3.711033 0.195582 28.294356 -6.651002 2.529043 -17.993438 -4.706337 4.402956 118.046665 -82.604369 60.941120 11.422375 72.121361 43.521047 -42.404290 -20.208698 1.864265 8.957160 -21.292801 -26.961374 79.079985 72.343642 -100.722307 -2.996404 -76.725304 -29.985466 -35.063794 19.319789 -1.642280 41.423653 66.446894 30.981301 
149.971695 10.682570 17.182249 89.966965 36.920717 68.578426 92.537165 -33.151990 -155.573882 -84.140595 5.721948 19.346202 58.997494 -26.290397 -24.692389 21.454550 0.003086 -0.000002 86.827994 14.541596 -172.467017 -84.199014 2.628360 15.193532 71.843358 -3.807877 23.584527 21.454555 -0.003105 -0.000018 17.385321 -1.545996 0.216785 24.765576 -3.102477 0.098034 24.446965 -3.101703 0.116793 27.729537 -4.878400 2.394976 -17.301948 -5.703482 4.597043 118.470601 -82.200439 60.552660 15.106483 72.563117 48.116555 -41.514023 -20.083837 1.830961 9.040163 -21.429971 -27.516394 80.408539 72.807378 -99.379075 3.667131 -76.381022 -35.656111 -34.549545 19.220953 -1.623867 39.800749 66.605457 29.416433 
149.962204 10.978380 19.212420 88.839144 39.070297 69.109801 93.272722 -33.074802 -154.935151 -86.881564 5.536798 19.258159 59.311874 -26.157046 -24.741455 21.454555 0.003102 0.000001 87.149655 12.985902 -175.282557 -87.116208 1.545930 13.820015 70.224686 -2.684098 22.708632 21.454560 -0.003113 -0.000016 17.548267 -1.294848 0.094101 25.091144 -2.579287 -0.094476 24.772686 -2.579683 -0.078867 27.294003 -3.603316 2.380099 -16.733815 -6.495069 4.851124 119.978352 -81.688940 59.085644 20.373918 72.442851 54.181818 -41.206022 -19.863339 1.807945 9.157594 -21.775639 -27.893596 82.332651 73.326561 -97.443734 11.596436 -75.559617 -42.607355 -34.794582 19.269500 -1.632711 37.462099 66.823709 26.965249 
150.122696 11.258370 21.402950 88.079627 41.085657 69.856265 93.645507 -32.533704 -154.579653 -90.162732 5.644130 19.365716 59.789919 -25.940953 -24.373581 21.454551 0.003093 -0.000000 87.357361 11.446895 -177.846214 -90.189971 0.239678 12.359553 69.018727 -1.715711 21.429445 21.454558 -0.003108 -0.000008 17.625202 -1.094494 -0.098995 25.246088 -2.141089 -0.434125 24.927762 -2.143539 -0.421161 27.106512 -2.694680 2.452843 -16.043756 -7.359761 5.215492 120.941859 -81.498780 58.135264 26.534896 72.275682 61.275656 -41.051090 -19.537384 1.782308 9.214557 -22.451679 -27.981256 84.189390 73.827829 -95.572665 19.441389 -74.401278 -49.331977 -35.371521 19.245702 -1.644803 34.414642 67.088741 23.748812 
150.409500 11.484430 23.920980 87.309133 43.562175 70.375523 94.396063 -32.057295 -154.253088 -93.776202 5.692620 20.067681 60.172116 -26.155542 -23.924886 21.454551 0.003092 -0.000000 88.023209 10.003210 179.744843 -93.564275 -1.029729 10.699061 68.112586 -0.558007 20.492280 21.454560 -0.003106 -0.000011 17.759375 -0.935543 -0.254434 25.514667 -1.792104 -0.708632 25.196426 -1.796217 -0.697782 27.487745 -2.526482 2.352525 -15.732811 -7.783065 5.252318 121.130031 -81.479744 57.948056 33.396982 71.996532 69.051819 -40.886936 -19.059938 1.746558 9.006619 -23.211539 -27.772562 85.683992 74.463576 -94.042648 26.944791 -72.980346 -55.794391 -35.813417 19.205314 -1.652786 31.556550 67.216028 20.802174 
150.752808 11.716280 26.600140 86.777369 45.920636 70.986156 95.289752 -31.513905 -153.810888 -97.327382 5.516833 21.003808 60.010131 -26.456048 -22.998012 21.454553 0.003098 0.000002 88.730427 8.929093 177.214422 -97.037030 -1.893105 8.828257 67.082867 1.117375 20.556701 21.454558 -0.003113 -0.000020 17.816992 -0.794499 -0.398530 25.629568 -1.481218 -0.962916 25.311409 -1.486868 -0.953928 28.319954 -2.957403 2.135721 -15.580602 -8.014451 5.106106 123.082386 -81.605714 55.975330 40.082518 71.210856 76.414387 -40.926261 -18.342943 1.700738 8.516241 -23.924903 -26.943249 87.157353 75.046656 -92.535833 34.316756 -71.215869 -61.542470 -36.336080 19.087143 -1.657843 27.551373 67.334600 16.766274 
151.218994 11.980990 29.484221 86.465304 48.247329 71.735066 96.503032 -30.859000 -153.592568 -100.872011 5.568998 21.509748 59.360491 -26.905765 -22.784919 21.454555 0.003093 0.000002 89.463129 8.293906 174.448769 -100.623098 -2.363801 6.560806 66.322387 3.061637 20.666622 21.454557 -0.003101 -0.000017 17.831945 -0.670797 -0.547302 25.659008 -1.203800 -1.229532 25.340893 -1.211085 -1.222216 29.231673 -3.727948 1.915765 -15.126588 -8.133826 4.897214 124.811721 -81.785395 54.221293 47.418619 70.308335 84.094717 -40.832957 -17.827140 1.664486 7.922132 -24.696504 -25.752197 88.856219 75.721041 -90.794415 40.567389 -68.960984 -66.503728 -36.781016 19.008212 -1.663679 24.111958 67.162363 13.381024 
151.611298 12.255500 32.375721 86.365133 50.496459 72.676894 97.507801 -30.127114 -153.301615 -104.581008 5.640118 21.970596 59.749388 -26.461934 -21.309473 21.454553 0.003101 0.000000 90.270423 7.994904 172.279091 -104.161000 -2.739228 4.618507 66.227474 3.936524 18.941979 21.454560 -0.003118 -0.000028 17.816000 -0.569490 -0.688441 25.626474 -0.972692 -1.485714 25.308434 -0.981519 -1.479814 30.178422 -4.748644 1.698730 -14.462908 -8.102720 4.636114 127.874433 -81.896878 51.132207 54.208490 69.018911 91.148403 -40.554313 -17.533651 1.637803 7.150031 -25.343041 -24.236925 92.205798 76.595080 -87.379286 44.739190 -66.201410 -69.750008 -36.780200 18.881944 -1.655492 22.064728 66.586558 11.366507 
152.090393 12.507870 35.375179 86.071633 52.535691 73.126211 97.864788 -29.705794 -152.430916 -108.814503 5.582235 22.440146 61.063380 -25.825029 -19.850097 21.454550 0.003082 -0.000001 91.018418 8.056002 170.772884 -107.545399 -2.953507 2.865944 65.945531 4.267385 16.145217 21.454558 -0.003108 -0.000017 17.785522 -0.487539 -0.749367 25.564416 -0.797814 -1.587759 25.246406 -0.807259 -1.582896 31.029488 -6.052411 1.581137 -14.261125 -7.899127 4.477063 132.599066 -81.961218 46.372811 60.274685 67.226758 96.995189 -40.481575 -17.327041 1.622366 6.199790 -25.412149 -22.619958 96.153689 77.758336 -83.333670 48.064683 -63.398588 -71.013832 -36.896112 18.576579 -1.638595 17.913964 65.840811 6.987071 
152.546707 12.754440 38.253300 85.696164 54.284175 73.404419 97.605090 -29.402305 -151.700906 -113.143306 5.369710 22.465051 60.819160 -24.240094 -16.192413 21.454553 0.003092 0.000001 91.754022 8.152686 169.562383 -110.656004 -3.216030 1.235398 65.096320 4.483314 13.163282 21.454563 -0.003116 -0.000019 17.791753 -0.425368 -0.798067 25.575993 -0.664196 -1.670273 25.258011 -0.674136 -1.666207 31.198317 -7.190630 1.495141 -14.022840 -8.021394 4.427923 136.459653 -81.803120 42.497471 65.512941 65.154520 101.268278 -40.718067 -17.041831 1.610094 4.736764 -25.810639 -20.389600 100.405980 78.539321 -79.013391 50.653212 -60.815547 -71.313158 -36.707315 18.577469 -1.633996 13.707348 64.677158 2.782274 
152.602997 13.025320 40.710819 85.457319 55.632564 74.101487 96.728456 -29.182902 -151.829887 -117.369711 4.895434 19.964185 59.465382 -20.511669 -11.610049 21.454551 0.003089 -0.000003 92.647042 8.259009 168.270070 -113.382793 -3.388835 0.134143 64.066485 4.960531 11.904150 21.454560 -0.003112 -0.000018 17.802302 -0.369248 -0.900300 25.596417 -0.530596 -1.859829 25.278470 -0.541681 -1.856585 30.791691 -8.126605 1.490230 -13.346079 -8.118372 4.373899 139.222533 -81.715345 39.719633 69.383691 63.385508 104.215013 -40.552503 -16.435003 1.566037 3.188819 -26.744331 -17.843034 102.952568 78.926251 -76.430541 51.549965 -58.746266 -72.611816 -35.171598 18.377797 -1.584093 15.234763 63.354267 5.317183 
152.448196 13.303750 43.066769 85.219772 56.712925 75.268651 95.168871 -28.469111 -152.492306 -121.635205 4.489171 16.136494 57.396880 -15.688772 -6.912620 21.454551 0.003088 0.000000 93.553490 8.483194 166.651876 -116.350702 -3.603148 0.001823 64.400269 5.439368 12.863318 21.454560 -0.003114 -0.000018 17.771874 -0.230275 -1.021744 25.533055 -0.229879 -2.069018 25.215168 -0.242241 -2.067579 30.898874 -8.844658 1.478537 -13.204970 -8.172045 4.382392 142.757907 -81.564480 36.165053 72.472378 61.538666 106.023920 -40.280754 -15.959953 1.527802 1.565534 -26.713700 -15.149278 107.353198 79.191488 -72.001430 51.483558 -56.283600 -73.778590 -33.417657 17.862456 -1.510771 17.577891 61.434826 8.785275 
152.277100 13.551670 45.469330 85.033246 57.799766 76.586501 93.859701 -27.483399 -153.771887 -125.835198 4.185800 11.376945 56.580935 -10.452495 -3.346584 21.454553 0.003102 0.000001 94.476468 8.721405 164.971540 -119.517191 -3.735528 0.022943 65.582821 5.322691 12.922392 21.454560 -0.003120 -0.000021 17.774399 -0.123738 -1.111805 25.535933 0.000456 -2.223428 25.218085 -0.012846 -2.223372 31.184188 -9.649702 1.407380 -13.146769 -7.572465 4.135054 147.162204 -81.522563 31.722035 74.479470 59.548513 106.876191 -39.940228 -15.447385 1.485386 -0.473431 -26.553163 -12.426739 113.687201 79.338583 -65.638323 51.231705 -53.987806 -74.205443 -31.297026 17.092014 -1.415883 17.552365 59.294716 9.305285 
152.088501 13.770520 47.803329 84.693704 58.768102 77.822936 92.776577 -26.360596 -155.360781 -129.449010 4.088664 6.551724 56.360494 -5.528833 -0.621869 21.454551 0.003092 0.000001 95.673964 8.889217 163.572157 -122.447192 -3.822287 -0.286165 66.665802 5.376055 12.749980 21.454558 -0.003109 -0.000016 17.784196 -0.046887 -1.169857 25.553877 0.165221 -2.321146 25.236057 0.151330 -2.322077 31.386437 -10.247932 1.401686 -12.684921 -6.916685 3.905251 152.178554 -81.136719 26.677747 75.684213 57.571391 107.276713 -38.981037 -15.152614 1.441376 -2.361670 -27.815826 -9.180588 120.261162 78.957424 -59.071055 51.178522 -51.905442 -74.820979 -28.803225 16.470030 -1.327001 16.877732 56.484654 8.613460 
151.977707 13.963750 50.156818 84.152773 59.482540 78.760578 92.619073 -25.191816 -156.385623 -132.818984 4.112912 2.803608 59.168283 -1.984256 0.980082 21.454551 0.003092 -0.000001 96.980995 8.798297 162.260897 -125.236901 -3.921008 -0.650841 67.834536 5.498070 12.678580 21.454560 -0.003098 -0.000014 17.786991 -0.031203 -1.105900 25.559415 0.182126 -2.191353 25.241553 0.169019 -2.192397 31.194386 -10.259798 1.511929 -12.278737 -6.280081 3.768155 157.286894 -81.141773 21.509633 76.289887 55.708440 106.785172 -38.029018 -15.006132 1.407847 -4.233775 -27.981265 -6.474341 125.320133 78.303290 -54.038729 51.660846 -50.380773 -75.822797 -26.223176 15.574973 -1.224160 15.906824 52.380652 6.501101 
151.846497 14.134780 52.444580 84.280668 59.880624 80.685551 93.416395 -24.050206 -155.888932 -135.777399 4.027980 1.961827 65.398481 -1.359142 1.091508 21.454553 0.003098 0.000001 98.241807 9.011997 160.627198 -128.040693 -3.958964 -0.876901 69.530028 5.480419 12.699769 21.454557 -0.003100 -0.000015 17.719538 -0.036029 -0.994111 25.424957 0.146803 -1.971810 25.107060 0.135039 -1.972641 31.042424 -10.102955 1.440940 -12.170802 -5.451184 3.396044 164.352014 -81.597019 14.335517 76.006277 53.817881 104.499306 -37.422958 -14.447937 1.356623 -6.511953 -27.070078 -2.747787 129.150859 77.498468 -50.247014 52.790348 -48.814805 -78.874881 -23.915197 14.715120 -1.132874 15.830148 45.839975 4.321046 
151.714905 14.371440 54.866112 84.736160 60.198104 82.983288 93.936131 -22.459301 -153.152376 -138.276497 3.756958 3.330194 69.463550 -2.983921 -0.695786 21.454551 0.003099 0.000000 99.754646 9.361096 158.795205 -131.045608 -3.963557 -1.134282 72.242453 5.326707 12.635521 21.454558 -0.003120 -0.000019 17.611989 -0.064115 -0.784456 25.210833 0.043910 -1.563983 24.892862 0.034579 -1.564204 31.106334 -9.801115 1.251817 -12.344495 -4.264041 2.815177 169.998600 -81.718098 8.613254 75.489573 51.696879 101.408310 -36.784650 -14.434912 1.340334 -9.062518 -26.630462 1.784335 126.898604 77.253906 -52.540878 56.500305 -47.549656 -83.464864 -24.110597 14.469196 -1.120155 14.835685 36.051330 -0.440799 
151.744598 14.685790 57.639599 85.621209 60.399670 85.439485 94.425863 -21.179396 -150.213168 -141.119795 3.394863 5.147009 73.730465 -4.518837 -1.693810 21.454553 0.003087 -0.000002 101.389193 10.132602 156.302363 -134.218217 -3.826033 -1.847493 75.665321 5.383183 12.478136 21.454558 -0.003102 -0.000015 17.428548 -0.129042 -0.472692 24.844936 -0.153756 -0.961988 24.526871 -0.159437 -0.961031 31.260318 -9.894796 0.947584 -12.627793 -2.623292 1.971304 177.440419 -81.873894 1.070554 74.424931 49.385393 98.027701 -36.619117 -14.961079 1.370519 -11.376876 -25.646561 6.326084 123.277114 77.199839 -56.196399 62.047433 -45.540587 -86.923521 -28.750534 14.769307 -1.217358 15.181002 29.833744 -5.278723 
151.791504 14.896180 60.364792 87.428047 60.410196 88.517407 94.924248 -20.125000 -147.859990 -143.700691 3.072606 6.795800 77.511808 -5.699139 -2.146322 21.454551 0.003097 0.000000 102.923902 11.060696 153.170653 -137.227407 -3.616473 -2.630956 78.962219 5.541750 12.450396 21.454557 -0.003110 -0.000017 17.186518 -0.245358 -0.222635 24.361325 -0.438448 -0.491874 24.043219 -0.441279 -0.489197 32.120430 -10.483610 0.511515 -12.965783 -1.026324 1.069137 -177.425734 -81.975787 -4.132632 72.824850 47.111196 95.339571 -36.330364 -15.393880 1.391689 -12.391838 -24.520080 8.934682 122.462806 76.960331 -57.038548 66.937322 -42.901169 -89.635387 -36.656597 14.511558 -1.369552 12.923104 37.167779 -6.316786 
151.709198 15.036880 62.875969 88.802056 59.761614 91.160213 94.591788 -19.447219 -144.802934 -145.826902 2.734387 8.705200 80.588473 -7.134578 -2.968268 21.454551 0.003092 -0.000001 104.172215 12.065993 150.347722 -139.993292 -3.367429 -3.174195 82.656060 5.604590 12.991664 21.454557 -0.003116 -0.000018 16.835873 -0.298202 -0.112539 23.659902 -0.567148 -0.283619 23.341794 -0.568708 -0.280177 32.692492 -10.728976 0.309608 -12.880120 -0.558243 0.757155 -173.966025 -81.919957 -7.637505 71.140600 45.522914 93.975528 -34.709915 -15.562477 1.364936 -12.151891 -24.075493 9.684714 121.623198 76.710510 -57.907122 69.767616 -41.704001 -90.707965 -44.779478 13.771518 -1.538015 7.329642 45.923354 -9.926262 
151.598297 15.098940 65.274231 89.899373 59.512435 93.056348 94.723140 -19.501689 -141.342213 -147.669701 2.433053 10.836130 83.403932 -8.683387 -3.802717 21.454555 0.003095 0.000001 105.968712 12.816901 147.577138 -142.598599 -3.070771 -3.898165 86.889698 5.678283 13.517824 21.454558 -0.003112 -0.000019 16.687503 -0.385185 -0.132968 23.363741 -0.735644 -0.340905 23.045620 -0.737549 -0.336439 32.443023 -11.039309 0.609406 -12.701381 -0.351420 0.994984 -172.811518 -81.763716 -8.806053 70.242021 44.455290 92.651858 -32.751307 -15.255849 1.302052 -11.395200 -23.377151 10.342272 121.530717 76.237124 -58.043829 69.518929 -41.792288 -90.645107 -53.179252 12.835294 -1.741251 -1.067201 46.947012 -16.338364 
151.448105 15.028410 67.489578 90.794292 59.496740 94.442392 94.903313 -19.949104 -137.516857 -149.256695 2.118537 13.100316 85.999779 -10.197327 -4.233050 21.454553 0.003093 0.000001 107.775993 13.589610 145.091345 -145.046990 -2.816670 -4.682208 91.344061 5.625364 13.445314 21.454558 -0.003100 -0.000016 16.698954 -0.470580 -0.152773 23.387374 -0.900608 -0.397418 23.069258 -0.902861 -0.391947 32.198724 -11.250499 0.776238 -13.070642 0.222918 0.964447 -173.039414 -81.099863 -8.569222 68.387208 44.025265 92.072439 -29.257170 -14.690017 1.195653 -10.721097 -23.542060 9.583620 121.340483 75.967877 -58.260209 67.454682 -44.016164 -91.049256 -58.969224 12.581751 -1.928703 -5.731786 45.338949 -21.312140 
151.347000 14.780580 69.706238 91.730212 59.235567 95.756370 94.541266 -20.521703 -133.170507 -150.841586 1.756572 15.641768 88.576646 -11.816816 -4.404482 21.454553 0.003090 -0.000001 108.858011 14.947606 141.798935 -147.483701 -2.436547 -5.907706 96.157725 5.804340 13.283728 21.454558 -0.003110 -0.000019 16.698450 -0.527492 -0.106718 23.386412 -1.022574 -0.317778 23.068274 -1.024338 -0.311567 32.127454 -10.690364 0.729140 -13.035742 0.717340 0.729156 -173.504509 -80.291695 -8.089478 65.400455 43.718275 91.441589 -25.478644 -13.294075 1.040699 -9.715208 -24.136920 8.354220 120.695808 75.940973 -58.912144 65.496590 -47.924391 -91.095510 -61.214505 12.632421 -2.015722 -3.237542 41.150619 -20.079708 
151.249603 14.332070 71.773087 92.604415 58.619272 97.014006 93.492244 -20.867497 -128.323204 -152.320103 1.395292 18.125430 91.181277 -13.377795 -4.605558 21.454550 0.003095 -0.000003 109.009143 16.904290 138.084473 -149.644500 -2.090073 -7.591982 100.112596 6.412708 13.241071 21.454558 -0.003111 -0.000016 16.704370 -0.539312 0.062485 23.396874 -1.080120 0.014722 23.078705 -1.079883 0.021253 32.564464 -8.931216 0.415277 -13.455450 1.056642 0.277315 -174.470188 -79.723348 -7.101931 62.343890 43.112455 90.089294 -23.460556 -12.163419 0.937711 -8.232955 -23.168657 7.696447 122.547213 75.440894 -57.092629 62.569328 -51.996140 -91.046640 -59.610305 12.455228 -1.943760 7.919867 36.768906 -9.735308 
151.154602 13.850850 73.573334 93.134936 57.905913 97.813479 92.539535 -21.133999 -123.391001 -153.532817 1.078271 20.324884 93.808461 -14.729880 -4.880423 21.454550 0.003089 -0.000001 108.852131 18.769112 134.380680 -151.353003 -1.791239 -9.411668 103.140501 7.249606 13.669792 21.454560 -0.003103 -0.000015 16.872229 -0.444692 0.403391 23.729453 -0.962609 0.707099 23.411322 -0.958169 0.712917 33.356861 -7.473975 -0.226859 -15.086650 2.502222 -0.925641 -175.344603 -78.467986 -6.196665 57.556775 43.253365 87.254861 -20.592602 -10.848649 0.815323 -7.390693 -23.417022 8.213027 120.020726 74.587517 -59.717956 63.071230 -53.932427 -95.643276 -54.940396 11.638309 -1.721224 10.906206 42.569233 -2.362287 
151.074493 13.415890 75.042847 93.670478 56.738668 98.390767 91.763926 -21.339604 -119.389972 -154.313084 0.827543 22.425063 95.786839 -16.126268 -5.814059 21.454555 0.003099 0.000001 107.948223 20.237589 130.614609 -152.664919 -1.506921 -11.206733 105.299018 8.163495 14.365015 21.454555 -0.003119 -0.000019 17.087918 -0.405435 0.723626 24.158174 -0.952865 1.346759 23.840126 -0.944580 1.352504 34.413065 -5.420174 -0.783428 -16.989773 3.821476 -2.081650 -176.165100 -76.699643 -5.335342 51.903615 43.716424 84.165764 -17.160220 -9.632968 0.700024 -5.947154 -23.561783 8.605005 119.915801 73.892531 -59.888499 65.262929 -54.257858 -101.344694 -52.213805 13.583679 -1.758842 11.416240 45.089678 -1.608625 
150.982803 13.215660 76.062180 93.342321 55.061888 98.028726 91.075996 -21.450400 -116.404660 -154.820608 0.622103 23.649129 97.523668 -16.873497 -6.412162 21.454553 0.003097 -0.000001 106.968303 20.874108 128.602381 -153.488503 -1.394241 -12.179563 106.855318 8.590652 14.982179 21.454557 -0.003117 -0.000021 17.326933 -0.299412 0.850762 24.636050 -0.772899 1.618349 24.318057 -0.762971 1.623003 35.685495 -3.410818 -0.991726 -18.389878 4.275166 -2.582110 -178.759889 -74.907006 -2.650126 46.805750 45.200881 83.579058 -14.417747 -8.061384 0.575170 -1.775642 -24.069406 6.086199 122.160037 73.308154 -57.679568 63.182569 -56.671230 -100.791599 -46.564760 12.210841 -1.487799 10.818489 46.688011 1.587480 
150.838806 13.541590 76.297707 92.918214 52.837886 97.349990 91.540313 -21.557904 -116.935789 -154.865496 0.681973 22.690570 99.307385 -16.132994 -7.208510 21.454553 0.003098 -0.000001 106.331941 20.486801 129.181922 -153.634983 -1.482199 -11.644324 107.741692 8.115361 15.445634 21.454557 -0.003104 -0.000016 17.740557 -0.133562 0.816998 25.465377 -0.443357 1.584634 25.147385 -0.433649 1.587287 35.887030 -2.388136 -1.196209 -20.009625 4.126621 -2.870569 176.412913 -72.422654 2.362848 41.109478 48.507047 82.849477 -10.935274 -6.366373 0.443718 2.267746 -26.162643 2.973851 126.636079 71.949520 -53.280209 56.387190 -58.592990 -97.676999 -41.862636 12.242239 -1.354966 14.339239 48.327970 8.196492 
150.780304 14.304340 75.982071 92.276880 49.271940 95.901026 91.932987 -22.202901 -120.011246 -154.605198 0.917961 20.371403 101.247500 -14.431551 -7.906533 21.454550 0.003101 -0.000001 104.706861 18.874295 131.118786 -153.200405 -1.617341 -10.128703 107.925103 7.087360 15.882024 21.454558 -0.003106 -0.000016 17.974918 -0.004125 0.720577 25.935951 -0.169376 1.421905 25.617961 -0.160654 1.422912 35.119750 -2.106499 -1.080462 -21.512429 3.324631 -2.498770 171.538794 -71.137438 7.418992 35.265506 52.838490 80.870608 -8.848435 -6.109097 0.419180 4.935280 -23.268781 -3.629827 130.494808 70.805136 -49.471436 47.056554 -60.215733 -91.253479 -36.972702 11.969213 -1.211624 17.187088 46.760346 13.378037 
150.742706 15.783770 75.049606 91.153690 45.066794 93.833480 93.026254 -23.132712 -125.326827 -153.646608 1.351598 16.772808 103.334615 -11.892924 -9.225008 21.454551 0.003098 -0.000001 103.417206 16.412296 135.879729 -151.817989 -2.015252 -7.166256 107.474201 5.212244 16.493102 21.454560 -0.003119 -0.000019 18.186733 0.254523 0.544490 26.362683 0.378536 1.132540 26.044633 0.385507 1.130240 33.608571 -3.625750 -1.070505 -23.067924 2.428931 -2.135119 168.550313 -70.831541 10.507622 26.364879 56.135351 73.473957 -9.847946 -7.416746 0.508317 6.596371 -13.329806 -4.691413 132.302485 69.388985 -47.758650 34.675614 -60.796777 -81.602756 -32.420968 11.316693 -1.066841 19.659687 43.520845 18.088827 
150.619095 18.005501 73.839867 89.691736 40.356630 91.977875 94.074675 -23.763700 -131.184233 -151.884597 1.835208 12.834509 105.091695 -9.145197 -10.578297 21.454553 0.003092 -0.000001 102.874909 14.453809 142.495996 -149.604502 -2.567195 -3.551929 107.294991 2.851938 17.141936 21.454558 -0.003106 -0.000017 18.268681 0.678001 0.354852 26.530866 1.256749 0.855413 26.212733 1.262017 0.847834 30.536891 -5.327227 -0.931325 -22.934390 1.087715 -1.502752 164.585088 -70.299182 14.612797 12.599925 56.216050 66.029781 -13.112817 -7.895379 0.555608 5.358954 -3.178206 5.004434 133.778708 67.831579 -46.390515 21.125638 -59.485962 -71.511486 -28.321798 10.420223 -0.929074 21.581067 40.694339 21.791715 
150.538300 20.920719 72.555389 89.270634 35.742257 90.708962 96.048770 -24.767594 -138.849071 -149.241109 2.512977 8.657257 106.361502 -6.267829 -11.421015 21.454551 0.003096 -0.000002 102.689941 12.875306 148.364208 -146.625788 -3.170688 -0.151945 107.077613 0.636737 17.346932 21.454558 -0.003101 -0.000015 18.190790 0.907271 0.095507 26.374977 1.768880 0.394894 26.056726 1.771371 0.384214 28.487165 -7.090808 -0.774847 -22.953704 0.043164 -1.022539 157.969011 -69.967645 21.435203 -0.164682 54.417562 57.701220 -17.189902 -9.257136 0.675950 10.550107 3.671843 4.707344 135.087495 65.980222 -45.214264 9.987103 -56.619741 -64.374362 -23.746126 9.993597 -0.827314 22.435672 35.439618 22.080308 
150.511093 24.307211 71.420738 88.707874 32.000543 89.895405 98.757371 -25.368813 -145.515623 -145.922388 3.111086 5.260678 107.394302 -3.930429 -12.107737 21.454550 0.003092 -0.000003 103.879186 12.347198 153.937014 -142.898704 -3.748158 2.570790 107.130308 -1.188791 17.292337 21.454555 -0.003108 -0.000018 18.118706 1.153427 -0.210592 26.228377 2.324402 -0.154810 25.909998 2.323561 -0.168827 25.794437 -7.938321 -0.433608 -22.409183 -0.927168 -0.460249 151.721669 -71.183105 27.770347 -12.739032 52.229097 45.802043 -18.168549 -10.415022 0.760404 14.184355 6.096109 4.883455 137.152493 64.387223 -43.237450 2.517758 -51.928648 -59.910881 -20.556812 11.411022 -0.876349 16.379992 25.434371 11.155677 
150.618301 27.911110 70.505669 88.557084 28.792089 89.378250 102.214280 -25.810516 -151.551912 -142.087592 3.568408 2.763301 108.473895 -2.168101 -12.893640 21.454557 0.003094 0.000001 105.457909 12.391008 158.028584 -138.751004 -4.174908 4.396664 107.141708 -2.424704 17.147764 21.454562 -0.003098 -0.000016 17.865716 1.215910 -0.544659 25.715845 2.522146 -0.806112 25.397433 2.517355 -0.821310 22.796192 -7.548698 0.132357 -20.410748 -1.848200 0.310975 141.949199 -72.028661 37.693065 -20.617049 47.446165 35.497620 -19.745973 -10.956510 0.812333 14.489628 5.940810 10.743652 137.677694 63.660983 -42.760331 -2.784171 -46.248078 -52.581262 -21.234817 13.585391 -1.023790 11.025644 9.128215 -7.511071 
150.679794 31.644730 69.709534 88.270284 26.349999 89.091007 105.722634 -25.940101 -156.415225 -137.811088 3.930268 0.914115 108.988994 -0.891178 -13.382489 21.454551 0.003080 -0.000000 107.816216 12.720395 161.704182 -134.225307 -4.443065 5.672062 106.965899 -3.281650 16.829907 21.454558 -0.003101 -0.000016 17.569279 1.259056 -0.908079 25.114590 2.684769 -1.521963 24.796235 2.675663 -1.538135 19.638571 -6.646124 0.608769 -18.641492 -2.522274 0.915801 132.420907 -72.897584 47.309169 -24.973487 41.699138 26.320692 -21.983097 -12.116705 0.914407 12.878410 2.072623 10.505923 136.291603 64.038242 -44.148820 -8.976799 -40.651998 -43.240592 -23.794752 13.793833 -1.072412 10.948202 -3.986099 -19.086178 
150.796600 35.304581 69.091530 88.088840 24.698565 88.765562 109.563700 -26.144504 -160.699229 -133.391409 4.247894 -0.458518 109.187110 0.037758 -13.656335 21.454555 0.003098 0.000001 110.610037 13.015108 164.499478 -129.563907 -4.564826 6.367023 106.514997 -3.719286 16.440655 21.454558 -0.003100 -0.000016 17.230006 1.231203 -1.081408 24.431701 2.662560 -1.879171 24.113418 2.651294 -1.895197 17.352432 -5.372322 0.643965 -17.423381 -2.723563 1.012195 127.496191 -73.361505 52.256814 -27.790925 35.037702 16.405122 -24.316411 -13.814131 1.055992 11.477778 -4.652272 7.792957 131.378019 65.258797 -49.063547 -13.319151 -37.882353 -34.804271 -26.698291 14.186783 -1.143631 10.425218 -1.286821 -20.287419 
150.874603 38.924530 68.650017 88.121373 23.735913 88.670923 113.746624 -26.316092 -164.649319 -128.765008 4.548690 -1.397431 109.036307 0.637863 -13.567595 21.454553 0.003075 -0.000000 113.987736 13.407507 166.680084 -124.850503 -4.585462 6.716149 105.962803 -3.913417 16.213395 21.454560 -0.003096 -0.000015 16.895999 1.100772 -1.158498 23.762435 2.415625 -2.066779 23.444249 2.403241 -2.081311 15.040454 -4.006736 0.553901 -15.480962 -2.132685 0.741335 124.710471 -73.617548 55.049911 -29.718641 28.601861 7.755193 -28.129572 -17.094005 1.328475 10.733538 -13.878880 1.514782 127.143316 66.742553 -53.239330 -17.141763 -35.997313 -27.744607 -30.524153 15.946830 -1.326889 9.350150 7.520449 -17.842288 
150.850601 42.667042 68.312134 88.102180 23.128928 88.721842 118.033769 -26.546107 -168.143480 -123.729710 4.816299 -1.935287 108.489495 0.929454 -13.206140 21.454553 0.003076 -0.000002 117.927601 13.552192 168.772540 -119.868795 -4.528483 7.136905 105.297106 -4.151533 15.826733 21.454560 -0.003108 -0.000017 16.507688 0.951522 -1.301924 22.984010 2.142370 -2.389273 22.665978 2.128055 -2.402141 13.963432 -3.158011 0.609471 -14.119402 -1.855055 0.770025 122.842400 -74.406653 56.864402 -31.398868 23.988352 -1.355964 -34.591981 -20.810610 1.700799 11.555836 -20.456167 -3.359384 126.044611 66.957622 -54.335244 -20.443801 -32.643977 -20.830928 -34.971771 17.961393 -1.552569 8.600102 12.880580 -15.462071 
150.761002 46.449631 68.099510 87.854647 22.696239 88.927936 122.181279 -26.785521 -171.021421 -118.461804 5.037779 -2.175983 107.749403 1.010521 -12.700217 21.454553 0.003099 -0.000000 122.230552 13.448001 170.940907 -114.663208 -4.426548 7.669004 104.570702 -4.469430 15.198137 21.454557 -0.003109 -0.000019 16.086175 0.919426 -1.497327 22.137343 2.108102 -2.791442 21.819424 2.091345 -2.804096 13.458393 -3.271929 0.688427 -12.846881 -1.271531 0.606758 120.970601 -75.731915 58.630453 -33.310440 21.750428 -11.628352 -44.388023 -23.345913 2.130711 10.723702 -21.640734 -1.487952 124.783294 67.115385 -55.600387 -23.747072 -29.856956 -11.991428 -39.725739 19.556664 -1.775274 7.780613 14.724588 -17.263520 
150.718094 50.340561 67.877983 87.678503 22.174378 89.167402 126.248274 -26.961181 -173.925125 -112.817793 5.194987 -2.267699 106.733809 0.979834 -11.925241 21.454550 0.003101 0.000000 126.387869 13.307106 172.732124 -109.014812 -4.192080 8.016907 103.446992 -4.625743 14.665275 21.454558 -0.003120 -0.000017 15.604201 0.902187 -1.570809 21.172092 2.076455 -2.950268 20.854238 2.058757 -2.962738 13.331057 -3.416550 0.553858 -11.364890 -0.788779 0.271480 118.683211 -76.929971 60.822978 -35.472287 20.348042 -20.053138 -54.662987 -22.939744 2.446019 8.721986 -20.089330 1.633739 123.586481 67.895591 -56.740635 -26.971932 -28.907642 -2.396486 -45.333574 21.018845 -2.032861 8.361152 15.427422 -16.901991 
150.673492 54.301849 67.737373 87.602012 21.606711 89.518269 130.360499 -27.067710 -176.720886 -106.772010 5.224760 -2.072959 105.450109 0.750143 -11.307262 21.454551 0.003097 -0.000001 130.565923 13.167794 174.136219 -103.041395 -3.814393 8.213827 102.218303 -4.655046 14.795435 21.454560 -0.003115 -0.000017 15.088798 0.885811 -1.558655 20.141693 2.029382 -2.939507 19.823830 2.011741 -2.951689 13.758524 -3.388182 0.184242 -10.033007 -0.437323 -0.208669 115.977992 -77.562146 63.483917 -37.107622 19.570693 -25.378816 -64.376862 -20.392144 2.640105 6.635234 -20.307664 5.588303 122.069701 68.765395 -58.194352 -29.504686 -28.971801 6.644063 -51.677802 20.804304 -2.225091 8.191586 18.156994 -16.171458 
150.693604 58.420551 67.558617 87.648211 20.906927 90.108521 134.453257 -26.721708 -179.386777 -100.143701 5.142548 -1.804947 103.744303 0.447789 -10.805843 21.454553 0.003100 0.000001 134.785136 13.221613 175.286423 -96.508654 -3.214120 8.343766 101.063598 -4.635841 15.228817 21.454557 -0.003108 -0.000018 14.583666 0.877274 -1.585940 19.130971 2.004724 -3.005153 18.813129 1.986682 -3.017185 14.721448 -3.541992 -0.196060 -9.118543 -0.130268 -0.688659 114.666322 -77.847272 64.774741 -38.284617 19.345584 -29.293592 -72.758481 -16.512343 2.712891 3.457505 -20.373778 10.660322 121.125632 69.221099 -59.106046 -31.136958 -28.952352 12.465360 -57.911521 20.163762 -2.405599 6.655318 21.433035 -16.725526 
150.801697 62.668541 67.307663 87.864551 20.050360 90.734842 138.623894 -26.017189 177.943599 -92.898079 4.884490 -1.372434 101.789387 0.034326 -10.300369 21.454551 0.003082 -0.000001 138.912702 13.320407 175.959566 -89.376796 -2.262355 8.608435 99.780034 -4.724844 15.129552 21.454558 -0.003109 -0.000018 14.110634 0.834811 -1.648255 18.184477 1.918383 -3.144954 17.866711 1.899491 -3.156452 15.684100 -3.888296 -0.392339 -8.104468 0.277961 -1.024647 115.017203 -78.391720 64.371412 -39.673741 20.171657 -33.134450 -80.116295 -11.712397 2.690843 0.383363 -19.140248 17.750528 120.821798 69.344377 -59.401418 -32.158607 -28.864195 16.453171 -63.734592 19.085789 -2.556466 3.739056 22.678842 -19.564018 
150.978195 66.920662 67.052544 87.901809 19.096504 91.291448 142.689782 -25.271391 175.316845 -85.323795 4.808673 -0.748549 100.129508 -0.520290 -10.461700 21.454553 0.003091 -0.000002 143.101643 13.294805 176.523657 -81.750869 -1.160436 9.132348 98.711069 -5.003660 15.244128 21.454562 -0.003097 -0.000015 13.657106 0.828281 -1.674580 17.277034 1.897449 -3.206805 16.959297 1.878209 -3.218183 17.396543 -4.128110 -0.510972 -7.262472 0.704745 -1.232196 118.117193 -78.586941 61.239155 -40.907646 21.653914 -36.900042 -86.504749 -6.590919 2.611575 -1.812348 -15.804807 22.706517 121.046006 69.522706 -59.158044 -32.808609 -29.198857 19.500714 -69.290596 17.542993 -2.675386 1.304420 22.872867 -23.460817 
151.339493 71.144470 66.634911 87.868881 17.676511 91.635792 146.360900 -24.375099 172.873413 -77.228314 4.413013 -0.154687 97.896432 -1.116699 -10.774529 21.454553 0.003095 0.000001 146.854231 13.198509 176.986812 -73.417355 -0.154491 9.874673 97.406714 -5.416807 15.116313 21.454558 -0.003112 -0.000017 13.139459 0.841314 -1.649644 16.241884 1.906006 -3.164952 15.924108 1.887016 -3.176381 19.659494 -4.283175 -0.625829 -6.758174 0.746857 -1.293961 122.179530 -78.284555 57.181169 -41.623316 23.723258 -39.341108 -91.689696 -1.990058 2.519376 -3.306205 -13.465026 25.522479 120.890086 69.823255 -59.287189 -33.017722 -29.999659 22.040532 -73.957104 14.983492 -2.692640 -0.030534 21.897354 -25.879071 
151.885406 75.034073 66.268517 87.874325 16.225751 91.841585 149.901998 -23.290703 170.969607 -69.047557 3.435423 0.187124 94.001728 -1.588933 -10.143760 21.454551 0.003098 0.000000 150.505868 13.162704 177.376188 -64.893901 0.557370 10.704574 96.014879 -5.865193 15.056619 21.454557 -0.003111 -0.000018 12.651290 0.817774 -1.608600 15.266745 1.840763 -3.095345 14.948962 1.822171 -3.106368 21.957451 -4.009333 -0.661110 -6.094316 0.550565 -1.165793 126.527697 -77.669728 52.855699 -41.599052 26.233225 -37.897923 -96.137467 -0.783563 2.632892 -3.698197 -11.772745 26.124254 121.390534 70.135750 -58.752194 -32.985029 -30.900199 23.332623 -77.611344 12.483976 -2.674452 -0.779435 20.691898 -27.463275 
152.607498 78.490784 66.004433 87.786659 15.314189 91.892306 153.715648 -22.342710 169.777357 -61.277069 1.912858 0.556295 90.753748 -2.046508 -9.984229 21.454551 0.003091 0.000001 154.732089 13.183302 177.495470 -56.119256 1.363906 11.509884 94.403412 -6.255343 15.176634 21.454558 -0.003116 -0.000017 12.299588 0.778932 -1.559941 14.564991 1.748147 -3.009512 14.247213 1.730097 -3.019991 24.134798 -3.408417 -0.633647 -4.941816 0.204018 -0.928917 129.681414 -77.371003 49.699906 -41.295563 29.685348 -36.477489 -99.453312 0.092169 2.719250 -3.011859 -9.979544 25.156579 122.207794 70.435417 -57.898223 -32.858462 -31.995205 23.561641 -80.511169 10.545641 -2.664816 -1.328621 19.472623 -28.932388 
153.558701 81.182678 65.772636 87.450955 14.057188 91.417567 156.623177 -21.862203 168.666413 -55.966362 0.868875 1.648335 90.350405 -3.433947 -14.042458 21.454555 0.003094 0.000002 158.040373 13.037600 177.221047 -47.993349 1.891795 12.391386 93.437118 -6.698510 15.837040 21.454560 -0.003118 -0.000020 11.832959 0.780477 -1.415106 13.634047 1.722361 -2.728475 13.316195 1.705981 -2.738788 26.691630 -3.400271 -0.676579 -4.109986 0.364409 -0.935257 134.864708 -76.680102 44.519286 -40.217769 32.909593 -33.830736 -101.462515 0.641046 2.770156 -2.850005 -9.138631 23.967404 122.556311 70.886080 -57.503998 -32.336161 -33.223635 22.406992 -82.293575 9.179844 -2.647307 -1.769769 18.261752 -30.418787 
154.376297 83.391296 65.392174 87.320512 12.971462 90.704113 158.843631 -21.215295 166.720983 -54.998872 0.983904 2.258989 89.886294 -4.359439 -16.833795 21.454551 0.003078 -0.000001 161.003979 12.978712 176.621343 -40.557882 2.289688 13.873187 93.670731 -7.690027 16.585052 21.454557 -0.003099 -0.000014 11.388222 0.716888 -1.272225 12.747918 1.569629 -2.457757 12.430004 1.554902 -2.467177 29.051947 -3.472947 -0.743601 -3.657332 0.604233 -0.994198 140.611684 -76.166971 38.738132 -38.928988 36.041307 -30.342395 -101.679701 0.682853 2.776870 -2.358003 -9.032719 22.024614 121.533818 71.615039 -58.469042 -31.831332 -34.782742 20.731272 -83.321225 8.201909 -2.624082 -1.283724 16.501124 -31.032715 
155.178497 85.076469 64.905128 87.755042 11.813661 89.670835 160.669108 -20.193801 164.495735 -56.619099 1.526164 1.847323 87.168377 -3.772365 -12.943104 21.454555 0.003096 0.000002 163.081626 13.460596 174.810851 -33.868364 2.984692 15.684742 93.548149 -8.903968 17.106072 21.454562 -0.003115 -0.000019 10.928471 0.471688 -1.092824 11.834783 1.052691 -2.131659 11.516859 1.039934 -2.137963 30.539371 -3.151296 -0.711962 -3.536831 0.550425 -0.900975 146.125272 -75.861723 33.163089 -37.329050 39.005076 -27.107783 -101.031987 0.530894 2.758749 -1.602089 -8.186170 22.366289 122.035618 72.057806 -57.921104 -31.041089 -36.003051 18.225427 -83.781887 7.736973 -2.611866 -1.061403 15.155034 -31.876049 
156.130798 86.111671 64.524803 88.393938 11.152437 88.434885 163.525152 -18.349305 163.270345 -56.396121 1.762644 1.295957 82.933619 -3.079308 -9.328487 21.454548 0.003087 -0.000000 164.734956 14.385401 173.619311 -28.449912 3.152261 16.903595 92.961211 -9.656791 17.470051 21.454560 -0.003100 -0.000014 10.586696 0.142273 -0.878857 11.157788 0.368603 -1.739853 10.839850 0.358237 -1.742035 30.547461 -3.011773 -0.636285 -2.389173 0.637378 -0.833327 150.987711 -75.925783 28.214094 -35.532642 41.654827 -23.482923 -99.551537 0.113315 2.722144 -1.201301 -8.055657 22.706115 122.704294 72.577426 -57.197718 -30.194545 -37.458929 15.741465 -83.987298 7.389562 -2.596637 -0.510509 13.717036 -32.147822 
157.376297 86.119087 64.190208 88.041787 10.303661 86.898052 167.281742 -16.978807 162.046265 -51.255785 1.622930 2.703860 88.825920 -3.186964 -7.277954 21.454553 0.003081 -0.000000 164.767686 14.742101 173.182056 -25.500081 3.032876 17.404461 92.100791 -9.724920 18.929700 21.454558 -0.003106 -0.000017 10.227711 0.044736 -0.587008 10.441845 0.142232 -1.167545 10.123826 0.135317 -1.168384 29.659707 -2.988431 -0.554141 -1.379114 0.361942 -0.701444 156.499523 -75.561065 22.622211 -33.174379 43.307487 -19.326031 -98.226870 -0.188610 2.684324 -1.238004 -9.950416 21.801508 122.780929 73.046981 -57.077046 -28.898264 -38.906865 12.908125 -83.860366 7.287415 -2.583911 0.085282 12.939847 -31.709030 
158.514404 86.158836 63.798981 88.358681 9.470248 85.542362 169.919821 -14.698898 161.775544 -45.880836 0.566414 0.878940 93.735515 -1.587392 -7.552167 21.454555 0.003084 -0.000002 164.319325 15.919696 173.754822 -23.038308 2.872016 17.205327 90.254017 -9.160026 20.520769 21.454560 -0.003102 -0.000016 9.930883 -0.159798 -0.379421 9.849908 -0.286749 -0.771044 9.531854 -0.291263 -0.769300 28.298210 -3.087932 -0.517582 -0.644457 -0.205798 -0.575980 161.633681 -75.536776 17.385816 -31.531107 45.046569 -16.618122 -98.240769 -0.132340 2.681012 -1.840310 -13.011324 18.998984 123.250600 73.229163 -56.586044 -27.493496 -40.359158 9.939116 -83.057088 7.707433 -2.577917 0.557654 12.368354 -31.790351 
159.515503 86.055328 63.087479 89.016981 8.988661 85.442579 168.765491 -12.468314 162.926117 -45.721262 0.801288 -0.877563 93.790245 -0.307338 -6.850867 21.454553 0.003089 -0.000000 163.640049 17.388584 175.456672 -21.951367 2.503513 16.535488 88.935367 -8.408994 21.234100 21.454560 -0.003109 -0.000019 9.848311 -0.427541 -0.376733 9.686853 -0.822074 -0.787963 9.368739 -0.826700 -0.782971 26.908189 -3.320658 -0.674936 0.223639 -0.260964 -0.777285 165.042792 -75.588624 13.902429 -30.963580 46.171816 -16.442890 -100.778499 0.582538 2.743904 -1.958322 -15.178927 15.605222 124.764129 73.265998 -55.053927 -26.210702 -42.062812 7.445966 -81.451693 8.679866 -2.575462 0.480208 11.554395 -33.030938 
160.469803 85.900887 62.411919 89.569311 9.317583 85.553829 168.100586 -10.560999 164.229153 -46.165856 1.155761 -1.960320 93.658102 0.433736 -6.703020 21.454555 0.003103 0.000003 163.684254 18.179901 175.578004 -21.279145 1.930004 15.976864 88.632182 -8.009725 20.921300 21.454557 -0.003110 -0.000016 10.043353 -0.750543 -0.265699 10.078542 -1.475097 -0.595830 9.760340 -1.478540 -0.586895 26.647056 -2.954012 -1.008706 0.133592 -0.419696 -1.088348 166.491598 -75.547172 12.424109 -31.931647 46.268224 -18.173486 -104.656202 1.561161 2.847227 -3.405691 -17.375971 11.416779 128.625316 72.901293 -51.181531 -24.677386 -43.849459 4.858944 -78.310298 10.533265 -2.568241 0.343382 11.690816 -34.130530 
161.323898 85.905899 61.882210 90.410873 9.843729 84.719897 168.995109 -8.829498 162.448796 -44.968115 2.055829 -2.026548 93.854367 0.516647 -6.366465 21.454551 0.003088 -0.000001 163.587047 18.950397 173.825541 -20.564593 1.911165 15.958187 88.712034 -8.210136 19.611001 21.454560 -0.003108 -0.000017 10.193984 -1.208973 0.022993 10.378078 -2.415143 -0.062622 10.059681 -2.415333 -0.048020 27.587856 -2.938292 -1.273699 0.337779 -0.313532 -1.366217 167.556534 -75.631484 11.332459 -33.587927 46.056000 -21.114340 -110.125613 2.794765 3.000458 -4.981191 -20.635017 9.645107 131.274665 72.244755 -48.554524 -22.972078 -46.524079 1.545148 -72.720211 13.546983 -2.539659 -0.181023 11.779198 -34.826438 
162.003204 85.979156 61.325562 91.001213 10.273540 83.917767 169.654632 -7.450700 162.785715 -43.908308 1.626797 -2.856471 93.711452 1.130338 -5.999552 21.454555 0.003092 0.000000 163.476971 19.430691 172.252877 -19.765937 2.054317 16.487255 88.474753 -8.898931 17.256073 21.454560 -0.003102 -0.000014 10.268206 -1.579496 0.172234 10.524779 -3.168100 0.200055 10.206159 -3.166675 0.219197 29.013383 -3.810960 -1.352518 0.803727 0.103691 -1.515407 170.972134 -75.764379 7.836605 -36.038482 45.490276 -25.306918 -116.005599 4.066614 3.163279 -6.273831 -22.686895 7.051133 131.057315 71.973002 -48.798683 -22.219497 -49.925797 -1.634545 -65.176664 16.655911 -2.445378 0.162311 12.881697 -34.899558 
162.349503 86.073792 60.834591 91.050909 10.532151 83.698634 169.902103 -6.828903 164.168378 -43.246039 0.983802 -3.707436 93.634435 1.732407 -5.895203 21.454551 0.003080 -0.000002 163.835666 19.261509 172.527300 -18.876339 1.859456 16.499857 88.870241 -9.372640 14.340863 21.454558 -0.003108 -0.000017 10.278185 -1.788605 0.162912 10.546148 -3.584593 0.162046 10.227370 -3.583410 0.183725 30.425778 -4.774617 -1.311359 1.159651 0.532765 -1.516203 174.012101 -75.955884 4.722569 -38.592621 44.410307 -30.205893 -121.634891 5.178604 3.318601 -7.838284 -24.117391 3.733970 131.124018 71.290755 -48.790384 -20.973049 -52.770544 -4.910150 -57.054595 18.509384 -2.260539 0.603586 13.892167 -32.935862 
162.574203 86.379219 60.278221 90.955211 10.409963 83.766007 169.987631 -6.583592 165.283529 -42.097321 0.412423 -4.194346 93.456625 2.025208 -6.254896 21.454551 0.003081 -0.000003 163.781748 18.961399 173.048047 -18.711450 2.122791 16.620782 89.459680 -9.870422 11.819254 21.454557 -0.003110 -0.000018 10.206029 -1.941163 0.131511 10.403698 -3.886224 0.087850 10.084792 -3.885502 0.111368 31.174124 -5.583864 -1.325692 1.924498 0.883807 -1.562339 176.063999 -76.290051 2.615504 -41.418715 42.723871 -34.791105 -125.869294 6.029699 3.428060 -8.464989 -26.308331 0.418572 132.225796 70.782528 -47.715865 -19.017960 -55.020548 -9.054515 -49.761179 19.379933 -2.064647 1.355997 14.829283 -30.494230 
162.804993 87.046028 59.603100 90.421500 10.060130 83.899817 170.289347 -6.841996 165.621924 -40.024728 0.112591 -4.273984 93.089536 2.043150 -6.493661 21.454555 0.003086 -0.000001 163.572307 18.039902 173.371716 -19.203844 2.415863 17.546008 87.081688 -10.236478 12.563808 21.454560 -0.003108 -0.000019 10.106598 -1.975180 0.063475 10.207224 -3.948226 -0.047711 9.888294 -3.948310 -0.023823 31.544194 -6.471425 -1.325235 2.166942 1.151252 -1.587967 178.881493 -76.704944 -0.273836 -44.048911 40.923652 -38.676254 -129.030593 6.581826 3.511184 -7.120579 -26.974116 -3.059805 132.962405 70.106680 -47.025531 -16.162446 -56.473042 -13.930378 -43.741566 19.276544 -1.869822 2.149362 15.102341 -27.199389 
162.927505 87.772003 58.994068 89.716488 9.959367 84.422511 170.940415 -7.348205 165.824781 -37.780853 -0.070262 -4.079809 92.830836 1.858207 -6.875726 21.454551 0.003097 0.000002 164.183500 16.987707 173.998099 -19.537761 2.564915 17.323084 83.427189 -10.165319 10.541879 21.454558 -0.003102 -0.000016 10.093210 -1.906338 -0.039511 10.183280 -3.801758 -0.246904 9.864410 -3.803026 -0.223910 31.913393 -7.597475 -1.426872 1.827154 1.593151 -1.753956 179.385821 -76.973657 -0.794948 -45.769726 39.131294 -41.375298 -131.266018 6.889632 3.573106 -6.241844 -27.437893 -5.292977 133.180684 69.858840 -46.824864 -13.131086 -58.003606 -18.199411 -38.769475 18.884906 -1.706244 2.949371 14.498528 -25.377704 
162.901001 88.452942 58.451099 89.166726 9.844271 85.231103 171.560842 -7.816200 166.687393 -35.543526 -0.599385 -4.021700 92.679452 1.751489 -7.471644 21.454553 0.003088 -0.000001 165.217290 16.192399 174.644645 -19.794585 2.590351 15.955868 82.228675 -8.764095 12.403214 21.454560 -0.003101 -0.000013 10.070225 -1.827484 -0.175811 10.140796 -3.632497 -0.511481 9.822025 -3.635386 -0.489503 32.129121 -8.355020 -1.662442 1.637120 1.684639 -2.001808 179.031115 -77.196294 -0.437653 -47.011451 37.841854 -43.099395 -132.645784 7.036449 3.613119 -5.862932 -26.768929 -6.174267 133.704819 69.731867 -46.302682 -9.799979 -59.199818 -21.244617 -35.278624 18.086483 -1.567832 3.791431 13.315858 -24.853904 
162.904999 89.071632 57.909660 88.953795 9.669819 85.852944 172.220898 -7.969997 167.932277 -33.185509 -1.459729 -4.249592 92.750554 1.826419 -8.352654 21.454550 0.003083 -0.000003 165.770344 15.690398 174.281060 -21.135547 2.908493 14.766490 81.532549 -7.598194 13.705644 21.454560 -0.003093 -0.000014 10.005705 -1.814119 -0.278758 10.014701 -3.597291 -0.713926 9.695939 -3.601398 -0.692155 32.390027 -8.592092 -1.646536 1.505863 1.589543 -1.946027 178.895495 -77.445097 -0.304803 -47.866949 37.150806 -43.776643 -133.465612 7.063872 3.640479 -6.500325 -26.577094 -5.853997 133.645601 69.812197 -46.356047 -6.347228 -60.145580 -24.983975 -32.779635 17.604099 -1.480137 5.216163 12.087242 -23.346644 
162.915497 89.570534 57.339241 88.885842 9.449272 86.331371 172.738653 -8.031292 168.762746 -31.037261 -2.139800 -4.369710 92.971531 1.852002 -9.098604 21.454553 0.003082 -0.000003 165.978842 15.218095 173.859187 -23.766027 3.276396 14.383820 81.105676 -7.211728 14.039538 21.454560 -0.003115 -0.000018 9.931301 -1.812061 -0.344417 9.867811 -3.588139 -0.842614 9.549054 -3.593023 -0.820889 32.396960 -8.780326 -1.602751 1.622207 1.327853 -1.843300 179.433892 -77.691353 -0.859451 -48.504192 36.916192 -43.451109 -133.842406 7.008151 3.657504 -7.560959 -27.733430 -4.188476 133.385002 70.085445 -46.597627 -3.184982 -60.817514 -27.950866 -31.476616 17.223644 -1.428028 6.452324 10.778739 -22.705618 
162.884399 89.901253 56.751289 88.925545 9.263416 86.721027 173.106882 -8.169903 168.532391 -29.328853 -2.480298 -3.981856 93.222233 1.527564 -9.836564 21.454551 0.003105 0.000003 165.988842 14.738213 173.936682 -27.320985 3.570487 14.304551 81.391997 -7.112710 14.347900 21.454560 -0.003115 -0.000017 9.863502 -1.808726 -0.381020 9.733190 -3.578965 -0.913350 9.414469 -3.584283 -0.891665 32.653693 -9.157610 -1.709600 1.505479 1.739795 -2.013571 179.824893 -77.700888 -1.258526 -48.874324 36.849335 -42.962822 -134.028105 7.010826 3.663854 -8.438918 -29.150100 -3.070098 133.290431 70.294736 -46.675959 -0.213511 -60.992264 -30.227569 -31.245250 17.124428 -1.416887 7.408074 9.273935 -22.902540 
162.835602 90.080307 56.157990 89.146523 9.124438 87.142695 173.365064 -8.266096 168.411633 -27.940574 -3.028093 -3.593069 93.451420 1.174343 -10.836977 21.454551 0.003086 -0.000003 166.030151 14.439496 174.993627 -31.239113 3.475598 13.847514 82.190071 -6.759417 14.843610 21.454555 -0.003102 -0.000016 9.809624 -1.822154 -0.422047 9.626816 -3.602877 -0.994769 9.308083 -3.608680 -0.972956 32.565130 -9.162496 -1.833679 2.320602 1.237108 -2.044095 179.861270 -77.638310 -1.294331 -49.030199 37.022955 -42.836187 -134.118100 7.016772 3.666615 -8.407769 -29.609451 -2.895631 133.286606 70.585422 -46.654857 2.012505 -60.946099 -31.815144 -31.479177 17.143242 -1.422933 7.853597 8.446772 -22.120186 
162.734207 90.139618 55.553879 89.445965 8.974501 87.452000 173.362919 -8.251900 168.286531 -27.009392 -3.398380 -3.257163 93.716807 0.870515 -11.752066 21.454553 0.003108 0.000005 166.248007 14.207205 176.024534 -34.788602 3.215932 12.833966 83.549818 -6.191481 14.750429 21.454560 -0.003103 -0.000015 9.750714 -1.839347 -0.453609 9.510163 -3.635197 -1.057406 9.191439 -3.641371 -1.035388 32.529384 -9.122431 -2.184140 3.253017 0.667485 -2.305235 -179.781835 -77.579679 -1.657284 -48.940132 37.383183 -42.963317 -134.169094 7.044655 3.666546 -9.138487 -29.624023 -2.155540 133.367230 70.907930 -46.545376 3.574089 -60.615381 -32.598208 -32.712382 17.052708 -1.443290 8.272651 8.264050 -21.424442 
162.585693 90.139076 54.962269 89.738946 8.869763 87.619504 173.221001 -8.186600 168.118549 -26.423413 -3.553527 -2.981087 93.934635 0.615421 -12.558421 21.454551 0.003097 0.000001 166.861521 13.822689 176.703141 -37.396467 2.946946 11.673084 84.976514 -5.462989 15.030707 21.454558 -0.003111 -0.000017 9.693979 -1.846885 -0.449333 9.396603 -3.651195 -1.047727 9.077852 -3.657319 -1.025633 32.312679 -9.156412 -2.200725 4.385160 0.496191 -2.302314 -179.422390 -77.579584 -2.024026 -48.692989 37.648228 -42.776546 -134.236904 7.055874 3.668177 -9.593665 -30.103690 -0.923661 133.556399 70.997371 -46.345484 4.624157 -60.185414 -32.859897 -34.124271 17.282882 -1.489366 8.601369 8.085058 -21.053978 
162.355896 90.107597 54.376572 90.113377 8.695657 87.796344 172.938710 -8.028312 168.307677 -25.878497 -3.771266 -2.950653 93.879611 0.545949 -12.993905 21.454557 0.003090 -0.000003 167.942413 13.522196 177.412060 -38.400833 2.930847 11.002459 86.401736 -5.128783 15.137005 21.454558 -0.003116 -0.000018 9.611272 -1.863161 -0.410020 9.230044 -3.687710 -0.967889 8.911283 -3.693362 -0.945552 32.413154 -9.153306 -2.586453 5.464778 0.429097 -2.685037 179.968695 -77.623502 -1.403585 -48.394332 37.792113 -42.607335 -134.552404 7.102548 3.676075 -9.010700 -29.495147 -2.091637 134.027095 71.004550 -45.866407 5.300145 -59.720900 -33.024053 -35.657160 17.558582 -1.542746 8.814952 8.443095 -20.400894 
162.110397 90.087593 53.817680 90.504248 8.466841 87.916153 172.639315 -7.834515 168.385063 -25.282912 -3.939684 -2.943129 93.557028 0.499499 -13.109894 21.454557 0.003097 0.000001 169.385153 13.152397 178.451861 -37.581808 2.889157 11.133301 87.474909 -5.312773 15.371409 21.454558 -0.003110 -0.000019 9.512340 -1.862316 -0.356123 9.030319 -3.691186 -0.856946 8.711553 -3.696166 -0.834593 32.036825 -9.207994 -2.719042 6.770655 0.427660 -2.845250 -179.498997 -77.497587 -1.944192 -48.436608 37.743250 -42.566743 -134.719102 7.140457 3.679364 -8.350084 -28.529256 -2.984507 133.791999 71.150654 -46.092965 5.455726 -59.474221 -32.479315 -37.646910 17.650339 -1.597354 9.165528 8.754777 -20.789743 
161.824097 90.073486 53.308578 90.894798 8.285300 87.838466 172.506113 -7.666495 168.226999 -24.582440 -4.043327 -2.937496 93.015914 0.414601 -13.337207 21.454555 0.003092 0.000001 171.340650 12.727994 179.573200 -34.780744 2.883418 11.897474 88.154998 -5.919342 15.491873 21.454557 -0.003102 -0.000016 9.422818 -1.851074 -0.278503 8.848543 -3.675446 -0.698082 8.529761 -3.679458 -0.675840 31.501782 -9.773701 -2.874411 7.747214 0.865747 -3.101531 -178.787523 -77.357391 -2.667653 -48.425884 37.611943 -42.423302 -134.638601 7.120652 3.680778 -8.865382 -28.542884 -2.171141 132.558003 71.271631 -47.336223 4.945388 -59.363551 -31.873009 -39.217785 17.662898 -1.638505 8.828868 8.962103 -20.597245 
161.377594 90.012032 52.827019 91.186420 8.201855 87.640275 172.340945 -7.714095 167.672388 -24.219788 -3.905477 -2.743317 92.499790 0.152777 -13.893649 21.454550 0.003090 -0.000001 173.612999 12.091801 -179.788829 -30.616518 3.070632 12.753742 88.404149 -6.783038 13.996296 21.454558 -0.003119 -0.000019 9.358854 -1.832379 -0.158251 8.716514 -3.647625 -0.454258 8.397727 -3.650178 -0.432184 31.064189 -9.625462 -3.128914 8.241627 0.522172 -3.351231 -178.849268 -77.655201 -2.610167 -48.383943 37.583051 -42.788188 -134.692013 7.195104 3.681682 -9.290650 -28.786457 -1.155449 132.267610 71.212816 -47.636273 4.054219 -59.181076 -30.971940 -40.829419 17.750161 -1.687282 8.361676 8.948253 -20.802840 
160.916397 90.327690 52.338501 90.761726 8.085073 87.438709 172.599714 -8.191401 167.251908 -22.857551 -3.531104 -2.709373 91.391824 -0.048241 -14.242278 21.454551 0.003090 -0.000000 175.366733 10.938295 -179.640532 -26.288281 3.006039 13.190869 86.707202 -7.276954 11.728867 21.454557 -0.003098 -0.000016 9.316743 -1.662203 -0.033306 8.627002 -3.317315 -0.190450 8.308336 -3.318258 -0.170385 30.607714 -9.627172 -3.503607 8.237723 0.526917 -3.778467 -178.574736 -77.755871 -2.892105 -48.425573 37.386912 -42.791668 -134.817402 7.168956 3.682127 -9.427854 -28.946188 -0.724156 132.075395 71.260675 -47.827198 2.068012 -59.135546 -29.491148 -42.361615 17.909921 -1.740292 8.263406 8.891533 -20.938222 
160.207199 90.557709 51.749840 90.197463 8.147030 87.133673 172.588375 -8.923913 166.870414 -22.319038 -3.042996 -2.652376 91.101343 -0.061852 -13.764668 21.454553 0.003084 -0.000004 175.557308 9.373306 178.996705 -25.201948 2.597636 14.439708 85.995142 -8.009801 12.165177 21.454557 -0.003098 -0.000017 9.375691 -1.428634 0.043192 8.741531 -2.856452 -0.021616 8.423010 -2.856415 -0.004339 30.562860 -9.628162 -4.087951 7.607092 0.246920 -4.358554 -177.649996 -77.952908 -3.838726 -48.786569 37.567796 -43.231928 -134.796297 7.101145 3.682211 -10.147903 -28.236130 -0.086733 131.926811 70.682513 -48.028186 -0.529534 -58.178650 -27.935974 -43.423474 18.096187 -1.782918 8.263759 9.209406 -20.574796 
159.340607 90.574257 51.091091 89.790179 8.252396 87.261295 172.083201 -9.605796 166.132003 -22.593156 -2.212383 -2.058810 91.300040 -0.427365 -13.449793 21.454550 0.003096 0.000002 175.102855 8.623094 179.223003 -25.630867 3.020950 14.269560 86.412787 -8.016472 11.678676 21.454560 -0.003109 -0.000017 9.474294 -1.142982 -0.002109 8.938422 -2.282404 -0.092462 8.620051 -2.282778 -0.078672 31.041403 -9.840737 -5.032133 6.606936 0.209936 -5.312789 -178.407205 -77.848488 -3.064674 -48.997206 37.744616 -43.412399 -134.779098 7.083844 3.682016 -10.940241 -28.638701 1.414577 130.324094 70.779256 -49.646934 -3.389705 -57.779412 -26.077975 -44.289201 18.230183 -1.817066 8.075741 9.519317 -20.976160 
