HIERARCHY
ROOT Hips
{
	OFFSET -205.452103 92.225403 328.865814
	CHANNELS 6 Xposition Yposition Zposition Zrotation Yrotation Xrotation 
	JOINT LeftUpLeg
	{
		OFFSET 0.103457 1.857824 10.548498
		CHANNELS 3 Zrotation Yrotation Xrotation
		JOINT LeftLeg
		{
			OFFSET 43.499996 -0.000015 -0.000004
			CHANNELS 3 Zrotation Yrotation Xrotation
			JOINT LeftFoot
			{
				OFFSET 42.372196 0.000008 -0.000001
				CHANNELS 3 Zrotation Yrotation Xrotation
				JOINT LeftToe
				{
					OFFSET 17.299995 -0.000002 0.000010
					CHANNELS 3 Zrotation Yrotation Xrotation
					End Site
					{
						OFFSET 0.000000 0.000000 0.000000
					}
				}
			}
		}
	}
	JOINT RightUpLeg
	{
		OFFSET 0.103454 1.857824 -10.548500
		CHANNELS 3 Zrotation Yrotation Xrotation
		JOINT RightLeg
		{
			OFFSET 43.500046 -0.000011 0.000004
			CHANNELS 3 Zrotation Yrotation Xrotation
			JOINT RightFoot
			{
				OFFSET 42.372265 -0.000011 0.000026
				CHANNELS 3 Zrotation Yrotation Xrotation
				JOINT RightToe
				{
					OFFSET 17.299980 -0.000010 -0.000006
					CHANNELS 3 Zrotation Yrotation Xrotation
					End Site
					{
						OFFSET 0.000000 0.000000 0.000000
					}
				}
			}
		}
	}
	JOINT Spine
	{
		OFFSET 6.901963 -2.603726 0.000004
		CHANNELS 3 Zrotation Yrotation Xrotation
		JOINT Spine1
		{
			OFFSET 12.588104 -0.000003 -0.000010
			CHANNELS 3 Zrotation Yrotation Xrotation
			JOINT Spine2
			{
				OFFSET 12.343198 -0.000010 0.000004
				CHANNELS 3 Zrotation Yrotation Xrotation
				JOINT Neck
				{
					OFFSET 25.832890 0.000000 -0.000007
					CHANNELS 3 Zrotation Yrotation Xrotation
					JOINT Head
					{
						OFFSET 11.766619 0.000023 0.000000
						CHANNELS 3 Zrotation Yrotation Xrotation
						End Site
						{
							OFFSET 0.000000 0.000000 0.000000
						}
					}
				}
				JOINT LeftShoulder
				{
					OFFSET 19.745903 -1.480354 6.000105
					CHANNELS 3 Zrotation Yrotation Xrotation
					JOINT LeftArm
					{
						OFFSET 11.284121 -0.000017 -0.000021
						CHANNELS 3 Zrotation Yrotation Xrotation
						JOINT LeftForeArm
						{
							OFFSET 33.000046 0.000028 0.000038
							CHANNELS 3 Zrotation Yrotation Xrotation
							JOINT LeftHand
							{
								OFFSET 25.200014 0.000018 0.000005
								CHANNELS 3 Zrotation Yrotation Xrotation
								End Site
								{
									OFFSET 0.000000 0.000000 0.000000
								}
							}
						}
					}
				}
				JOINT RightShoulder
				{
					OFFSET 19.746107 -1.480354 -6.000082
					CHANNELS 3 Zrotation Yrotation Xrotation
					JOINT RightArm
					{
						OFFSET 11.284134 -0.000006 -0.000004
						CHANNELS 3 Zrotation Yrotation Xrotation
						JOINT RightForeArm
						{
							OFFSET 33.000084 0.000028 0.000016
							CHANNELS 3 Zrotation Yrotation Xrotation
							JOINT RightHand
							{
								OFFSET 25.199760 0.000129 0.000414
								CHANNELS 3 Zrotation Yrotation Xrotation
								End Site
								{
									OFFSET 0.000000 0.000000 0.000000
								}
							}
						}
					}
				}
			}
		}
	}
}
MOTION
Frames: 101
Frame Time: 0.033333
84.471123 26.564989 -74.967484 87.946130 -37.229975 63.982419 89.695041 6.238604 120.931778 -150.560701 3.095059 -10.397869 89.863781 9.196228 13.779018 21.454555 0.003091 0.000002 145.018331 36.818896 166.580664 -66.412559 -9.588517 20.022930 66.442926 -12.344612 4.260048 21.454560 -0.003109 -0.000015 13.022232 0.473565 3.007876 16.045820 0.524758 6.052244 15.729632 0.561354 6.048997 25.996820 -14.679868 -5.631429 -23.558999 27.307349 -22.345406 -142.912897 -77.301322 -39.289871 -69.916856 22.072600 -31.066142 -31.789148 -9.869710 0.932619 -54.234595 -68.174584 66.769204 82.759039 69.674521 -97.308127 -37.893299 -20.824723 12.847862 -43.344831 17.350040 -1.731657 -16.495571 58.732305 -22.074068 
84.303200 26.262899 -74.911507 87.617469 -37.137627 64.989626 89.663144 7.031997 120.529835 -150.896487 3.233506 -10.553435 89.647496 9.320670 13.691817 21.454551 0.003089 -0.000002 146.153822 36.312311 166.132330 -66.983194 -9.640478 20.165958 66.113390 -12.776869 3.320669 21.454558 -0.003108 -0.000019 13.058333 0.484754 3.229658 16.118739 0.514164 6.495226 15.802846 0.553399 6.492037 26.067972 -15.137770 -6.701776 -23.021506 28.728534 -24.102730 -140.739354 -77.469932 -41.496910 -72.005664 22.390943 -32.215438 -31.862570 -10.083965 0.948133 -56.578671 -66.819105 69.105607 83.117952 69.972003 -96.928908 -35.194507 -22.635551 14.016366 -46.294547 17.780437 -1.847799 -18.438835 56.861868 -24.961078 
83.980957 26.097540 -74.864433 87.223681 -37.251691 66.275019 89.564762 7.841806 120.696218 -151.277393 3.304646 -10.496575 89.475656 9.300515 13.649122 21.454548 0.003094 -0.000001 147.326129 35.548806 165.821256 -67.761535 -9.758664 20.035549 65.579911 -13.018702 2.385245 21.454558 -0.003110 -0.000009 13.083027 0.519052 3.394239 16.170200 0.557875 6.827586 15.854548 0.599142 6.824131 25.777779 -15.795704 -7.552952 -22.223574 29.744022 -25.401345 -137.460740 -77.547823 -44.831200 -73.936429 22.286161 -32.536094 -32.030247 -10.054731 0.949619 -58.071860 -66.272089 70.727408 83.333021 70.234207 -96.695084 -32.641204 -24.579288 15.806757 -49.714054 18.068009 -1.975414 -20.481890 54.398625 -27.672709 
83.495033 26.058140 -74.877571 86.993333 -37.353485 67.759213 89.483524 8.661496 120.912885 -151.653395 3.263074 -10.696238 89.362643 9.471876 13.754930 21.454550 0.003090 0.000001 148.341969 35.079189 165.513720 -68.892881 -9.493664 19.654344 65.281193 -13.175916 1.221540 21.454558 -0.003107 -0.000015 13.132734 0.528143 3.416857 16.270096 0.569776 6.873919 15.954468 0.611308 6.870389 25.609231 -17.027457 -8.307171 -21.771131 30.623590 -26.745670 -134.842414 -77.303487 -47.508204 -75.331065 21.955802 -32.808981 -32.549017 -10.028611 0.958550 -59.079115 -65.502983 72.058482 83.647961 70.191122 -96.389918 -30.549145 -26.472546 17.891414 -52.946479 18.381117 -2.105273 -21.908383 51.991301 -29.594506 
82.919907 26.141260 -74.932373 86.803119 -37.464933 69.205690 89.517108 9.216701 121.385739 -152.025709 3.189867 -10.747633 89.258934 9.585161 14.106427 21.454551 0.003095 0.000002 149.257228 34.632297 165.325890 -69.982255 -8.946366 19.651588 65.113525 -13.445290 0.513118 21.454557 -0.003109 -0.000019 13.219101 0.510226 3.434610 16.441573 0.526436 6.906730 16.125984 0.568171 6.903460 25.494849 -18.270206 -9.039924 -21.741990 31.207657 -28.074704 -133.146642 -77.168925 -49.240924 -76.516055 21.587218 -33.090272 -33.112450 -10.507144 1.001671 -59.283890 -64.559030 72.521808 84.511966 70.068629 -95.553008 -28.870872 -28.301784 20.439556 -55.959965 18.727773 -2.235471 -23.216957 49.826367 -31.511829 
82.264267 26.322380 -75.084740 86.656659 -37.729453 70.433116 89.425017 9.405504 122.060111 -152.454098 3.074961 -10.765932 89.296828 9.679952 14.594922 21.454551 0.003088 -0.000009 149.907394 34.133508 165.597212 -70.948535 -8.502253 20.172539 65.285441 -13.648431 0.966040 21.454558 -0.003107 -0.000033 13.308843 0.476732 3.498959 16.618783 0.445154 7.029929 16.303279 0.487623 7.027150 25.284426 -19.657418 -9.775407 -21.708578 31.471678 -29.303779 -130.575800 -76.910607 -51.870799 -78.077108 21.143510 -33.178102 -33.486454 -11.321245 1.062830 -58.903777 -64.009685 72.274009 85.126949 70.027819 -94.952935 -27.905192 -30.239614 23.783815 -58.519189 19.031120 -2.350609 -25.260362 48.095644 -34.353440 
81.640007 26.548050 -75.296753 86.710010 -38.108569 71.279772 89.020471 9.213997 122.299947 -152.795703 2.994619 -11.158101 89.027158 10.075095 15.115395 21.454555 0.003092 0.000005 150.163307 33.923299 166.507253 -71.664121 -8.412389 20.703232 66.160648 -13.856427 1.359745 21.454557 -0.003109 -0.000026 13.390587 0.424529 3.577702 16.778751 0.324929 7.178922 16.463370 0.368310 7.176853 24.986097 -21.522329 -10.440022 -21.492153 31.706612 -30.495135 -128.104310 -76.293596 -54.422104 -79.791014 20.352990 -33.120789 -33.367369 -11.755919 1.088625 -58.678032 -63.898701 71.937718 85.009033 69.789924 -95.091109 -27.346585 -32.281349 27.602871 -60.647244 19.224607 -2.444930 -27.676521 46.583290 -37.332356 
81.022377 26.808439 -75.445793 86.771399 -38.565010 71.903027 88.700416 8.884293 122.881346 -153.157403 2.901869 -11.254203 88.946897 10.207338 15.420597 21.454555 0.003085 0.000000 150.203318 33.547809 167.351328 -72.288113 -8.481691 21.241552 66.755134 -14.061111 1.804016 21.454560 -0.003106 -0.000022 13.462593 0.388902 3.669829 16.920098 0.236108 7.356808 16.604852 0.280539 7.355274 24.811960 -23.623288 -11.013490 -21.552232 32.074978 -31.792482 -126.110209 -75.750233 -56.485405 -81.285282 19.608355 -33.605374 -32.993089 -11.807064 1.083991 -58.986880 -63.584348 71.914249 84.681894 69.436796 -95.443103 -27.160611 -34.290657 31.525513 -62.573624 19.468611 -2.537039 -30.182138 45.349075 -40.590844 
80.504578 27.057831 -75.518799 87.025865 -38.940107 72.320932 88.533370 8.643708 123.802370 -153.500715 2.788630 -10.736837 89.003177 9.892960 15.625425 21.454548 0.003095 -0.000001 150.234860 33.316898 167.665148 -72.781198 -8.283771 21.700715 67.295279 -14.312192 1.985654 21.454555 -0.003108 -0.000022 13.553043 0.321935 3.741182 17.096204 0.086662 7.488559 16.781058 0.131896 7.487917 24.577819 -25.191051 -11.479908 -21.722563 32.243493 -32.825070 -123.711692 -75.407160 -58.948084 -82.287913 19.033307 -33.559817 -33.291384 -11.788102 1.089091 -58.890075 -63.711485 71.822875 84.562994 69.065609 -95.593040 -27.205390 -36.300563 35.882467 -64.610974 19.429814 -2.615664 -32.597525 43.833152 -43.657859 
80.095688 27.328381 -75.471169 87.291450 -39.312708 72.845586 88.391431 8.572298 124.933148 -153.671497 2.704193 -9.948199 88.807998 9.426766 15.778533 21.454555 0.003090 0.000001 150.548612 33.150996 168.147714 -72.918171 -8.153342 22.148572 67.544649 -14.552299 2.194031 21.454558 -0.003107 -0.000018 13.613232 0.285997 3.787544 17.213882 0.004432 7.575145 16.898810 0.050192 7.574994 24.504101 -25.681409 -11.740489 -21.853849 31.856965 -33.100531 -123.172011 -75.108407 -59.517517 -82.936617 18.357790 -33.696943 -33.378117 -11.284293 1.058100 -59.320391 -63.450101 72.215652 85.146006 69.070206 -95.020998 -27.419432 -37.827418 39.028534 -66.381625 19.503675 -2.692892 -34.572194 42.666716 -46.166034 
79.759216 27.620951 -75.311234 87.425861 -39.715023 73.418523 88.302134 8.613611 125.741966 -153.712000 2.652885 -9.601794 88.491139 9.261970 15.871891 21.454553 0.003092 0.000005 151.040659 32.864309 168.758825 -72.745674 -8.103559 22.577173 67.551295 -14.822713 2.289474 21.454558 -0.003107 -0.000015 13.613066 0.290756 3.771629 17.213943 0.016284 7.544220 16.898863 0.061871 7.544001 24.758411 -25.964657 -11.817462 -22.032182 31.524301 -33.113064 -123.391220 -75.044805 -59.298794 -83.109680 17.961080 -33.732180 -33.182104 -10.923482 1.030376 -59.795178 -63.221180 72.523488 86.039073 68.971605 -94.154055 -27.569174 -38.512462 40.518106 -67.093891 19.648405 -2.732454 -35.585934 42.165165 -47.567374 
79.483650 27.953350 -75.090897 87.374416 -40.046198 73.879813 88.408418 8.561482 126.400191 -153.618399 2.636622 -9.575912 88.163952 9.315206 15.978982 21.454555 0.003090 -0.000002 151.587128 32.265598 169.261226 -72.382458 -8.231789 22.998734 67.249653 -15.090528 2.383393 21.454560 -0.003106 -0.000022 13.612126 0.312172 3.728772 17.213670 0.065290 7.462166 16.898510 0.110359 7.461654 24.880779 -26.251513 -11.841075 -22.032889 31.314539 -33.081536 -123.549899 -75.110238 -59.132827 -83.033408 17.689862 -33.353053 -32.684795 -10.798788 1.011769 -60.064048 -63.501293 72.506399 86.112081 68.746510 -94.103997 -27.365973 -38.960618 41.277343 -67.513988 19.188882 -2.717413 -35.920214 41.740188 -47.560875 
79.208862 28.308540 -74.847191 87.285112 -40.297259 74.129204 88.722498 8.423605 126.982014 -153.477096 2.646181 -9.755039 88.059348 9.473257 16.099620 21.454551 0.003089 -0.000002 152.035052 31.473402 169.530049 -72.010001 -8.467997 23.411703 66.815171 -15.357646 2.465328 21.454558 -0.003107 -0.000019 13.627667 0.300422 3.680097 17.244160 0.048227 7.363546 16.928935 0.092705 7.363138 24.737523 -26.285126 -11.822112 -22.227399 30.927691 -32.994028 -123.153147 -75.110716 -59.536485 -82.916195 17.308924 -33.056661 -31.997001 -10.379850 0.970226 -60.656041 -63.949060 72.780399 85.478014 68.434807 -94.752967 -26.687912 -39.218236 41.225447 -67.873734 18.274147 -2.667901 -35.992539 42.480747 -46.553572 
78.908493 28.712219 -74.563057 87.191306 -40.495328 74.366519 89.215753 8.265798 127.829231 -153.325890 2.644442 -9.722160 88.051814 9.479653 16.260104 21.454550 0.003098 -0.000004 152.555048 30.602096 169.773436 -71.591085 -8.756290 23.833882 66.331963 -15.629954 2.551968 21.454557 -0.003110 -0.000016 13.646741 0.269083 3.638636 17.280455 -0.009078 7.276332 16.965150 0.034859 7.276266 24.764060 -25.986305 -11.868529 -22.977398 30.419849 -33.021461 -122.646729 -75.495618 -60.025239 -82.521676 17.108101 -33.395390 -31.530718 -9.854748 0.926449 -61.441055 -63.871968 73.388771 85.467059 68.183893 -94.788061 -25.600329 -39.405909 41.713888 -70.018284 17.122272 -2.676233 -38.442559 43.570023 -47.103723 
78.550827 29.152060 -74.253563 87.143098 -40.740316 74.750909 89.671914 8.170300 128.988532 -153.160900 2.606485 -9.417980 87.998101 9.317426 16.456917 21.454550 0.003091 -0.000005 153.146215 29.781203 170.215049 -71.180181 -9.079373 24.226631 65.916113 -15.904734 2.567243 21.454555 -0.003110 -0.000023 13.664021 0.221407 3.576422 17.312308 -0.095589 7.145370 16.996912 -0.052414 7.145827 24.557711 -25.566933 -11.901683 -23.654274 29.962595 -33.043564 -121.932114 -75.884679 -60.724630 -82.268433 16.873532 -33.685667 -31.013109 -9.550933 0.896288 -62.031573 -63.763771 73.777627 86.063006 68.219417 -94.199968 -24.777887 -39.630028 44.468575 -74.353678 15.135803 -2.720320 -42.386918 42.618567 -52.114138 
78.145981 29.565639 -73.979607 87.084181 -41.108170 75.289189 89.872176 8.137000 129.924774 -153.039992 2.559365 -9.400422 87.889652 9.357697 16.653712 21.454551 0.003092 0.000005 153.640761 29.017003 170.803975 -70.891572 -9.359080 24.565441 65.611268 -16.183172 2.461590 21.454557 -0.003109 -0.000012 13.639615 0.176572 3.494703 17.261287 -0.170960 6.976318 16.945749 -0.128799 6.977228 24.268774 -25.042014 -11.840353 -24.164163 29.328050 -32.802229 -121.077097 -76.298062 -61.564094 -82.034274 16.626600 -33.771843 -30.426741 -9.388390 0.874282 -62.531775 -63.765635 74.059728 86.083982 68.544302 -94.148939 -24.597972 -39.321778 47.594087 -78.324020 13.152555 -2.752382 -47.674475 38.700709 -58.607551 
77.744423 29.934931 -73.724854 87.020981 -41.383457 75.811220 90.098398 8.081403 130.498605 -152.929206 2.553860 -9.649801 87.748670 9.579793 16.832786 21.454555 0.003088 -0.000006 154.110378 28.320111 171.247336 -70.691058 -9.527315 24.894132 65.269165 -16.453330 2.370623 21.454553 -0.003109 -0.000026 13.617957 0.126010 3.406867 17.215523 -0.257027 6.794235 16.899850 -0.215943 6.795665 23.999051 -24.659134 -11.693774 -24.746411 28.811691 -32.573927 -120.918473 -76.673702 -61.698677 -81.609067 16.348165 -33.527916 -29.947955 -9.264987 0.857080 -62.931799 -63.878982 74.305095 85.597898 68.806417 -94.602075 -24.656500 -38.223023 50.586181 -81.890553 11.052476 -2.760906 -49.087624 34.883661 -61.381332 
77.338013 30.270470 -73.483917 87.004514 -41.568548 76.231072 90.388463 7.972596 130.852108 -152.847312 2.592724 -9.988545 87.629285 9.855166 17.002702 21.454553 0.003094 -0.000001 154.531008 27.700811 171.422285 -70.572807 -9.522333 25.219785 64.925019 -16.698013 2.355380 21.454558 -0.003108 -0.000022 13.596700 0.045419 3.320766 17.169045 -0.403129 6.611195 16.853248 -0.363150 6.613505 23.811064 -24.264759 -11.523409 -25.346931 28.391483 -32.348695 -121.327983 -76.922772 -61.265533 -81.072775 16.145777 -33.453218 -29.767293 -9.148192 0.846030 -63.341911 -63.504667 74.708595 85.191918 69.038910 -94.978999 -25.058246 -36.010031 52.363539 -83.981465 9.522418 -2.745712 -44.603307 32.811273 -58.809363 
76.915077 30.568970 -73.286583 87.062878 -41.784191 76.506103 90.537245 7.782705 131.097121 -152.813202 2.638601 -10.368540 87.477040 10.155280 17.124546 21.454551 0.003087 -0.000003 154.759519 27.160001 171.426560 -70.568278 -9.407261 25.534439 64.744340 -16.939156 2.324375 21.454557 -0.003108 -0.000019 13.555207 -0.071378 3.248398 17.080302 -0.622165 6.450397 16.764382 -0.583157 6.454021 23.484309 -23.899889 -11.320728 -25.796279 28.080830 -32.114259 -121.891269 -77.050620 -60.685008 -80.621347 15.946461 -33.587715 -29.626649 -9.106897 0.840697 -63.748382 -62.758558 75.112123 84.385983 69.110702 -95.762927 -25.620504 -33.003689 52.628865 -84.335044 9.233002 -2.741057 -37.488197 30.437126 -54.299963 
76.435204 30.857861 -73.116692 87.094570 -42.082042 76.883915 90.516754 7.592899 131.491073 -152.840291 2.676537 -10.641003 87.246050 10.388588 17.198847 21.454558 0.003092 0.000005 155.008111 26.617797 171.637436 -70.566864 -9.325896 25.891970 64.756866 -17.141186 2.471106 21.454560 -0.003109 -0.000009 13.480559 -0.188092 3.192388 16.925455 -0.841782 6.322705 16.609430 -0.803526 6.327656 23.243211 -23.509559 -11.182941 -26.250890 27.893338 -31.986869 -122.636812 -77.375641 -59.906175 -80.126991 15.687244 -33.729738 -29.338456 -9.011888 0.829139 -64.212077 -62.023561 75.494101 83.138907 69.012996 -96.993925 -25.967358 -29.638756 50.742934 -82.662023 10.303010 -2.742253 -32.888922 29.303827 -50.012503 
75.957077 31.146870 -72.918922 87.305937 -42.295666 77.256393 90.625539 7.546089 131.835656 -152.799186 2.714488 -10.848289 87.099645 10.564108 17.268614 21.454553 0.003090 0.000001 155.412089 26.279499 172.044173 -70.460436 -9.324667 26.289323 64.849771 -17.362097 2.637974 21.454557 -0.003107 -0.000029 13.423612 -0.335741 3.146412 16.804593 -1.125478 6.210570 16.488471 -1.087895 6.217228 23.038634 -23.031673 -11.116808 -26.592010 27.778280 -31.901525 -124.067108 -77.869805 -58.421804 -79.605083 15.288723 -34.044979 -28.925902 -8.729305 0.803047 -64.929076 -61.082088 76.057831 81.533928 68.977090 -98.569090 -26.592862 -26.911806 47.757325 -79.747813 12.424471 -2.763331 -29.676533 28.212074 -48.061709 
75.456444 31.456320 -72.710136 87.643321 -42.602373 77.726378 90.624091 7.609305 132.254169 -152.717306 2.732902 -10.952251 86.894275 10.675937 17.304583 21.454553 0.003090 -0.000002 155.799702 26.051998 172.535551 -70.320943 -9.253346 26.749297 64.903210 -17.628185 2.812904 21.454558 -0.003109 -0.000012 13.361797 -0.500161 3.109038 16.673427 -1.443727 6.113573 16.357212 -1.406709 6.122147 22.647031 -22.311967 -11.083832 -26.927169 27.599749 -31.787178 -125.451710 -78.582078 -56.970895 -79.175327 14.903775 -34.090062 -28.551109 -8.751963 0.797825 -65.308486 -60.330706 76.255217 80.628894 68.946716 -99.457076 -27.094134 -24.820858 44.974156 -76.800730 14.247177 -2.763269 -26.290247 27.905435 -46.181894 
74.892326 31.827869 -72.464661 87.914910 -43.053042 78.312012 90.589345 7.632300 133.069844 -152.624689 2.717297 -10.797281 86.691356 10.641423 17.475654 21.454548 0.003098 -0.000004 156.130188 25.641497 172.972068 -70.156008 -9.126369 27.242700 64.774502 -17.922312 2.992029 21.454555 -0.003108 -0.000026 13.303440 -0.652579 3.073490 16.550069 -1.738623 6.022220 16.233741 -1.702152 6.032570 22.079290 -21.819637 -11.058871 -27.331301 27.534233 -31.842902 -126.899942 -79.113528 -55.468994 -78.829734 14.498823 -33.767045 -28.466425 -8.905599 0.807062 -65.454297 -59.833113 76.333627 80.461923 68.891296 -99.624996 -27.600446 -23.259193 41.766077 -73.642628 16.009475 -2.751418 -22.296902 28.830881 -41.913599 
74.300438 32.265442 -72.102859 88.054539 -43.541626 79.086118 90.778712 7.752009 134.476644 -152.465381 2.671963 -10.255538 86.626729 10.328452 17.674098 21.454550 0.003091 -0.000005 156.595610 25.098905 173.533250 -69.817866 -9.008956 27.660586 64.411143 -18.297906 2.811469 21.454558 -0.003108 -0.000026 13.286103 -0.780368 3.025513 16.510449 -1.985017 5.909066 16.193998 -1.949220 5.920900 21.188893 -21.621370 -11.003741 -27.597588 27.608123 -32.010655 -127.446084 -79.289262 -54.904428 -78.835710 14.079430 -33.574652 -28.554822 -9.014898 0.815161 -65.733686 -59.242834 76.597833 80.386969 69.013912 -99.688004 -28.543072 -21.923283 38.084684 -70.189824 17.365216 -2.700512 -18.575902 32.379007 -36.472660 
73.716560 32.757259 -71.613113 88.258564 -44.026286 80.012087 91.141068 8.093319 136.107488 -152.174689 2.625414 -9.511852 86.609811 9.845873 17.762908 21.454550 0.003091 -0.000005 157.275296 24.676188 174.337437 -69.254799 -8.954039 27.937437 63.857761 -18.636615 2.472486 21.454558 -0.003109 -0.000026 13.295006 -0.895520 2.928281 16.525262 -2.200579 5.699142 16.208628 -2.166041 5.712280 20.217141 -21.479939 -10.957988 -27.750685 27.556630 -32.108791 -127.815338 -79.358001 -54.526029 -78.899019 13.539901 -33.341548 -28.502064 -8.880188 0.805377 -66.374119 -58.772794 77.131509 80.549070 69.190001 -99.513910 -29.720755 -21.234490 34.622062 -66.508161 18.823163 -2.650247 -25.186683 38.401871 -42.205286 
73.060928 33.246609 -71.123322 88.160107 -44.746461 81.022272 91.251211 8.254703 137.868598 -151.970493 2.587640 -8.931970 86.547724 9.454875 17.721105 21.454553 0.003089 -0.000013 157.709136 23.864102 175.119903 -68.731326 -9.009997 28.178010 63.257162 -18.943808 2.156243 21.454558 -0.003108 -0.000022 13.256450 -0.970160 2.847811 16.446858 -2.335735 5.529393 16.130100 -2.302213 5.543351 19.348459 -21.293064 -10.909788 -28.027821 27.217583 -32.068612 -128.003277 -79.462380 -54.329118 -78.736474 13.085010 -33.055841 -28.546996 -8.729472 0.796275 -67.144414 -58.353216 77.742695 80.852071 69.415711 -99.198976 -30.677118 -21.866986 34.398445 -65.373421 19.868132 -2.677312 -29.116902 40.590110 -45.205047 
72.367981 33.735569 -70.611473 88.096934 -45.414467 81.920599 91.357257 8.296702 139.681849 -151.755902 2.548182 -8.307603 86.323059 9.049102 17.592069 21.454548 0.003087 -0.000003 158.105711 22.975599 175.735235 -68.240878 -9.142786 28.387777 62.589272 -19.199831 1.933357 21.454558 -0.003109 -0.000012 13.207856 -1.060620 2.726651 16.349002 -2.496298 5.276773 16.032059 -2.464293 5.291710 18.816990 -21.048900 -10.828708 -28.684288 26.657484 -31.938402 -127.940385 -79.823724 -54.370631 -78.119223 12.830799 -32.590043 -28.753235 -8.743677 0.800885 -67.638776 -58.170706 78.175429 80.717072 70.126515 -99.269027 -32.004347 -23.059101 35.716220 -65.405263 19.634560 -2.662187 -29.525487 40.839600 -44.865365 
71.654152 34.230492 -70.077988 88.130757 -45.952734 82.631772 91.672914 8.238097 141.815409 -151.558401 2.493104 -7.303569 86.248118 8.357137 17.455279 21.454553 0.003080 -0.000004 158.530849 22.042892 176.003197 -67.791697 -9.249485 28.580725 61.899887 -19.443595 1.726491 21.454557 -0.003110 -0.000012 13.148930 -1.190685 2.532019 16.231403 -2.725145 4.872777 15.914180 -2.695568 4.889110 18.481963 -20.684943 -10.593180 -29.593792 25.914959 -31.558879 -127.544425 -80.157830 -54.750885 -77.186117 12.631590 -32.068414 -28.851948 -8.711188 0.800522 -68.059256 -58.089946 78.587064 81.072037 70.626622 -98.877951 -33.549578 -23.018065 34.888292 -63.574014 19.817089 -2.601099 -30.824961 43.060077 -44.954724 
70.915916 34.741928 -69.531952 88.074681 -46.415435 83.365170 92.009349 7.975288 144.424555 -151.392509 2.427747 -5.751520 85.941101 7.339708 17.366903 21.454545 0.003094 -0.000005 159.014618 20.978892 176.169990 -67.333460 -9.366164 28.777291 61.198147 -19.718247 1.453544 21.454558 -0.003107 -0.000019 13.085360 -1.317916 2.320094 16.105909 -2.946249 4.435034 15.788402 -2.919310 4.452719 18.142967 -20.282639 -10.311549 -31.133884 25.117524 -31.288994 -127.997649 -80.373855 -54.278902 -76.248612 12.320317 -31.803246 -28.606475 -8.594033 0.788421 -68.524918 -57.724073 78.982388 81.477053 70.945810 -98.454124 -34.891721 -22.560849 32.639019 -61.307491 20.400419 -2.552127 -31.229209 45.970913 -43.927020 
70.143509 35.219700 -68.999802 87.887787 -46.792779 84.134093 92.412924 7.669014 146.774727 -151.241398 2.358111 -4.564305 85.734706 6.551280 17.271178 21.454553 0.003094 -0.000001 159.534955 19.872297 176.271159 -66.899073 -9.363045 29.026371 60.564449 -19.916183 1.481484 21.454557 -0.003109 -0.000012 13.019729 -1.440375 2.144530 15.976258 -3.163325 4.070593 15.658523 -3.138575 4.089607 17.244539 -19.858044 -10.149908 -32.661944 24.330368 -31.204494 -130.457296 -80.757732 -51.766554 -75.111017 11.821802 -31.467737 -28.122532 -8.482776 0.772560 -68.888202 -57.276477 79.242748 81.333039 71.200119 -98.572976 -36.090515 -22.259523 30.278184 -59.121373 20.813907 -2.496293 -31.248495 49.028795 -42.682856 
69.361526 35.689541 -68.485603 87.652494 -47.127066 84.896137 92.842666 7.344700 148.570056 -151.077296 2.316844 -4.000216 85.663836 6.133670 17.054340 21.454551 0.003085 -0.000010 160.043791 18.863398 176.442323 -66.429102 -9.264100 29.270759 60.079929 -20.077514 1.581302 21.454557 -0.003109 -0.000019 12.938883 -1.568261 1.982382 15.816321 -3.393005 3.732818 15.498362 -3.370280 3.753232 16.161621 -19.410359 -10.087041 -33.953345 23.537271 -31.138809 -133.780771 -81.373993 -48.369088 -73.736653 11.426642 -31.059992 -27.718484 -8.570462 0.769855 -68.954216 -56.836268 79.256463 81.501943 71.436914 -98.386027 -37.474130 -21.754842 27.933343 -56.351199 21.068376 -2.409778 -30.691346 52.082341 -40.791027 
68.593361 36.170349 -67.990334 87.358434 -47.460864 85.620192 93.217746 6.912499 150.105551 -150.871325 2.280936 -3.648958 85.511516 5.856929 16.763229 21.454550 0.003091 -0.000005 160.436977 18.076702 177.095645 -65.872072 -9.289308 29.316992 59.750993 -20.121090 1.596295 21.454558 -0.003107 -0.000005 12.857992 -1.685697 1.833041 15.656802 -3.604133 3.422189 15.338639 -3.583263 3.443895 14.621601 -19.189247 -10.003370 -34.570821 23.000910 -31.094928 -138.412185 -81.840235 -43.659911 -72.297347 10.981549 -30.550961 -27.416574 -8.714546 0.772685 -68.894991 -56.449082 79.184446 81.635056 71.765911 -98.227020 -39.134648 -21.110303 25.745152 -53.366922 21.129180 -2.306053 -29.774902 55.231041 -38.492822 
67.870827 36.657532 -67.482094 86.875471 -47.762823 86.347709 93.687751 6.386597 151.526886 -150.619291 2.270293 -3.435707 85.458316 5.649406 16.437154 21.454545 0.003096 0.000003 160.784579 17.545390 178.222093 -65.083595 -9.246611 29.179197 59.587868 -20.056900 1.539632 21.454557 -0.003110 -0.000012 12.794455 -1.775325 1.724036 15.531686 -3.766139 3.195244 15.213389 -3.746638 3.217939 12.801169 -19.162628 -9.915352 -35.083721 22.571228 -31.172888 -143.593061 -82.149547 -38.404911 -70.889441 10.509264 -29.982051 -27.246857 -8.826592 0.777733 -68.823336 -56.156285 79.130767 82.050052 72.133498 -97.788064 -40.851068 -20.432912 24.012560 -50.637779 21.002285 -2.202990 -28.608135 58.072345 -36.188501 
67.179443 37.130520 -66.990562 86.348092 -48.048738 87.018925 94.150019 5.782899 152.823147 -150.376600 2.281310 -3.294195 85.455611 5.476566 16.091335 21.454551 0.003094 -0.000001 161.088195 17.187905 179.494393 -64.158316 -9.011571 29.087269 59.598298 -20.048501 1.425387 21.454558 -0.003110 -0.000016 12.752396 -1.843345 1.648384 15.449067 -3.890385 3.036985 15.130660 -3.871854 3.060437 10.329178 -19.337422 -9.830403 -35.232800 22.085099 -31.269528 -148.536534 -82.413588 -33.393850 -69.595010 10.070290 -29.637994 -27.182753 -8.867043 0.781714 -68.874289 -55.818734 79.212012 82.790055 72.383217 -97.038116 -42.232016 -19.822558 22.958491 -48.606481 20.676769 -2.113627 -27.709092 60.223759 -34.601264 
66.504173 37.577599 -66.515823 85.698274 -48.310720 87.674016 94.618173 5.119504 154.011053 -150.148609 2.282713 -3.320682 85.550776 5.421687 15.823337 21.454545 0.003098 -0.000004 161.344245 16.893798 -178.587331 -63.152646 -9.128300 28.812391 59.682610 -19.934831 1.216833 21.454558 -0.003109 -0.000029 12.722119 -1.882722 1.598285 15.389651 -3.961401 2.933048 15.071190 -3.943499 2.956934 7.383578 -19.967501 -9.736140 -35.416184 21.660009 -31.666010 -152.893921 -82.522571 -28.981852 -68.439329 9.671131 -29.353267 -27.170610 -8.910356 0.782935 -68.973764 -55.454111 79.299739 83.781983 72.576805 -96.045915 -43.542401 -19.260135 22.195996 -46.901345 20.459111 -2.044402 -26.977620 61.923390 -33.372888 
65.852982 38.005779 -66.042953 84.959746 -48.548387 88.336503 95.093350 4.426502 155.246962 -149.921997 2.272874 -3.317258 85.665325 5.348685 15.567570 21.454550 0.003094 -0.000001 161.626004 16.674192 -176.521690 -62.054850 -9.188239 28.459843 59.753357 -19.790430 0.945167 21.454557 -0.003107 -0.000022 12.689557 -1.900580 1.549556 15.325980 -3.989773 2.834779 15.007471 -3.972438 2.858840 4.386937 -21.081148 -9.699278 -36.107911 21.195559 -32.516546 -156.374504 -82.463469 -25.460584 -67.384946 9.316953 -28.981613 -27.154561 -8.948375 0.783094 -69.088941 -55.144055 79.379994 85.124989 72.781307 -94.706064 -44.976116 -18.660324 21.503681 -45.177603 20.327300 -1.982201 -26.204803 63.386123 -32.098262 
65.245743 38.431938 -65.565392 84.175449 -48.763528 88.982605 95.563458 3.662995 156.645922 -149.656398 2.258337 -3.059871 85.670598 5.112579 15.275351 21.454541 0.003091 -0.000005 161.962486 16.488912 -174.529761 -60.788055 -9.085186 28.183580 59.695915 -19.722876 0.644666 21.454562 -0.003112 -0.000013 12.647607 -1.896716 1.500359 15.243831 -3.974627 2.738750 14.925299 -3.957902 2.762725 1.322702 -22.498442 -9.648108 -36.867756 20.739135 -33.592564 -160.602008 -82.196593 -21.184626 -66.226942 8.931498 -28.473751 -27.117594 -8.944221 0.783870 -69.264218 -54.876509 79.506100 86.398963 72.767825 -93.452889 -46.210946 -18.232789 21.390672 -43.715229 20.035699 -1.919082 -26.124722 64.270188 -31.601571 
64.697327 38.881340 -65.053093 83.246325 -48.973460 89.645509 96.089034 2.830101 158.352226 -149.319506 2.216771 -2.531951 85.686048 4.698380 15.001896 21.454548 0.003096 0.000006 162.428046 16.198705 -172.655667 -59.298302 -8.930611 27.756528 59.531109 -19.573159 0.293741 21.454557 -0.003110 -0.000023 12.607865 -1.886470 1.475553 15.165259 -3.950127 2.692085 14.846734 -3.933679 2.715912 -2.129441 -23.654489 -9.533237 -37.012259 20.228679 -34.390095 -163.263911 -81.986852 -18.490213 -65.277457 8.651019 -28.114078 -27.075298 -8.967179 0.786483 -69.485495 -54.569520 79.665052 87.667978 72.704618 -92.208988 -47.338081 -17.765592 21.103300 -42.283485 19.775669 -1.860421 -25.614154 65.184505 -30.736930 
64.192337 39.374180 -64.543266 82.105171 -49.215638 90.317381 96.575480 1.832197 160.325850 -148.921483 2.159353 -1.829020 85.766843 4.161757 14.750915 21.454551 0.003092 0.000005 162.926472 15.630601 -170.777405 -57.583761 -9.019272 27.238601 59.187701 -19.282684 0.147733 21.454560 -0.003108 -0.000022 12.563874 -1.860046 1.495232 15.076842 -3.899159 2.736306 14.758353 -3.882431 2.759825 -5.394460 -24.603035 -9.360508 -36.840179 19.878745 -35.048675 -165.655720 -81.696077 -16.067991 -64.495496 8.379740 -27.736321 -27.006322 -9.085324 0.793062 -69.788004 -54.287262 79.907654 89.115964 72.569394 -90.787107 -48.251069 -17.126199 20.363027 -40.684500 19.491751 -1.797056 -24.278831 66.295285 -28.977938 
63.755138 39.921028 -63.997871 80.832454 -49.445747 90.969486 97.072616 0.720089 162.368964 -148.386297 2.109242 -1.077404 85.769896 3.604921 14.510752 21.454548 0.003096 0.000003 163.504620 14.869505 -169.089160 -55.722179 -9.232526 26.453852 58.613576 -18.773765 0.089476 21.454560 -0.003109 -0.000019 12.526293 -1.846089 1.535531 15.000398 -3.875762 2.819765 14.681941 -3.858554 2.843136 -8.301886 -24.860408 -9.220475 -36.339677 19.539727 -35.243674 -167.287684 -81.446891 -14.413921 -63.820734 8.132057 -27.177994 -26.977944 -9.284374 0.805624 -70.121386 -54.211655 80.228816 90.811060 72.196910 -89.136967 -48.840559 -16.332123 19.353580 -38.956390 19.032570 -1.720732 -22.197058 67.571478 -26.363883 
63.390160 40.526718 -63.374649 79.382938 -49.578977 91.644774 97.754002 -0.483593 164.519354 -147.685000 2.063864 -0.252700 85.736674 3.015957 14.327976 21.454553 0.003084 -0.000003 164.334502 13.791109 -167.874876 -53.532557 -9.417793 25.706552 57.728370 -18.194934 0.298648 21.454555 -0.003109 -0.000019 12.508582 -1.830977 1.593147 14.963169 -3.852702 2.937172 14.644759 -3.834774 2.960402 -10.630691 -24.660022 -9.034084 -35.717040 19.358288 -35.088949 -168.751216 -81.194755 -12.929424 -63.085745 7.928220 -26.374712 -27.115959 -9.525676 0.823710 -70.495195 -54.294068 80.698596 92.622126 71.607922 -87.391109 -49.252740 -15.465473 18.324112 -37.116928 18.425521 -1.634306 -19.743980 68.750273 -23.314371 
63.073101 41.199409 -62.701809 77.639594 -49.671325 92.411988 98.430348 -1.878107 167.084172 -146.855201 1.989659 0.922562 85.551541 2.199892 14.105445 21.454551 0.003103 0.000004 165.168796 12.423009 -167.095797 -51.280364 -9.622813 24.741884 56.640768 -17.421449 0.590529 21.454560 -0.003110 -0.000012 12.516281 -1.795397 1.681170 14.976100 -3.793424 3.116899 14.657774 -3.774389 3.139762 -13.085749 -24.190901 -8.764119 -34.848120 19.257824 -34.684165 -169.025612 -80.975048 -12.650688 -62.540122 7.860347 -25.893298 -27.470261 -9.889092 0.853443 -70.857571 -54.185240 81.258228 93.696077 71.082510 -86.372072 -49.792001 -14.596732 17.481461 -35.247779 17.730591 -1.544159 -16.587775 69.664876 -19.574783 
62.770988 41.902531 -62.109100 76.026139 -49.778490 92.848089 98.917641 -3.494401 169.850754 -145.997206 1.886224 2.470456 85.240891 1.095188 13.664484 21.454551 0.003088 -0.000006 165.496180 11.049896 -167.282903 -49.934775 -9.999836 23.506258 55.156848 -15.986713 1.900625 21.454558 -0.003109 -0.000019 12.526467 -1.804459 1.793908 14.992441 -3.826313 3.340111 14.674170 -3.805944 3.363161 -15.473952 -23.410221 -8.577347 -33.763971 18.975198 -33.973795 -169.095089 -80.803023 -12.579720 -62.007224 7.883068 -25.746171 -28.029052 -10.357645 0.893649 -71.268318 -53.798593 81.898401 94.558129 70.480503 -85.571041 -50.249954 -13.618008 16.614130 -33.375644 16.977851 -1.452997 -12.656808 70.205288 -15.014487 
62.544960 42.623161 -61.537560 74.414815 -49.756200 92.905531 99.594021 -5.474902 172.956564 -145.042687 1.790789 4.636824 85.010276 -0.483507 13.059483 21.454543 0.003088 -0.000006 165.384452 9.729901 -169.622052 -49.920299 -9.748562 21.964802 53.487676 -13.735091 4.354290 21.454557 -0.003111 -0.000019 12.558249 -1.837438 1.935122 15.050433 -3.911148 3.616224 14.732231 -3.889110 3.639777 -17.860943 -22.781435 -8.317590 -32.513688 18.810773 -33.286794 -169.880984 -80.440722 -11.780803 -61.006041 8.039930 -25.486713 -29.306767 -11.098321 0.964841 -71.627962 -53.140122 82.707594 95.041980 69.670593 -85.166018 -50.729301 -12.441301 15.492338 -31.254000 16.103250 -1.351670 -7.375936 70.146569 -9.152847 
62.320301 43.269531 -61.098301 73.108644 -49.381967 92.275091 100.709377 -7.805888 176.152505 -144.087103 1.707602 7.260195 85.103126 -2.421797 12.412686 21.454548 0.003096 0.000003 164.343722 8.822401 -173.676028 -52.220539 -8.955665 20.296372 52.129694 -10.760882 7.864810 21.454557 -0.003105 -0.000015 12.640366 -1.927714 2.109213 15.206458 -4.116057 3.948571 14.888300 -4.092041 3.973353 -20.027400 -22.248474 -7.982681 -31.193628 18.782230 -32.595568 -171.608981 -79.876569 -10.022014 -59.722621 8.045677 -25.042694 -30.595662 -11.991301 1.047262 -71.369063 -52.330519 83.139064 94.988056 68.906309 -85.291011 -51.535932 -11.164420 14.258011 -28.841099 15.128859 -1.242056 -1.865731 68.810263 -2.979587 
62.174351 43.730919 -60.776829 72.293420 -48.640133 90.901663 102.408667 -10.348010 178.838887 -143.200599 1.663357 10.015862 85.619372 -4.484448 11.806205 21.454553 0.003090 0.000001 162.133268 8.999496 -177.656622 -57.160484 -7.392548 16.836022 52.195773 -7.632284 8.975536 21.454558 -0.003111 -0.000016 12.750231 -2.053469 2.273221 15.417001 -4.391673 4.254813 15.098861 -4.365804 4.281248 -22.352759 -22.051710 -7.155663 -29.997204 18.995861 -31.848189 -171.949603 -79.080791 -9.670408 -58.795955 7.730305 -24.571418 -30.778417 -12.562069 1.087803 -71.041747 -52.021603 83.179055 94.762932 67.782681 -85.622042 -52.239998 -9.588345 12.592290 -26.265576 13.854081 -1.115081 3.523508 66.488149 3.507938 
62.114891 43.962360 -60.457901 71.853815 -47.450260 89.191588 104.776379 -12.801501 -179.813377 -142.559189 1.676073 11.871323 86.308128 -5.943558 11.168503 21.454558 0.003090 0.000001 158.982598 10.046501 -179.691499 -64.231666 -6.093401 12.144055 54.222314 -5.075427 7.356058 21.454558 -0.003110 -0.000023 12.871281 -2.147991 2.410648 15.651271 -4.602503 4.511258 15.333148 -4.575044 4.538953 -24.372340 -22.272007 -5.980974 -28.900433 19.271611 -31.073119 -174.880000 -78.550051 -6.681224 -57.395022 7.376169 -24.440164 -29.856608 -12.362099 1.057062 -70.905628 -52.189574 83.539040 93.482914 66.737601 -86.995115 -53.062821 -8.435148 10.785660 -23.899409 12.632230 -0.999699 8.121226 61.999109 9.148658 
62.092819 43.927269 -60.241749 71.868705 -45.804078 87.263494 107.624800 -14.702098 179.851804 -142.347699 1.717751 12.323416 87.081196 -6.366809 10.877139 21.454555 0.003096 0.000003 155.370712 11.300200 -179.858347 -72.722349 -5.724347 12.212930 58.993997 -5.782779 6.426380 21.454558 -0.003115 -0.000017 13.013837 -2.197299 2.468013 15.932933 -4.713691 4.612834 15.614813 -4.685649 4.641198 -26.506666 -22.637967 -4.602374 -27.854830 19.836008 -30.423449 -178.215208 -78.550618 -3.283379 -55.736813 7.379010 -23.592109 -28.265983 -11.894728 0.997577 -69.499347 -53.576854 82.841343 92.178949 66.132794 -88.346940 -54.365560 -7.473052 9.266324 -22.132052 11.406640 -0.896164 11.182640 56.767085 13.330631 
62.127960 43.678551 -60.046131 72.263388 -43.755162 85.066215 111.202556 -16.261398 178.601333 -142.352002 1.772763 12.335057 88.192516 -6.522130 10.509755 21.454560 0.003085 0.000007 151.119534 12.407305 -179.556234 -81.977105 -5.814741 17.029391 64.500721 -9.953787 5.132947 21.454557 -0.003108 -0.000026 13.125660 -2.233477 2.456707 16.156348 -4.788262 4.580435 15.838170 -4.760393 4.609255 -27.317395 -22.279980 -3.507257 -27.612068 19.561054 -29.096346 178.417409 -78.472153 0.148100 -53.884107 7.408104 -21.146973 -26.156252 -11.142847 0.913041 -66.592207 -56.168583 80.825283 91.915044 65.899113 -88.632114 -55.781735 -7.011509 7.943830 -21.906700 11.012670 -0.867809 12.926716 51.097595 14.656047 
62.230770 43.314049 -59.617668 72.026332 -41.296669 83.393126 115.596539 -17.939495 177.861527 -142.150703 1.859411 13.075013 89.419027 -7.184503 10.046425 21.454545 0.003096 0.000003 146.669365 13.269807 179.897074 -91.461718 -5.245593 19.504343 69.217738 -12.784849 2.124866 21.454560 -0.003109 -0.000012 13.226123 -2.145563 2.411551 16.361646 -4.610718 4.498118 16.043522 -4.583352 4.525863 -27.855077 -21.162667 -2.393504 -26.878065 19.358998 -27.071824 175.763894 -78.408249 2.852305 -51.979065 7.766993 -18.229039 -23.977208 -10.026032 0.807113 -60.534157 -58.498159 76.305985 92.011971 66.237194 -88.502921 -57.618820 -6.904772 6.219851 -22.208126 11.369772 -0.894807 11.787501 42.385060 13.760278 
62.365688 42.876701 -59.044399 71.357254 -38.635785 82.114378 120.494345 -19.597399 177.544333 -141.729089 1.944870 14.434630 90.674709 -8.297897 9.274928 21.454553 0.003090 -0.000002 141.986041 13.937495 179.358719 -100.790902 -4.612871 19.385170 73.623094 -12.923337 1.162043 21.454557 -0.003109 -0.000019 13.307677 -1.927879 2.345536 16.533060 -4.171329 4.393593 16.215079 -4.144598 4.418678 -27.948945 -20.097760 -1.154256 -26.636131 19.316974 -25.107034 173.233910 -78.231696 5.434111 -50.156323 8.370111 -14.921248 -21.837669 -8.771425 0.696070 -49.803376 -60.609446 67.113958 92.934095 66.677809 -87.545902 -59.056015 -6.570154 5.102739 -22.454380 11.791799 -0.925267 9.121992 31.610744 10.742351 
62.477951 42.357830 -58.405659 70.667234 -35.828174 80.658879 125.976228 -21.466011 176.975597 -141.110793 2.047594 16.197290 92.114274 -9.601745 8.899719 21.454553 0.003100 0.000003 136.517532 14.305695 179.810344 -110.071005 -4.219328 19.600869 79.559348 -13.428420 -0.917113 21.454558 -0.003108 -0.000022 13.369129 -1.676187 2.391464 16.661080 -3.679508 4.518229 16.343360 -3.652033 4.540338 -27.548392 -19.080081 -0.237145 -26.643117 18.963105 -23.291264 171.031297 -78.306070 7.674410 -48.900582 9.493975 -11.761819 -20.025003 -7.842469 0.613191 -33.896351 -60.905924 52.081787 93.483918 67.567230 -86.914082 -59.721835 -6.292738 3.961581 -23.288116 13.580032 -1.051386 7.024704 17.306294 8.541776 
62.621239 41.923038 -57.648930 69.667404 -33.185669 80.079405 131.056891 -22.710401 176.717430 -140.320485 2.148229 17.847908 93.290583 -10.751094 8.891204 21.454555 0.003101 -0.000003 130.504848 14.988403 -178.098480 -118.395701 -4.192733 19.814684 84.691798 -13.596379 -2.146952 21.454558 -0.003108 -0.000008 13.400458 -1.260061 2.393473 16.735949 -2.853385 4.580359 16.418540 -2.825570 4.597478 -26.933038 -18.157307 0.470022 -26.867596 18.452487 -21.676135 169.401396 -78.321124 9.333029 -47.732074 11.008389 -9.432535 -19.007452 -7.656742 0.589732 -16.492463 -55.952012 36.634877 95.028108 68.298108 -85.310046 -58.800538 -5.602582 3.870558 -26.716435 16.195251 -1.272000 4.875880 1.341449 6.315300 
62.658451 41.639851 -56.817940 68.772007 -30.411718 79.778071 136.156201 -23.492210 175.913721 -139.361814 2.248222 18.594961 94.314046 -11.312544 8.710033 21.454550 0.003093 0.000002 124.254637 15.304909 -175.536995 -124.941495 -4.198941 20.496812 88.757741 -14.140227 -3.998652 21.454557 -0.003106 -0.000018 13.505452 -0.789610 2.409183 16.960999 -1.924207 4.676798 16.643872 -1.895842 4.688317 -26.260199 -17.136557 0.861242 -27.012889 17.648263 -20.108733 169.614989 -78.324368 9.115410 -46.721482 12.704860 -8.367279 -18.945220 -8.144470 0.621042 -7.526056 -47.232449 30.121264 95.827875 69.274313 -84.419936 -57.192306 -4.953046 4.379559 -33.390606 16.533622 -1.424772 4.855756 -8.440592 -4.637909 
62.570801 41.555180 -55.926121 67.866522 -27.626887 79.973018 140.892432 -23.935898 175.216537 -138.222497 2.325349 18.821539 94.960489 -11.505390 8.585701 21.454551 0.003096 0.000003 117.916932 15.250597 -172.861569 -129.315712 -4.208052 21.091694 91.804853 -14.422762 -4.582809 21.454557 -0.003107 -0.000019 13.653756 -0.287268 2.401217 17.275951 -0.930279 4.732468 16.958996 -0.901585 4.737992 -25.565620 -15.297250 0.743516 -26.808457 16.423682 -18.167265 167.426610 -78.485786 11.336079 -45.102372 14.516922 -7.403671 -19.273003 -8.451948 0.644684 -4.699493 -38.298763 30.851213 95.915042 70.479001 -84.219982 -54.716174 -5.610153 3.510546 -43.892537 17.150123 -1.734395 7.355208 -10.314952 -16.662318 
62.304428 41.543812 -54.947262 67.189534 -24.795806 80.277276 145.610959 -24.190315 174.497564 -136.837021 2.396565 18.882531 95.191780 -11.528577 8.798304 21.454553 0.003094 -0.000005 111.572445 14.828988 -170.655323 -131.279815 -4.167777 21.254681 93.569227 -14.406653 -4.300389 21.454555 -0.003107 -0.000019 13.818665 0.153116 2.314205 17.623527 -0.048489 4.624509 17.306559 -0.020453 4.624733 -24.984366 -12.817402 0.284017 -26.230930 14.981482 -15.976314 166.545598 -78.662729 12.224929 -43.372480 16.730232 -5.510178 -19.955374 -8.658751 0.665823 -3.335092 -33.734144 31.426148 97.805912 71.494609 -82.238039 -51.686418 -7.385805 3.660006 -55.741860 18.492179 -2.211579 9.150457 -8.706360 -26.759643 
61.884979 41.584438 -53.844231 66.851720 -22.011439 80.670470 150.284338 -24.213004 173.658079 -135.387887 2.455800 18.619439 95.477896 -11.377435 8.701419 21.454550 0.003094 -0.000005 105.512680 14.401298 -168.883066 -131.446895 -4.129532 20.891756 94.880036 -13.983624 -2.935811 21.454555 -0.003107 -0.000018 13.962050 0.562615 2.156063 17.926774 0.783961 4.373241 17.609647 0.810451 4.368455 -23.885675 -10.707690 -0.186829 -26.170630 13.708039 -14.227005 165.867005 -78.650974 12.915491 -41.350764 19.490490 -3.341863 -21.016598 -8.822710 0.689103 -2.043510 -31.735238 32.120850 101.732942 72.329087 -78.238007 -47.657881 -9.807777 7.854151 -68.771604 16.800165 -2.601766 10.130271 -8.749588 -33.013190 
61.396259 41.641079 -52.757278 66.401904 -19.386454 81.456720 154.454223 -24.359697 173.300983 -134.154601 2.497783 18.309118 95.720033 -11.211064 8.468382 21.454551 0.003094 -0.000001 99.924889 13.894897 -166.535079 -130.757100 -4.118738 20.662202 96.392739 -13.737834 -2.377169 21.454563 -0.003102 -0.000028 14.075136 1.038568 1.975316 18.171075 1.753584 4.089709 17.853708 1.778370 4.079084 -22.871698 -9.226749 -0.580906 -25.913439 12.664667 -12.958903 166.256613 -78.618223 12.520810 -39.446419 22.678432 -0.807925 -21.907048 -8.529865 0.681177 -0.961915 -30.889537 32.101971 107.363006 73.115406 -72.528085 -43.126470 -12.344739 14.948863 -81.311346 10.815046 -2.718763 11.071469 -10.420758 -34.266390 
60.828918 41.688061 -51.615471 66.285661 -16.988117 82.180180 158.372484 -24.482190 172.676430 -132.917202 2.574096 17.858540 95.789312 -10.940489 8.249497 21.454553 0.003092 0.000005 94.679215 13.393290 -163.843493 -130.319914 -4.073747 20.547514 96.830656 -13.604048 -1.432644 21.454558 -0.003111 -0.000019 14.137772 1.454115 1.819864 18.311413 2.601466 3.848047 17.993727 2.624789 3.832305 -22.189205 -8.345946 -1.060954 -25.274408 11.655408 -12.184150 166.543521 -78.835915 12.219997 -37.508120 26.291801 3.190283 -23.001494 -8.191895 0.673593 0.763122 -28.515073 31.372073 113.218957 74.363097 -66.535072 -38.676223 -15.198050 22.039007 -92.917217 3.541991 -2.724906 11.553845 -12.272652 -32.733668 
60.280899 41.699940 -50.357380 66.695028 -14.540216 82.788026 162.415055 -24.199101 171.651424 -131.516290 2.687680 17.286538 95.674264 -10.591085 7.949382 21.454558 0.003093 0.000002 90.316623 13.022299 -160.970169 -130.208991 -3.966202 19.914675 96.879034 -13.137268 -0.287275 21.454560 -0.003114 -0.000011 14.178833 1.749281 1.640568 18.402066 3.214968 3.540106 18.084089 3.236402 3.520653 -20.748300 -7.518348 -1.553164 -25.253836 10.771623 -11.585197 165.311984 -79.193783 13.456309 -35.091572 30.118706 8.368784 -24.111970 -7.598451 0.650207 1.921180 -24.739130 32.171277 119.904067 75.618800 -59.694938 -34.356220 -17.627931 23.576809 -103.424405 0.819960 -3.004484 11.651691 -13.489904 -32.305890 
59.801041 41.608429 -49.053669 67.566731 -12.282746 83.605532 166.088399 -23.412983 170.820326 -130.126906 2.804538 16.751654 95.518078 -10.275279 7.557714 21.454553 0.003086 0.000001 86.558291 13.051609 -158.266971 -129.676305 -3.790209 18.509065 96.705445 -12.124039 1.132606 21.454560 -0.003104 -0.000018 14.182889 1.950650 1.377207 18.411314 3.656940 3.049151 18.093007 3.675391 3.027038 -19.724873 -6.546120 -2.015433 -25.042460 10.116210 -11.004027 164.678784 -79.498368 14.086242 -32.516301 33.996116 13.761951 -24.847284 -6.909439 0.615478 2.498533 -20.956764 34.287037 126.903153 76.836425 -52.531972 -30.278987 -20.045048 23.342323 -112.618393 -0.259353 -3.331449 11.347028 -14.256358 -33.269018 
59.383060 41.413639 -47.707680 68.742084 -10.366802 84.539799 169.397639 -22.414094 170.205910 -128.752112 2.925000 16.356174 95.522784 -10.067215 7.063962 21.454553 0.003092 0.000005 83.548445 13.223500 -156.003256 -128.129199 -3.507360 16.102647 95.451559 -10.486312 2.003969 21.454557 -0.003106 -0.000017 14.139032 2.077993 1.096328 18.319778 3.955842 2.509742 18.001186 3.971054 2.485813 -19.101117 -5.284201 -2.673716 -24.752197 9.181955 -10.328481 163.838685 -79.337804 14.946431 -29.247994 37.706093 18.500471 -25.355324 -6.312759 0.583522 3.058774 -17.933604 34.818382 135.258072 77.963386 -44.000970 -26.606980 -22.428548 22.319590 -120.126799 -0.893490 -3.602055 11.518684 -14.483729 -34.145652 
59.000599 41.130711 -46.396461 69.930031 -8.991218 85.593205 172.048640 -21.638893 170.006837 -127.496396 3.035335 16.296719 95.422175 -10.005869 7.121183 21.454555 0.003088 -0.000006 81.897103 13.153011 -154.468266 -125.551199 -3.080267 12.539958 93.655438 -7.735955 5.217669 21.454555 -0.003105 -0.000019 13.996171 2.208611 0.822810 18.029107 4.261701 1.981632 17.710249 4.273729 1.955839 -18.875755 -4.310455 -3.319493 -24.117890 8.318397 -9.850090 163.463939 -78.918874 15.346296 -25.300595 41.478591 22.339524 -25.891275 -5.932257 0.566447 4.721504 -14.745665 34.095287 146.367921 78.856836 -32.694978 -23.996113 -24.251399 19.660184 -124.564400 -0.934718 -3.776739 11.410394 -12.451783 -36.430300 
58.664120 40.803421 -45.133240 71.186028 -7.896009 86.684567 174.279325 -20.870094 169.945789 -126.340208 3.137708 16.211083 95.159159 -9.860958 7.642762 21.454558 0.003094 -0.000001 81.689903 12.682804 -153.542857 -122.744196 -2.701093 9.195225 92.662069 -5.110000 7.767809 21.454558 -0.003101 -0.000019 13.828847 2.325956 0.539728 17.687316 4.541754 1.430436 17.368232 4.550441 1.402942 -18.728613 -3.757110 -3.845455 -23.789264 7.611436 -9.639849 164.659974 -78.567318 14.146415 -21.531522 45.204985 25.661847 -26.099381 -5.517389 0.541948 7.021347 -10.707171 34.441587 155.374058 79.257829 -23.542955 -21.812675 -25.893350 16.204796 -126.586792 -0.756258 -3.867478 12.481018 -11.748606 -39.961350 
58.407970 40.442421 -44.100498 72.836024 -7.250928 87.384272 175.912137 -19.594298 169.723890 -125.382411 3.215305 15.990653 95.061944 -9.677477 7.844349 21.454553 0.003097 -0.000001 81.665642 11.291700 -153.195870 -120.563193 -2.536352 8.308672 90.605048 -4.911245 4.344155 21.454558 -0.003094 -0.000018 13.618128 2.304293 0.307926 17.256029 4.536619 0.957461 16.936888 4.542455 0.930012 -18.961625 -3.654363 -4.114828 -23.338212 7.348426 -9.670495 167.490609 -78.428644 11.273292 -18.141490 48.735439 29.350436 -26.030491 -5.133768 0.515093 8.593328 -7.478786 36.178983 161.906971 78.811879 -16.935072 -20.140213 -26.638993 12.712824 -125.998494 -0.671042 -3.850686 14.912864 -11.996260 -43.515661 
58.113998 40.194752 -43.330940 74.443905 -7.179991 87.875486 176.658676 -18.484602 169.798639 -124.637101 3.285001 16.076612 95.111504 -9.788551 7.444237 21.454553 0.003093 0.000002 81.960064 9.563697 -152.917212 -120.526911 -2.849600 11.558597 93.748383 -7.842461 -1.152796 21.454558 -0.003106 -0.000017 13.342483 2.269470 0.206228 16.699454 4.485110 0.739053 16.380339 4.489645 0.711918 -19.630122 -4.136592 -4.313659 -22.301597 7.191439 -9.997140 169.514995 -78.336491 9.216896 -14.728125 51.860902 33.230018 -26.148317 -4.510393 0.474907 9.186766 -5.347561 38.949137 166.031981 78.224128 -12.767954 -19.100187 -27.348093 9.497058 -123.766306 -0.454339 -3.778407 18.539836 -13.184132 -47.133052 
57.641651 40.052570 -42.643162 75.880000 -7.276972 88.192632 177.118198 -17.885701 170.040893 -123.876300 3.360694 16.561610 94.772085 -10.089059 7.547312 21.454553 0.003095 0.000009 81.348318 7.932809 -154.051037 -121.391094 -3.086710 13.269758 95.912624 -8.954582 -1.457673 21.454558 -0.003115 -0.000018 13.084278 2.260943 0.194375 16.181890 4.472188 0.704221 15.862752 4.476494 0.677158 -19.821055 -5.444973 -4.247241 -21.713416 7.266157 -10.726649 171.169294 -78.233670 7.536404 -11.294424 54.548076 37.536186 -26.702742 -3.797073 0.435393 9.463536 -3.921417 39.661652 164.041992 78.220986 -14.791984 -18.034896 -28.711264 6.445892 -120.706805 -0.239650 -3.670732 16.761281 -13.085334 -49.914288 
56.985489 40.241261 -41.933151 76.489772 -7.012881 88.217528 177.941427 -18.384603 169.992316 -122.790300 3.455437 16.932481 93.851628 -10.187849 8.376600 21.454550 0.003095 0.000009 81.167017 5.906390 -155.055690 -122.073102 -3.216737 14.129559 95.410551 -9.317035 0.777101 21.454562 -0.003109 -0.000016 13.005892 2.447553 0.393659 16.036879 4.816607 1.124480 15.717623 4.823451 1.095320 -19.891266 -7.549583 -3.920981 -21.539560 7.791183 -11.946161 171.887885 -77.891539 6.816111 -8.821406 56.654647 42.205545 -27.730486 -3.507022 0.432653 9.720384 -2.815956 39.246130 159.104025 78.209409 -19.812984 -17.573874 -29.561981 4.755314 -119.698095 -0.332974 -3.623205 13.813457 -11.143601 -48.443390 
56.153000 40.687672 -41.429359 75.787376 -7.197734 88.023312 178.384023 -20.625202 169.510706 -121.684000 3.506058 17.214607 92.797067 -9.984599 10.670810 21.454550 0.003100 0.000003 81.322698 3.407298 -154.120883 -121.692811 -3.360325 15.587641 95.277574 -10.186454 1.832544 21.454560 -0.003115 -0.000017 12.871461 2.913342 0.777908 15.798323 5.692800 1.949734 15.478710 5.704613 1.915238 -19.754787 -9.179307 -3.712863 -21.367695 7.485733 -12.596472 171.862504 -77.722949 6.847607 -6.091792 59.158304 45.758234 -28.471830 -3.196505 0.424160 8.582017 -3.280070 38.132267 152.377941 78.863413 -26.604007 -18.856405 -31.173933 4.821698 -119.408891 -0.560327 -3.595675 15.711530 -11.961200 -49.971652 
55.407349 41.401890 -41.019310 74.683406 -7.883395 87.769106 178.865483 -22.663097 168.425689 -119.877511 3.574775 16.774538 92.899104 -9.394343 12.691750 21.454558 0.003092 0.000005 81.501287 1.187801 -152.458278 -120.701300 -3.500249 16.991009 95.355861 -11.139962 1.805256 21.454560 -0.003099 -0.000016 12.616172 3.466374 1.065351 15.322992 6.760750 2.586347 15.002838 6.776383 2.545333 -20.000360 -9.556807 -3.447957 -19.977448 6.527774 -12.029694 175.277202 -78.158729 3.354891 -2.970838 62.334137 48.418415 -29.189175 -2.557447 0.392956 7.703922 -4.285095 36.505186 140.128926 80.229212 -38.906960 -21.467308 -33.376283 4.702365 -116.930393 -0.572978 -3.492249 17.038908 -11.726614 -51.961791 
54.650070 42.179260 -40.478222 74.556590 -8.430286 87.555184 179.973490 -22.911900 167.061960 -116.896707 3.772217 15.569073 93.556475 -8.432510 14.156718 21.454558 0.003085 0.000007 81.855999 -0.339302 -151.524509 -119.979800 -3.604511 17.843116 95.571606 -11.752258 1.405117 21.454560 -0.003110 -0.000017 12.350314 3.765848 0.991022 14.798204 7.373678 2.462386 14.477527 7.388543 2.417606 -19.363909 -9.290092 -2.961184 -19.449163 5.779646 -10.987950 179.487317 -78.333800 -0.938697 2.039707 64.747796 50.485159 -30.211286 -2.015950 0.374233 6.859134 -4.098575 36.692586 123.289040 80.400110 -55.863031 -23.832181 -34.654293 3.492100 -114.556998 -0.343290 -3.408278 18.942819 -10.704103 -55.718597 
54.087799 42.821331 -40.067108 75.090014 -8.609675 87.875916 -178.775516 -20.341401 167.600616 -113.540489 4.028011 13.569530 96.564695 -7.428153 14.132131 21.454555 0.003100 -0.000000 82.281738 -0.814505 -151.185513 -119.569100 -3.710467 18.722177 95.765502 -12.418496 0.476063 21.454560 -0.003117 -0.000017 12.168911 3.943603 0.794975 14.429014 7.756910 2.082220 14.107950 7.769480 2.035086 -19.078467 -9.144060 -2.737619 -19.437837 5.175136 -10.407067 179.072315 -78.336068 -0.515909 4.719473 66.083098 50.043618 -30.805717 -1.465782 0.347220 6.517321 -3.358522 37.220337 119.433098 80.768496 -59.706058 -26.864534 -34.418116 1.998235 -111.959402 0.039092 -3.323843 19.298949 -9.291321 -57.451624 
53.544479 43.602070 -39.717999 75.772473 -8.805423 88.356809 -177.838441 -16.784102 168.928910 -110.325990 4.169175 10.270865 100.321702 -5.784785 12.685602 21.454557 0.003097 -0.000001 82.758916 -1.164393 -151.183724 -119.002604 -3.808566 19.507249 95.695540 -12.990632 -0.110301 21.454557 -0.003101 -0.000017 12.048484 4.044568 0.653592 14.181763 7.978183 1.804357 13.860443 7.989069 1.755867 -19.473493 -8.264048 -2.907750 -19.387635 4.047234 -9.568790 175.139998 -78.301576 3.490693 0.697918 66.444183 45.986240 -29.749907 -1.301599 0.316068 4.272715 -5.483700 38.318276 120.277118 81.186729 -58.819957 -29.080804 -34.493162 1.544726 -109.787989 0.312458 -3.248950 18.833138 -8.423051 -57.957604 
52.826191 44.762932 -39.431789 75.959251 -8.895373 88.934882 -177.143183 -14.559113 170.010922 -107.235302 4.204101 6.923791 102.810992 -3.911732 11.763242 21.454551 0.003095 -0.000008 83.879805 -1.675994 -150.832871 -117.759906 -3.892735 20.075719 95.412313 -13.400631 -0.313558 21.454560 -0.003106 -0.000018 12.115772 4.191697 0.556929 14.315631 8.281932 1.634697 13.994000 8.291785 1.584328 -20.878025 -7.151438 -3.081134 -19.109257 2.887120 -8.610882 170.817499 -77.860837 7.907610 -9.930112 64.984141 38.767194 -28.358247 -2.241847 0.356535 2.869159 -8.188258 38.952323 122.757050 80.918897 -56.353015 -30.791309 -34.255533 1.552786 -108.216602 0.571740 -3.198474 18.048710 -7.713574 -58.930456 
52.052860 46.264221 -39.342800 75.904357 -9.428063 89.925909 -177.317557 -13.150099 171.118136 -104.132606 4.412992 3.756953 104.809594 -2.100183 11.021424 21.454553 0.003096 0.000004 84.960259 -2.098298 -150.646393 -115.865499 -3.909864 20.429308 95.185653 -13.637787 -0.222064 21.454560 -0.003106 -0.000017 12.153417 4.357528 0.400382 14.385912 8.631123 1.345729 14.063943 8.639220 1.293207 -22.341518 -6.166610 -3.260470 -18.755462 2.395775 -7.999632 167.188906 -77.477281 11.618807 -22.611517 61.563849 28.979810 -25.971420 -2.884264 0.361395 2.864239 -9.300565 39.285739 123.167954 80.201604 -56.001964 -32.260264 -34.302972 1.964335 -106.496296 0.772045 -3.136951 17.649439 -7.051163 -60.628092 
51.415829 48.040249 -39.233509 76.065611 -10.367047 91.039612 -177.836379 -11.988906 171.916230 -100.358592 4.678071 0.963378 106.342808 -0.481785 10.346030 21.454546 0.003094 0.000004 86.017026 -2.227299 -150.888168 -113.690404 -3.922307 20.447962 95.048605 -13.636701 -0.039100 21.454558 -0.003112 -0.000016 12.062126 4.461299 0.202415 14.191164 8.863741 0.955905 13.868931 8.869492 0.901949 -22.447024 -5.687255 -3.285404 -19.145143 2.568135 -7.812512 161.913118 -77.594009 16.985784 -33.359183 56.979931 18.396235 -23.341642 -3.417270 0.359205 4.366163 -8.659565 38.412014 122.105956 79.510089 -57.130977 -33.439845 -34.612171 2.143876 -104.579916 1.061003 -3.072489 17.680614 -6.731744 -61.779826 
50.849018 50.119930 -39.031090 76.247171 -11.415807 92.117190 -178.153340 -11.326705 172.212934 -95.786716 5.176122 -1.045949 107.402204 0.675911 9.488268 21.454545 0.003094 -0.000005 87.417727 -2.292694 -151.151663 -111.093109 -3.953715 20.343525 94.949089 -13.546336 0.182114 21.454562 -0.003112 -0.000016 11.922946 4.553604 0.021826 13.900384 9.071272 0.595092 13.577931 9.074822 0.539845 -22.609687 -5.664004 -3.295489 -18.910740 2.383484 -7.723858 155.712959 -78.024721 23.267422 -40.627147 52.284302 8.756357 -22.446595 -5.807981 0.508385 7.470027 -6.342279 37.386533 122.158002 79.530627 -57.077026 -34.935188 -34.724733 2.150222 -102.146299 1.410961 -2.988863 17.882168 -6.836543 -62.140569 
50.487141 52.540859 -38.645088 76.778136 -12.456227 92.703979 -178.031094 -10.675499 172.405081 -90.271544 5.346398 -1.795647 107.556621 1.124370 8.951082 21.454550 0.003091 0.000002 89.269500 -2.570805 -151.851648 -108.120399 -3.985913 20.010330 94.672118 -13.296256 0.493805 21.454558 -0.003101 -0.000016 11.774003 4.551510 -0.118842 13.589974 9.085121 0.301279 13.267490 9.086917 0.245956 -22.390800 -6.152818 -3.208125 -19.087512 2.233025 -7.890646 150.839441 -78.445781 28.189301 -44.754497 47.977434 -0.708460 -24.665934 -8.948522 0.747044 9.483616 -6.267373 36.277259 122.539044 79.298578 -56.713967 -35.745105 -34.416558 1.616955 -99.360845 1.826623 -2.893583 17.797475 -7.055608 -61.814537 
50.417339 55.287472 -38.056389 77.611904 -13.816631 92.708494 -177.782297 -9.723206 172.056755 -83.925055 5.723871 -1.501366 106.954806 0.971642 8.850072 21.454555 0.003094 -0.000001 91.311979 -2.987393 -152.952592 -104.722298 -4.018532 19.378302 94.352821 -12.847130 0.781574 21.454557 -0.003105 -0.000016 11.548268 4.478794 -0.217453 13.126861 8.952985 0.077248 12.804494 8.953443 0.022743 -22.916794 -7.032594 -2.722245 -18.839248 2.493634 -8.123792 147.518795 -78.886759 31.526374 -46.309366 44.901711 -7.241746 -30.727870 -12.743117 1.098523 8.745797 -8.750253 35.060228 122.499019 78.962492 -56.784048 -36.466530 -33.872373 0.542138 -95.910821 2.444765 -2.782311 17.181283 -7.042982 -60.675111 
50.588299 58.318230 -37.215389 78.718333 -15.020153 92.074092 -177.108690 -8.653102 171.596523 -77.195235 5.927710 0.085528 104.690011 0.108912 8.270800 21.454545 0.003087 -0.000003 94.047026 -3.604406 -154.374925 -100.815812 -4.020821 18.504104 94.102829 -12.244285 0.957347 21.454558 -0.003100 -0.000017 11.366020 4.353181 -0.265114 12.754267 8.708760 -0.046763 12.432138 8.708444 -0.099747 -23.958150 -8.366779 -1.929980 -18.417776 2.893742 -8.457915 149.274631 -79.397165 29.714212 -46.191842 42.850715 -12.217184 -40.677072 -15.108387 1.482704 5.707922 -12.141596 33.874637 122.711903 78.568417 -56.604056 -37.890054 -32.988499 -1.976038 -91.057425 4.516237 -2.709831 15.610819 -6.642674 -59.519245 
50.901291 61.452129 -36.104210 80.164271 -15.995367 91.145808 -177.042929 -7.542292 171.634321 -71.926106 5.691987 2.463362 99.227827 -1.166986 6.635594 21.454550 0.003090 -0.000000 97.264933 -4.232498 -156.199241 -96.686689 -4.058798 17.600049 93.935762 -11.608641 1.205498 21.454557 -0.003103 -0.000018 11.168624 4.149889 -0.288624 12.352091 8.306573 -0.131136 12.030334 8.305783 -0.181640 -24.469383 -9.693072 -1.191515 -18.163555 3.379514 -8.866109 153.388126 -79.493184 25.540722 -46.193843 41.063770 -16.060432 -49.924100 -15.833673 1.803387 4.047828 -15.285161 29.565130 124.011961 78.247023 -55.323006 -39.813705 -32.042719 -5.603583 -85.361676 7.714568 -2.680082 14.221821 -6.644627 -57.798659 
51.264820 64.510223 -34.868759 81.698686 -16.774029 90.353274 -178.275806 -7.114096 172.093364 -69.477197 4.934765 5.613679 91.530279 -3.095769 4.823175 21.454551 0.003095 0.000002 100.557276 -4.959394 -158.962749 -92.492209 -3.721397 16.959078 93.691153 -11.117387 1.836668 21.454558 -0.003116 -0.000017 10.925342 3.923578 -0.327475 11.857109 7.859790 -0.250283 11.535743 7.858270 -0.298036 -24.286879 -11.331805 -0.452083 -18.082586 4.407102 -9.661089 157.894999 -79.718621 20.958907 -47.706279 40.126641 -19.651229 -55.776295 -15.986466 2.011815 3.144533 -17.753786 24.111913 124.565916 77.565793 -54.824924 -41.097129 -31.259696 -9.285591 -79.454546 10.521573 -2.617054 10.923909 -5.886672 -55.509060 
51.651138 67.739594 -33.627529 83.582842 -17.016252 89.532777 179.603690 -6.670397 172.178632 -69.466869 4.346777 8.453474 83.612942 -5.248443 2.574663 21.454541 0.003092 -0.000002 104.643423 -5.285598 -161.655688 -87.727319 -3.737148 16.273989 93.335915 -10.614216 2.197830 21.454558 -0.003112 -0.000019 10.797879 3.599386 -0.328002 11.596607 7.213257 -0.293061 11.275762 7.211495 -0.336837 -24.285060 -12.984759 0.161067 -17.809624 5.273665 -10.514395 162.592107 -79.795597 16.190601 -50.630819 39.751383 -24.582100 -57.969632 -15.679833 2.069821 0.790415 -18.795514 25.387847 125.676027 76.830278 -53.769998 -41.286414 -30.966391 -12.121218 -74.757322 12.437917 -2.548637 5.086462 -2.797447 -55.367436 
52.020599 70.864838 -32.282200 85.386299 -16.804168 88.709595 176.748931 -6.765492 171.616002 -71.527128 3.967017 10.870143 77.596222 -7.972174 -1.378508 21.454562 0.003090 0.000001 109.184228 -5.479397 -163.971709 -82.773621 -4.089643 15.670021 92.910066 -10.162565 2.505380 21.454558 -0.003119 -0.000017 10.723626 3.266237 -0.252924 11.447856 6.541241 -0.180875 11.127496 6.540177 -0.220547 -24.322908 -13.993880 0.417736 -17.387274 5.345137 -10.938334 164.394635 -80.136438 14.346286 -53.534302 40.473430 -27.682408 -58.007595 -15.985370 2.091942 -0.581601 -19.906858 27.851076 127.634010 76.543587 -51.819962 -40.328886 -31.872425 -13.121361 -71.848693 13.619660 -2.508110 -0.887135 0.797544 -53.221305 
52.395401 73.653168 -31.134640 86.959052 -16.338289 88.200070 173.270056 -6.909192 170.403944 -74.834018 4.400564 11.888195 76.013216 -9.920400 -5.328587 21.454553 0.003088 0.000001 113.542299 -5.480100 -166.114968 -77.953816 -4.519620 15.313897 92.300219 -9.861258 2.901306 21.454557 -0.003107 -0.000017 10.651599 2.951639 -0.269421 11.298951 5.915253 -0.248998 10.979002 5.913784 -0.284835 -24.153793 -14.226451 0.631057 -16.938956 4.869190 -10.644800 162.798925 -79.973852 15.972406 -53.694890 41.628859 -26.477595 -57.162485 -16.778483 2.115051 0.134495 -20.932081 27.877463 130.123040 76.584316 -49.302997 -39.035644 -33.283802 -12.295367 -70.499239 14.048399 -2.481644 -3.669995 3.778018 -47.822314 
52.716541 76.164299 -30.148029 88.035080 -15.647525 88.119078 169.187214 -7.345501 169.684083 -78.654587 4.726703 12.307590 79.586860 -9.750244 -4.423885 21.454562 0.003094 0.000006 117.848412 -5.452301 -167.923001 -73.163388 -4.883385 15.211706 91.472878 -9.717100 3.354919 21.454560 -0.003101 -0.000017 10.587153 2.704031 -0.376403 11.162308 5.431574 -0.490229 10.842669 5.428649 -0.523106 -23.869167 -13.696601 0.791875 -16.305984 4.222830 -9.813517 162.860861 -79.541419 15.929835 -52.024516 43.019421 -23.337857 -55.405969 -16.685174 2.045900 0.419993 -20.860665 29.110058 132.968046 76.934097 -46.399019 -37.823354 -34.854636 -10.585523 -70.072495 13.929281 -2.455688 -4.455495 6.504367 -43.656172 
53.000290 78.518143 -29.132730 88.909037 -14.845379 88.082386 164.808886 -7.752300 169.325348 -81.570969 4.612154 10.748180 83.975058 -8.267495 -3.748693 21.454553 0.003087 0.000008 122.207725 -5.410609 -169.237293 -68.337279 -5.468209 15.103266 90.477248 -9.565521 3.737186 21.454560 -0.003102 -0.000016 10.509601 2.451633 -0.492747 11.000333 4.938858 -0.750500 10.680965 4.934361 -0.780376 -23.640133 -12.719636 0.765887 -15.578721 3.638762 -8.903835 164.384908 -79.441766 14.387085 -49.965969 44.877167 -19.446003 -52.119767 -16.161889 1.897548 0.983214 -20.038286 30.338348 137.430933 77.313712 -41.854016 -36.632883 -36.160480 -9.461094 -69.486369 13.754682 -2.419422 -5.700474 9.072642 -40.715792 
53.333191 80.738968 -28.126289 89.612772 -13.941903 87.945987 160.451922 -8.292695 168.931984 -82.739259 4.273056 8.167559 86.855199 -6.386684 -3.877810 21.454558 0.003096 0.000004 126.669929 -5.350199 -170.396732 -63.341071 -5.970425 14.913136 89.346633 -9.366891 4.001687 21.454560 -0.003099 -0.000018 10.432528 2.198875 -0.540815 10.843380 4.438576 -0.873531 10.524281 4.433344 -0.900365 -23.230916 -11.996331 0.664762 -15.229396 3.210321 -8.302001 166.237707 -79.115263 12.519113 -47.441999 46.583997 -14.962972 -47.727350 -15.282871 1.697347 1.561225 -18.512345 32.572568 141.433123 77.635516 -37.779067 -34.779351 -37.312108 -9.062496 -69.025209 13.888935 -2.409789 -5.044691 9.530331 -38.378563 
53.714130 82.789627 -27.167471 90.093692 -12.947819 87.643690 156.326965 -8.870601 168.237572 -81.778975 3.933663 4.919333 87.993013 -4.056158 -3.516082 21.454557 0.003095 0.000001 131.214245 -5.281689 -171.198623 -58.141890 -6.417829 14.507452 88.160045 -9.048866 4.055080 21.454562 -0.003100 -0.000015 10.363163 1.968626 -0.510444 10.705347 3.975873 -0.836828 10.386446 3.970879 -0.860849 -22.805069 -11.769249 0.759803 -14.703676 2.997100 -7.916581 169.127601 -78.263449 9.613799 -44.435421 47.802237 -9.676792 -42.440248 -14.094124 1.464067 2.479031 -17.639298 33.379729 144.208980 77.968296 -34.942981 -32.613692 -38.174337 -9.565428 -68.043062 14.170738 -2.389167 -2.473821 8.584944 -35.482696 
54.164242 84.611366 -26.210030 90.313597 -11.939549 87.314522 152.923578 -9.635605 167.342162 -78.179752 3.913539 1.782544 89.014802 -2.128395 -4.881181 21.454557 0.003087 -0.000001 135.685505 -5.088195 -171.602888 -52.968189 -6.648266 13.875658 86.987759 -8.607344 3.939471 21.454558 -0.003112 -0.000019 10.271113 1.774519 -0.406968 10.524300 3.578556 -0.650985 10.205553 3.574700 -0.672603 -22.190436 -11.907381 0.842601 -13.989797 3.068927 -7.855514 171.259576 -77.677419 7.463508 -41.357636 49.284435 -4.842475 -37.026869 -12.421748 1.215005 3.677189 -16.957277 33.264951 146.783907 78.272889 -32.312993 -30.320473 -38.727999 -11.244614 -65.922254 14.627610 -2.335169 -0.378432 7.720767 -32.532382 
54.741501 86.166283 -25.262470 90.563370 -11.250439 86.788878 150.072124 -10.209494 165.972231 -72.294185 4.321788 -0.636819 89.673055 -0.516041 -5.142985 21.454551 0.003087 0.000000 139.534467 -4.662096 -171.750038 -48.193019 -6.768568 12.995558 85.866522 -8.015727 3.728473 21.454558 -0.003106 -0.000018 10.089014 1.551950 -0.243669 10.164159 3.119202 -0.350114 9.845553 3.117156 -0.368953 -21.438210 -12.065277 0.867563 -13.682305 3.086894 -7.843387 172.774894 -77.233457 5.933292 -37.862549 50.766887 -0.457358 -31.946987 -10.506835 0.977517 5.118950 -15.799720 31.457075 149.646030 78.565214 -29.392947 -28.173175 -39.129331 -14.121163 -62.653960 15.514169 -2.267391 1.135648 6.743143 -30.207246 
55.438229 87.321228 -24.216961 90.554846 -10.512797 85.986030 148.573307 -10.730008 164.653553 -64.691146 5.052644 -1.768316 90.092989 0.418822 -4.096297 21.454550 0.003086 0.000001 143.014394 -4.441691 -171.825880 -44.214195 -6.828769 12.086254 84.956782 -7.388045 3.604073 21.454558 -0.003117 -0.000018 9.899050 1.367531 -0.020884 9.788912 2.731800 0.074043 9.470419 2.732334 0.057546 -20.595216 -12.201663 0.900801 -13.480050 3.102029 -7.802471 174.891679 -76.866846 3.784506 -34.126067 52.197842 3.442394 -27.241509 -8.508131 0.759126 6.879008 -13.413454 29.921577 152.372122 78.749622 -26.616918 -26.259651 -39.437488 -16.982485 -58.518636 16.039538 -2.146499 2.616812 5.389124 -28.404926 
56.265701 88.191833 -22.938089 90.481244 -9.465731 84.778630 148.819823 -11.086389 164.908361 -56.248421 4.572442 -1.782326 90.080168 0.515487 -3.680916 21.454551 0.003089 -0.000000 146.614819 -4.349003 -172.192498 -40.795077 -6.888130 11.210403 84.364359 -6.764286 3.574010 21.454560 -0.003109 -0.000017 9.725144 1.195247 0.226969 9.445124 2.367877 0.550850 9.126753 2.371295 0.536542 -19.287553 -12.339170 1.069534 -13.167300 3.118236 -7.578581 177.270088 -76.552760 1.364031 -30.265982 53.697619 6.639161 -22.786747 -6.797662 0.578727 9.068891 -10.043606 29.924544 153.418002 78.770140 -25.555057 -24.397096 -39.674592 -20.078683 -53.632114 16.145292 -1.978650 4.519370 4.069516 -25.367758 
57.180691 88.820290 -21.531481 90.428966 -8.106804 83.227474 150.610958 -11.186491 165.859888 -47.943109 4.097265 -1.057095 89.626282 0.093037 -3.316761 21.454553 0.003083 -0.000003 150.177254 -4.436712 -173.045110 -38.078253 -7.240244 10.558158 83.882673 -6.235298 3.813152 21.454558 -0.003101 -0.000016 9.604828 1.023915 0.468091 9.207125 2.007261 1.016293 8.888876 2.013499 1.004154 -18.036166 -12.086642 1.285208 -12.537763 2.601390 -6.875633 179.381996 -76.124944 -0.784477 -26.112744 55.115313 9.721511 -18.825086 -5.656283 0.455461 11.228851 -6.520026 31.361807 154.882094 78.836939 -24.066054 -23.191863 -39.998021 -23.204960 -47.902924 15.869103 -1.771198 5.800190 3.529504 -21.306125 
58.197170 89.331673 -20.079639 90.587679 -6.584663 81.213374 153.251167 -10.825811 166.956885 -41.107832 4.042874 -0.745328 88.930470 -0.085361 -3.084570 21.454550 0.003099 -0.000001 153.573839 -4.102302 -174.555784 -35.888088 -7.172639 9.897513 83.563922 -5.727787 4.010858 21.454562 -0.003103 -0.000017 9.518547 0.847328 0.689528 9.035520 1.638190 1.443199 8.717384 1.647020 1.433286 -16.907659 -12.091591 1.846576 -12.120065 2.108235 -6.040541 -178.158600 -75.330894 -3.285803 -22.104801 56.383386 12.913689 -15.242141 -4.851538 0.369171 12.082169 -4.737043 33.080829 156.605938 79.197730 -22.296056 -22.747704 -40.793653 -25.089050 -41.743569 15.054908 -1.536204 5.680384 4.730653 -18.049161 
59.232899 89.656250 -18.659781 90.701852 -5.004735 79.061899 156.259319 -10.358199 169.171423 -36.487752 3.200204 -1.462967 88.242690 0.487169 -2.643916 21.454553 0.003092 -0.000001 156.539439 -3.480700 -175.192317 -34.359837 -7.392794 8.732428 83.519656 -4.882287 4.202738 21.454560 -0.003118 -0.000018 9.421781 0.717187 0.821871 8.841508 1.369440 1.696212 8.523463 1.379798 1.687921 -15.461750 -12.148244 2.612486 -11.807625 1.468932 -4.960138 -175.036192 -74.584798 -6.474481 -18.164371 57.901057 15.847651 -12.234664 -4.224654 0.307472 12.510552 -4.408499 34.902694 157.749038 79.218617 -21.135993 -21.888601 -41.533656 -25.856724 -36.714172 14.395961 -1.363437 5.886431 5.494710 -16.002595 
60.284271 89.852257 -17.291870 90.728114 -3.334093 77.097420 159.390797 -9.630008 171.524123 -34.011542 2.148032 -2.145575 86.645847 0.929437 -2.750703 21.454550 0.003102 -0.000000 159.231025 -2.563202 -175.447725 -33.347371 -7.559431 7.424188 83.678485 -3.946923 4.398158 21.454558 -0.003110 -0.000017 9.355156 0.628609 0.853800 8.707075 1.191197 1.752509 8.389072 1.201896 1.745294 -14.215761 -11.853868 3.580243 -11.176254 0.314516 -3.330247 -172.342489 -73.936354 -9.232216 -13.953793 59.552467 17.878707 -10.417332 -3.888017 0.276354 12.262442 -5.025832 37.588109 159.916981 79.066523 -18.943992 -20.734668 -42.198971 -25.551408 -33.237784 14.052524 -1.261585 7.096562 5.522438 -14.207947 
61.293751 89.841301 -15.992560 90.354243 -1.934329 75.418887 162.074939 -9.232812 171.929877 -33.098912 1.830674 -1.357750 84.188181 0.045212 -4.221056 21.454553 0.003088 0.000002 161.351266 -1.982808 -175.768703 -32.991890 -7.713503 6.423436 84.030779 -3.202993 4.717405 21.454557 -0.003123 -0.000018 9.244071 0.657101 0.852766 8.485357 1.249882 1.751473 8.167336 1.260574 1.743885 -12.797493 -11.336702 4.489401 -10.937983 -1.001684 -1.574175 -170.832894 -73.516085 -10.780091 -9.760529 61.143184 19.338530 -9.595090 -3.703854 0.260964 12.047848 -5.532947 39.256365 164.537099 78.908588 -14.259038 -19.457001 -42.777659 -24.670836 -31.232864 13.850449 -1.206508 8.572662 5.160494 -12.773146 
62.244678 89.980087 -14.755410 89.942882 -0.658469 74.309692 164.803968 -8.763190 171.134829 -32.165283 1.965606 -1.219430 84.025902 -0.324300 -5.480803 21.454551 0.003094 0.000001 163.724156 -1.342405 -176.050202 -31.914978 -7.773208 5.681729 84.030123 -2.623343 5.098677 21.454560 -0.003109 -0.000017 9.110047 0.748320 0.752097 8.217666 1.441335 1.555471 7.899597 1.450843 1.546753 -10.892636 -10.989059 5.230675 -11.239165 -2.116080 -0.082301 -169.762603 -73.327845 -11.879309 -6.919446 62.523996 19.721054 -9.492555 -3.358151 0.237271 12.484043 -5.070534 39.714774 169.538040 78.529922 -9.189014 -17.575649 -43.159576 -23.420481 -30.415789 13.514729 -1.168593 9.377500 5.203998 -12.375716 
63.200932 90.211388 -13.550310 89.727000 0.497152 73.774417 167.523408 -7.816398 169.793626 -30.606546 2.343177 -1.037462 84.147138 -0.468452 -5.535577 21.454551 0.003103 -0.000000 166.215112 -0.391485 -176.602614 -30.382655 -7.512804 5.355171 83.912583 -2.319626 5.562792 21.454557 -0.003107 -0.000017 8.940562 0.824927 0.542918 7.877088 1.610977 1.140732 7.558927 1.617972 1.130991 -8.820494 -10.602861 5.735385 -11.505697 -3.403715 1.286739 -168.517023 -73.268170 -13.159471 -5.862500 63.577935 19.818812 -9.711972 -2.966586 0.211445 12.631731 -4.636657 38.279382 174.581070 78.037090 -4.071032 -15.846010 -43.384371 -23.287238 -29.656033 13.198627 -1.133532 9.686817 5.724332 -11.065005 
64.209923 90.549171 -12.375020 89.926872 1.687478 73.716490 170.347035 -6.207597 167.743982 -28.289607 3.009604 -0.424401 83.922582 -0.710173 -4.521793 21.454555 0.003105 0.000001 168.759467 1.142304 -177.067204 -28.615998 -7.065296 5.188648 83.621699 -2.116160 6.060701 21.454558 -0.003117 -0.000019 8.759930 0.794816 0.274419 7.511840 1.570114 0.599810 7.193631 1.573844 0.590315 -6.751080 -9.729652 5.967311 -11.549602 -4.850424 2.675802 -167.653099 -73.499351 -14.047407 -6.970414 63.977433 18.856450 -10.430996 -2.347491 0.171865 12.457667 -3.954606 37.134598 178.813943 77.357404 0.227033 -14.016770 -43.658935 -24.516179 -28.835303 13.006343 -1.105758 9.445609 6.323892 -9.011676 
