HIERARCHY
ROOT Hips
{
	OFFSET -211.153198 91.653587 -35.738949
	CHANNELS 6 Xposition Yposition Zposition Zrotation Yrotation Xrotation 
	JOINT LeftUpLeg
	{
		OFFSET 0.103455 1.857827 10.548507
		CHANNELS 3 Zrotation Yrotation Xrotation
		JOINT LeftLeg
		{
			OFFSET 43.500000 -0.000031 0.000008
			CHANNELS 3 Zrotation Yrotation Xrotation
			JOINT LeftFoot
			{
				OFFSET 42.372192 0.000011 -0.000014
				CHANNELS 3 Zrotation Yrotation Xrotation
				JOINT LeftToe
				{
					OFFSET 17.299997 -0.000002 0.000013
					CHANNELS 3 Zrotation Yrotation Xrotation
					End Site
					{
						OFFSET 0.000000 0.000000 0.000000
					}
				}
			}
		}
	}
	JOINT RightUpLeg
	{
		OFFSET 0.103457 1.857826 -10.548499
		CHANNELS 3 Zrotation Yrotation Xrotation
		JOINT RightLeg
		{
			OFFSET 43.500046 -0.000019 0.000015
			CHANNELS 3 Zrotation Yrotation Xrotation
			JOINT RightFoot
			{
				OFFSET 42.372261 -0.000004 0.000013
				CHANNELS 3 Zrotation Yrotation Xrotation
				JOINT RightToe
				{
					OFFSET 17.299992 -0.000006 0.000004
					CHANNELS 3 Zrotation Yrotation Xrotation
					End Site
					{
						OFFSET 0.000000 0.000000 0.000000
					}
				}
			}
		}
	}
	JOINT Spine
	{
		OFFSET 6.901968 -2.603730 -0.000002
		CHANNELS 3 Zrotation Yrotation Xrotation
		JOINT Spine1
		{
			OFFSET 12.588100 -0.000001 0.000009
			CHANNELS 3 Zrotation Yrotation Xrotation
			JOINT Spine2
			{
				OFFSET 12.343201 0.000005 -0.000005
				CHANNELS 3 Zrotation Yrotation Xrotation
				JOINT Neck
				{
					OFFSET 25.832893 -0.000008 -0.000006
					CHANNELS 3 Zrotation Yrotation Xrotation
					JOINT Head
					{
						OFFSET 11.766606 0.000005 0.000008
						CHANNELS 3 Zrotation Yrotation Xrotation
						End Site
						{
							OFFSET 0.000000 0.000000 0.000000
						}
					}
				}
				JOINT LeftShoulder
				{
					OFFSET 19.745903 -1.480373 6.000100
					CHANNELS 3 Zrotation Yrotation Xrotation
					JOINT LeftArm
					{
						OFFSET 11.284123 -0.000007 -0.000024
						CHANNELS 3 Zrotation Yrotation Xrotation
						JOINT LeftForeArm
						{
							OFFSET 33.000053 0.000004 0.000036
							CHANNELS 3 Zrotation Yrotation Xrotation
							JOINT LeftHand
							{
								OFFSET 25.200006 0.000021 -0.000003
								CHANNELS 3 Zrotation Yrotation Xrotation
								End Site
								{
									OFFSET 0.000000 0.000000 0.000000
								}
							}
						}
					}
				}
				JOINT RightShoulder
				{
					OFFSET 19.746101 -1.480381 -6.000079
					CHANNELS 3 Zrotation Yrotation Xrotation
					JOINT RightArm
					{
						OFFSET 11.284133 -0.000015 -0.000008
						CHANNELS 3 Zrotation Yrotation Xrotation
						JOINT RightForeArm
						{
							OFFSET 33.000099 0.000016 0.000006
							CHANNELS 3 Zrotation Yrotation Xrotation
							JOINT RightHand
							{
								OFFSET 25.199781 0.000142 0.000425
								CHANNELS 3 Zrotation Yrotation Xrotation
								End Site
								{
									OFFSET 0.000000 0.000000 0.000000
								}
							}
						}
					}
				}
			}
		}
	}
}
MOTION
Frames: 61
Frame Time: 0.033333
-44.879532 37.325169 -39.779369 148.911894 -3.781788 37.377640 147.607068 -19.963593 166.065490 -82.530111 -1.999874 5.371869 52.036616 -10.565663 -11.899735 21.454545 0.003086 0.000010 88.194811 1.216507 -165.902126 -133.580906 -4.543588 -19.281149 71.758883 20.097753 15.766969 21.454560 -0.003101 -0.000014 15.129953 4.090588 -1.587601 20.211151 8.394952 -2.440102 19.889629 8.380201 -2.491058 9.965883 -13.129461 -3.141975 -30.610753 3.159016 -6.194687 7.973025 -77.028558 170.239023 -87.157626 -22.177428 -33.700389 -87.071969 -11.692772 2.995995 -8.308053 -17.624927 94.692568 162.547601 78.150096 -16.265945 -39.546502 -39.640926 32.658987 -108.571908 -0.144836 -3.164226 -56.764910 17.587351 -83.429900 
-47.655159 38.903801 -38.484200 150.777888 -0.094410 37.760619 141.447890 -19.703800 171.096198 -82.713365 -3.382901 8.136571 53.565967 -10.027852 -7.380695 21.454550 0.003094 0.000003 93.397325 2.952894 -172.393606 -131.264201 -4.406011 -19.848552 68.456459 20.528975 14.528137 21.454551 -0.003107 -0.000019 15.270464 3.947827 -1.299597 20.512141 8.062916 -1.881038 20.190780 8.051542 -1.929978 10.705806 -13.525379 -4.691139 -30.925235 3.771662 -8.122856 15.968977 -77.842081 162.374032 -86.487011 -19.212786 -35.353209 -89.470130 -9.557438 2.951460 -10.293557 -17.776177 96.062274 166.433487 77.845305 -12.327066 -38.281646 -39.495412 32.462192 -107.612082 0.098458 -3.139123 -57.842154 15.636895 -85.163826 
-50.328758 40.116840 -37.454201 152.373392 3.637736 37.923290 135.784707 -20.707107 172.633851 -81.062208 -3.162734 5.874298 56.913204 -7.464842 -6.296298 21.454555 0.003092 -0.000004 98.108352 4.767810 -179.069119 -128.517003 -4.320427 -21.667351 63.698016 21.149643 11.073898 21.454558 -0.003108 -0.000017 15.401378 3.643332 -1.168164 20.779222 7.436683 -1.664697 20.458344 7.426630 -1.709794 10.343990 -14.774881 -5.684283 -31.582590 4.382947 -9.693108 23.288903 -78.073604 155.167022 -85.922516 -18.093441 -33.377461 -88.877031 -9.720942 2.936597 -12.269094 -18.071799 96.295087 167.345823 77.324319 -11.417795 -38.234675 -40.083566 34.458899 -105.757317 0.436721 -3.081062 -59.138612 14.339125 -86.510589 
-52.531891 40.888988 -36.812679 153.460608 6.474940 38.753940 128.697853 -22.034610 174.268124 -78.455105 -2.685488 0.296298 62.216569 -3.161613 -6.856889 21.454550 0.003089 -0.000002 101.834555 7.236204 175.642221 -125.831195 -4.337714 -24.986259 61.109955 22.543031 7.928724 21.454557 -0.003112 -0.000015 15.370099 3.368857 -1.407957 20.698342 6.934731 -2.192993 20.377951 6.921494 -2.234978 9.790918 -15.774529 -6.097350 -32.149898 5.229901 -10.781102 28.196056 -78.209812 150.333010 -85.231472 -17.610936 -29.542354 -86.875102 -10.794471 2.923487 -13.605422 -18.250387 95.721522 165.741548 76.295276 -13.090850 -39.528979 -40.660444 36.964028 -102.605001 1.184269 -2.993463 -60.648863 13.536698 -87.572328 
-54.739410 41.608879 -36.510010 153.846200 9.192633 40.394309 120.789546 -22.922304 176.614745 -75.689773 -3.023955 -5.760256 67.600964 1.241836 -7.946855 21.454541 0.003092 -0.000003 105.989694 10.121801 173.307157 -123.485189 -4.229356 -25.217951 59.182899 22.320531 6.659306 21.454557 -0.003103 -0.000021 15.477420 2.999655 -1.939543 20.881782 6.299594 -3.309577 20.562172 6.279638 -3.347630 8.345774 -15.092497 -6.325126 -32.550469 4.570487 -10.832367 35.181997 -77.436020 143.474967 -84.349933 -17.203558 -25.395128 -83.938633 -12.175813 2.891158 -13.971079 -19.227293 95.091881 165.835326 75.033774 -13.044198 -42.200436 -40.450327 39.579041 -98.171921 2.248056 -2.869833 -62.005803 13.050191 -87.731430 
-56.631031 42.322281 -36.179428 153.773895 12.866222 42.588958 113.482104 -22.741304 179.119020 -74.737583 -4.872516 -4.555209 71.657215 0.287913 -9.200202 21.454550 0.003086 0.000001 110.633205 13.537295 171.891136 -121.463399 -4.141770 -24.309603 60.179376 23.009610 9.877731 21.454560 -0.003104 -0.000018 15.848583 2.449183 -2.769393 21.588869 5.371581 -5.037710 21.270596 5.341229 -5.069999 6.824757 -14.193553 -6.429665 -32.147269 4.283476 -10.848733 44.514071 -75.892178 134.354001 -83.432229 -16.714702 -21.589499 -79.949543 -14.098028 2.851946 -14.355502 -19.043821 94.075624 166.185428 74.564724 -12.704592 -45.590949 -39.472111 40.477894 -92.888640 4.470080 -2.788538 -62.579832 13.429459 -87.846594 
-58.035370 43.097172 -35.663700 153.267300 16.929529 44.300163 105.674119 -22.550395 179.098543 -78.429163 -6.086136 4.156462 75.870083 -5.280778 -8.089796 21.454548 0.003103 0.000004 115.266081 16.998710 170.086081 -119.572215 -4.101467 -24.608717 60.489337 23.719174 11.017951 21.454567 -0.003104 -0.000020 16.404687 1.879811 -3.623651 22.680449 4.432851 -6.812835 22.363779 4.391858 -6.839325 6.016266 -13.297480 -6.242600 -32.047613 3.661308 -10.299148 48.730975 -74.758954 130.241913 -83.581496 -16.178456 -18.737362 -75.528164 -16.225673 2.810902 -14.560778 -18.433139 93.213367 163.874215 74.733464 -15.059063 -48.682662 -37.602821 38.103682 -87.285474 9.276236 -2.875286 -62.848361 15.197535 -88.125614 
-59.008202 43.988770 -34.877468 152.549898 20.987701 44.827583 97.536823 -22.137492 174.338284 -86.245864 -4.335135 7.502688 79.433529 -8.527970 -12.222049 21.454553 0.003095 -0.000001 119.346177 20.158101 167.658809 -117.761286 -4.104812 -25.928286 60.615374 24.394126 10.350272 21.454565 -0.003114 -0.000020 17.032863 1.389760 -4.218909 23.936123 3.621312 -8.062477 23.620775 3.572850 -8.083995 5.301965 -14.086709 -6.397306 -31.626341 3.856377 -10.726665 48.739974 -73.566677 130.296992 -84.033095 -17.036303 -16.091034 -70.217705 -18.424922 2.741078 -14.805992 -18.747305 91.125911 160.767230 75.891898 -18.178209 -51.286326 -35.356116 35.842357 -81.997814 13.331991 -2.926649 -62.277952 17.966135 -88.107337 
-59.884510 45.046108 -34.248692 151.505713 24.342299 43.620433 89.220849 -22.884399 166.720505 -95.597691 -1.822089 6.217332 81.495509 -7.874999 -14.045183 21.454550 0.003100 0.000005 122.571952 21.455205 165.258189 -115.528005 -4.190297 -27.167784 60.635701 25.629045 10.957395 21.454560 -0.003100 -0.000020 17.588220 0.905780 -4.590379 25.061998 2.783007 -8.877819 24.747647 2.729692 -8.894264 5.993853 -14.106543 -6.288572 -31.596325 3.030527 -10.105883 48.192995 -72.583232 130.894032 -83.779742 -18.155912 -14.417807 -65.147949 -19.403657 2.601662 -15.478815 -19.032942 88.109065 155.255131 76.363557 -23.767262 -53.519757 -32.796434 33.966244 -76.136112 17.033349 -2.931950 -61.423215 20.383171 -86.732447 
-60.823471 46.455521 -33.637211 149.933198 26.550088 40.910002 81.740740 -23.672196 157.833937 -103.663509 0.253739 7.139459 82.537884 -8.657022 -14.812952 21.454557 0.003086 -0.000000 125.357549 20.800397 162.947919 -112.562802 -4.222659 -28.165252 61.706483 27.594698 13.985340 21.454563 -0.003104 -0.000019 18.042570 0.592612 -4.761668 25.985709 2.237661 -9.270123 25.671870 2.182016 -9.283287 6.511037 -14.399519 -5.939671 -31.633229 3.451669 -9.930666 48.112071 -72.121525 131.014995 -83.019583 -19.198757 -12.874559 -60.244980 -20.113825 2.458477 -16.214275 -20.050804 84.087477 147.090815 76.724082 -32.042156 -55.035813 -29.834266 31.456054 -70.023284 19.895301 -2.872793 -60.419218 23.616122 -84.571341 
-61.968521 48.160839 -32.994331 147.868391 27.481751 36.945012 76.694002 -23.718909 147.719561 -109.339403 0.958209 9.327575 85.297725 -10.009691 -15.512309 21.454551 0.003099 0.000000 128.317712 18.573591 161.051749 -108.507800 -4.167189 -29.167548 64.572001 29.621216 18.225043 21.454563 -0.003098 -0.000014 18.511592 0.450355 -4.689753 26.934467 1.977628 -9.147168 26.620570 1.922718 -9.158778 5.137047 -14.535302 -5.226763 -30.859017 3.455346 -9.321889 46.307965 -71.852729 132.818001 -82.322877 -20.556271 -10.941337 -55.525500 -20.972898 2.341781 -16.961661 -22.124139 79.788528 134.803223 77.274834 -44.450933 -56.446176 -26.911331 29.789815 -63.571070 21.792765 -2.739934 -59.269977 27.632527 -81.657152 
-63.324051 50.234520 -32.636059 146.205704 26.408769 32.187482 74.744495 -22.437101 135.837491 -111.993505 1.343201 9.435037 88.974217 -9.416416 -14.867152 21.454550 0.003093 -0.000001 130.320009 15.625396 160.510593 -102.837910 -3.988008 -30.623782 67.335085 31.294120 21.253349 21.454558 -0.003107 -0.000019 18.715992 0.374760 -4.349999 27.356221 1.764775 -8.489175 27.041743 1.713797 -8.499550 4.262566 -15.549873 -4.729833 -30.664110 4.259967 -9.452622 47.447999 -71.683286 131.732055 -81.624702 -21.172376 -9.660956 -50.649941 -20.945200 2.169659 -18.401909 -23.663226 77.048605 125.108712 76.245525 -54.322434 -57.122528 -23.064314 27.073524 -56.255955 22.603113 -2.512216 -56.863784 32.286482 -77.156918 
-65.018173 52.553761 -32.646030 144.791391 22.587781 26.450970 75.851600 -19.547892 126.843320 -110.140509 1.183465 8.507590 86.001712 -8.775714 -12.999050 21.454553 0.003094 0.000002 131.851092 11.663408 162.393034 -94.987509 -3.260782 -32.229597 69.189816 32.946100 23.779543 21.454562 -0.003115 -0.000017 18.705050 0.436106 -3.761450 27.344010 1.746446 -7.314360 27.028575 1.702494 -7.324671 3.213870 -18.142430 -4.082905 -30.547038 5.519611 -9.951106 50.454000 -71.830846 128.812955 -80.043294 -21.417880 -7.886914 -45.986608 -20.641723 1.999123 -19.425058 -25.266314 74.834360 115.968689 74.542970 -63.675183 -58.598317 -18.985819 24.694897 -47.636977 21.798176 -2.157377 -52.180883 38.233183 -68.042672 
-66.981216 55.263660 -33.086700 143.586901 16.724470 20.602871 79.172090 -16.260300 125.169473 -103.699210 0.598040 -0.191722 97.968805 1.276949 13.054671 21.454553 0.003090 0.000001 134.264840 7.402798 166.588546 -84.666677 -2.111172 -33.833964 70.092419 34.757917 26.322736 21.454555 -0.003111 -0.000016 18.746757 0.501092 -3.129990 27.437570 1.728041 -6.052907 27.121249 1.691655 -6.063158 0.392555 -20.177017 -3.146688 -29.712197 6.905855 -10.418600 52.781970 -71.938073 126.542000 -77.644566 -21.178864 -7.349892 -42.088920 -19.793299 1.828005 -20.421904 -25.459043 74.358856 110.180083 72.886711 -69.640083 -62.076987 -14.467994 22.513220 -38.341086 18.903857 -1.696351 -40.791628 43.052004 -50.934654 
-69.309723 58.131969 -33.957470 142.790610 9.882555 15.822859 78.731406 -17.022093 132.749152 -101.030505 0.818536 -1.975025 104.031902 1.614799 10.915658 21.454553 0.003090 0.000000 137.917529 4.116803 172.263942 -73.213126 0.444949 -34.639147 67.520088 35.662576 25.590648 21.454560 -0.003112 -0.000013 18.718753 0.472579 -2.887428 27.387580 1.613270 -5.581819 27.070989 1.579717 -5.591398 -2.733671 -23.113118 -1.806935 -28.402812 9.110758 -11.155759 57.322998 -71.819152 122.105969 -72.980155 -20.312566 -6.029845 -38.712399 -18.966891 1.682664 -21.065582 -26.406075 73.393299 102.751692 72.028129 -77.163352 -67.862909 -11.135700 19.956235 -31.498370 14.588593 -1.259434 -22.100595 44.426993 -29.005016 
-71.062134 61.004559 -35.435970 143.354906 6.313912 16.286641 76.481590 -15.550898 139.750875 -98.765082 0.261922 -1.769936 96.008213 1.950434 7.735310 21.454553 0.003092 -0.000001 140.109542 5.337401 -179.281210 -67.436097 1.601203 -32.760360 61.789545 32.570348 18.085637 21.454551 -0.003112 -0.000014 18.561702 -0.060122 -3.826098 27.085392 0.774883 -7.560106 26.770257 0.729477 -7.564588 -6.802366 -20.583233 -0.668405 -25.784852 10.547305 -10.555602 59.473059 -70.492613 120.062964 -68.870573 -19.663008 -5.234101 -33.861991 -17.656153 1.480818 -19.393798 -26.090795 69.573728 101.379480 72.219777 -78.518393 -74.942598 -10.502437 22.026908 -29.393446 14.269343 -1.197376 -10.088609 37.022620 -14.984038 
-73.577080 64.220863 -36.929359 145.252715 4.906604 19.222230 77.959800 -12.345402 142.887189 -93.979032 -1.443559 -0.194416 91.622726 0.994264 5.921959 21.454553 0.003089 0.000000 139.565804 7.233899 -173.304507 -68.355823 2.104598 -24.268659 63.863642 24.991333 16.279081 21.454560 -0.003111 -0.000018 18.174469 -0.717909 -4.512115 26.352121 -0.391241 -9.068891 26.038319 -0.445641 -9.066376 -11.761209 -17.013930 -0.555908 -22.816180 10.580971 -9.964240 63.551994 -66.808088 116.300076 -65.236899 -18.723697 -3.421525 -32.616250 -17.352640 1.434003 -12.318684 -23.134756 62.784226 106.031618 74.722666 -73.635894 -80.140529 -10.555835 25.715937 -29.713239 15.032790 -1.252430 0.227303 26.409056 -4.625600 
-76.012573 67.111511 -38.524891 144.920304 2.138987 19.807357 80.983729 -10.713305 147.866656 -89.041584 -2.901240 1.093067 92.274503 -0.049744 4.625504 21.454546 0.003097 0.000001 137.445044 3.808897 -169.231952 -73.334197 0.457302 -11.772404 67.886889 15.886067 18.924110 21.454560 -0.003114 -0.000020 18.091295 -1.063231 -3.939391 26.214181 -1.208057 -8.017320 25.899367 -1.256161 -8.009928 -14.384337 -19.252104 -0.904699 -22.451211 12.978725 -12.391311 64.510030 -66.808403 115.354027 -66.804414 -18.312062 -2.651795 -34.083836 -18.259430 1.524640 -5.881459 -18.137275 61.378238 104.727714 76.097781 -74.818220 -81.270181 -8.342397 30.845759 -28.359897 14.821377 -1.213493 6.363000 14.149770 -0.068919 
-78.393913 69.700760 -40.175610 143.671704 0.167901 20.496230 84.364775 -9.405708 152.523506 -84.627663 -3.907953 1.627493 90.705561 -0.636186 2.547461 21.454558 0.003095 -0.000001 133.636940 0.882799 -168.025987 -80.757773 -0.175204 -2.603339 69.007723 7.323640 14.987453 21.454553 -0.003111 -0.000018 18.043357 -1.471470 -3.396374 26.145131 -2.139033 -7.038188 25.829383 -2.181262 -7.025216 -14.406192 -20.827890 -1.334652 -22.477784 15.747462 -14.511553 65.641991 -68.202888 114.145049 -68.586827 -17.703248 -6.321496 -37.625928 -19.370488 1.681155 2.064692 -9.875927 56.558802 98.784760 75.745582 -80.793488 -80.296578 -4.924630 32.351519 -25.485584 13.908685 -1.105817 8.078601 4.377198 -6.568830 
-80.914482 72.103897 -41.833691 143.238493 -0.489268 22.163802 87.700237 -7.589296 155.792039 -79.998761 -4.775716 2.309671 87.478071 -1.418210 0.274738 21.454557 0.003084 0.000001 128.030339 0.130203 -167.779021 -89.094442 -1.073667 2.111035 72.083651 1.610819 9.529560 21.454555 -0.003109 -0.000016 17.752609 -1.996958 -3.067037 25.596820 -3.267249 -6.502115 25.280362 -3.306242 -6.482351 -12.866102 -19.266425 -1.961583 -23.241621 15.578444 -14.453971 66.678998 -68.411291 113.120022 -69.782779 -17.374989 -10.151964 -36.013651 -18.158845 1.563056 10.059235 -2.860335 44.626294 96.900829 76.628999 -82.595825 -80.273437 -3.359854 29.385198 -25.016200 14.422084 -1.131113 9.770675 -0.347175 -17.126489 
-83.531487 73.980278 -43.746799 141.562501 -1.722371 23.995831 91.763578 -6.315395 159.721037 -75.657220 -5.525369 3.108028 85.649083 -2.329442 -1.630973 21.454553 0.003083 0.000001 122.855569 -0.812196 -166.488907 -96.795563 -2.778486 5.430130 75.856108 -1.246872 8.895381 21.454557 -0.003108 -0.000017 17.503150 -2.118389 -2.631274 25.096550 -3.616616 -5.661885 24.779435 -3.650562 -5.640001 -12.226832 -19.061834 -1.686263 -23.012232 15.184569 -13.794170 70.716944 -68.979296 109.090962 -69.168520 -15.688193 -10.155616 -32.724850 -18.318313 1.498352 5.632562 -6.872837 57.441666 96.162233 78.527948 -83.163878 -81.539024 -3.436951 24.535011 -26.564913 14.952995 -1.190307 10.124494 -0.492513 -22.971494 
-86.366722 75.725487 -45.878700 138.953396 -3.232113 25.588462 96.832104 -5.867006 163.632481 -70.921597 -5.797092 3.721825 85.143301 -3.143404 -3.479880 21.454553 0.003090 -0.000000 118.034411 -1.429505 -166.926736 -103.396708 -3.607645 7.335115 78.776656 -3.209178 7.212845 21.454565 -0.003109 -0.000018 17.269257 -2.040911 -2.264604 24.614719 -3.554066 -4.913631 24.297203 -3.583506 -4.892109 -11.991861 -18.824177 -1.002190 -22.886603 14.795366 -12.804071 77.888971 -69.927593 101.952991 -65.009618 -12.994665 -9.911164 -32.914904 -19.118430 1.553886 1.910253 -7.751996 64.374909 95.502710 78.586961 -83.816926 -82.488898 -4.068007 19.106945 -27.538397 15.246913 -1.225912 9.253054 0.938982 -23.914184 
-89.414009 77.242767 -48.083591 135.601590 -4.281349 27.462919 102.646706 -5.671404 167.691157 -66.091888 -5.920045 4.141810 84.331055 -3.942985 -5.688288 21.454553 0.003090 0.000002 113.853461 -1.037504 -169.207405 -108.448603 -4.293743 9.303324 80.840364 -5.041681 5.640609 21.454557 -0.003109 -0.000016 17.104938 -1.850192 -1.811728 24.264566 -3.279800 -3.972525 23.946712 -3.303581 -3.952651 -12.107719 -16.648530 -0.861539 -22.748637 13.804142 -11.596270 82.708393 -70.837675 97.146976 -61.281653 -8.869687 -11.105066 -31.406094 -17.933773 1.445798 2.752296 -8.999849 54.451921 96.721107 78.535885 -82.605127 -83.131885 -5.334683 14.715248 -28.193231 15.059934 -1.225728 7.285117 1.828566 -23.599190 
-92.649353 78.733612 -50.384941 131.642197 -5.438618 29.788350 108.938116 -5.741596 173.011369 -60.612936 -6.494259 4.181011 83.187572 -4.577994 -8.116286 21.454545 0.003098 0.000002 110.625036 0.679794 -173.389857 -111.079489 -4.636046 10.790520 83.160702 -6.373409 4.504679 21.454545 -0.003109 -0.000018 16.925946 -1.320743 -1.178916 23.871422 -2.370109 -2.605258 23.553371 -2.385661 -2.590885 -11.706372 -13.187952 -0.707845 -22.957811 11.189353 -9.288994 87.256999 -70.964402 92.660067 -58.027102 -2.696258 -11.556269 -28.687279 -16.618506 1.308393 5.272949 -9.250013 53.194569 101.189601 78.569537 -78.136790 -83.410659 -6.905769 10.450609 -28.434631 14.515436 -1.195289 6.455447 1.993482 -21.745424 
-96.193237 80.257111 -52.857170 127.309098 -6.962391 32.780916 115.540341 -6.351401 177.802952 -54.094507 -6.054011 4.215516 81.792902 -5.326544 -10.552845 21.454545 0.003093 0.000001 108.836189 2.986893 -178.872259 -109.898802 -4.890019 13.505709 84.189957 -8.296241 4.338757 21.454560 -0.003106 -0.000018 16.803174 -0.385178 -0.533793 23.597153 -0.653528 -1.134842 23.279098 -0.660228 -1.130860 -12.505991 -11.053343 0.237924 -23.277102 9.472519 -7.093912 95.483572 -70.936125 84.484980 -54.882575 3.614280 -5.907727 -26.850635 -16.163392 1.246589 8.976451 -8.710568 58.180432 104.262783 78.639540 -75.056102 -83.828920 -8.575383 7.052642 -28.447808 14.295139 -1.181424 6.055233 1.185223 -20.993659 
-100.017998 81.703407 -55.573792 122.821705 -8.556134 36.467514 121.791302 -8.106395 -178.401549 -47.098901 -5.316570 4.749996 78.498012 -6.612000 -12.463571 21.454551 0.003091 -0.000002 109.075512 5.816193 174.481526 -104.731498 -4.777070 15.401426 84.030192 -9.415576 5.272001 21.454563 -0.003110 -0.000014 16.715483 0.742635 -0.028152 23.420681 1.475485 0.094494 23.102471 1.476154 0.085598 -14.359301 -8.352520 1.092028 -22.496650 7.158289 -4.514211 104.513492 -71.236530 75.435061 -52.304926 10.292014 -0.125347 -25.275436 -15.028153 1.148276 12.554221 -7.763147 64.144485 107.453718 78.205570 -71.899277 -83.755092 -10.298359 5.404957 -29.293479 14.005236 -1.178526 5.847465 0.678423 -22.728809 
-104.190201 82.786293 -58.355412 118.631302 -9.913320 39.966060 127.094726 -11.194298 -175.519346 -40.660608 -5.036146 5.438724 73.957083 -8.093548 -13.699503 21.454553 0.003092 0.000000 111.237629 8.227204 167.047125 -96.352611 -4.640574 16.071758 83.142875 -9.695935 6.016218 21.454557 -0.003109 -0.000017 16.548177 1.729615 0.438114 23.111181 3.336786 1.213287 22.792582 3.344176 1.193112 -15.773210 -4.775027 1.309152 -22.416242 4.928527 -2.302796 111.835796 -71.483920 68.067042 -49.569579 18.022760 3.468115 -23.462145 -13.829286 1.044370 13.386310 -6.925782 66.864082 109.967610 78.009373 -69.396901 -83.568539 -12.671019 4.233367 -30.888386 14.056388 -1.212833 4.990629 1.139198 -23.727664 
-108.515800 83.101440 -60.999039 115.439910 -10.120538 43.748506 131.065620 -13.186704 -174.077439 -36.535679 -4.361558 5.254891 69.864837 -8.627501 -13.913436 21.454557 0.003089 -0.000001 115.104643 11.555300 159.395332 -85.933950 -4.992631 16.132338 82.759230 -9.588806 6.508541 21.454558 -0.003106 -0.000018 16.164992 2.420877 0.637649 22.371484 4.672648 1.733020 22.052382 4.683170 1.704730 -16.743848 -1.416003 1.133811 -21.770854 3.728108 -0.881826 120.523401 -71.435869 59.319927 -45.756226 25.751946 6.746341 -22.852126 -12.703995 0.963813 14.647262 -5.501815 64.737428 114.054870 78.764860 -65.229311 -83.860871 -15.852140 2.918074 -33.074320 13.972683 -1.252892 4.220827 2.034638 -22.315568 
-113.063599 82.424683 -63.516121 112.568109 -8.889191 47.250767 134.842114 -14.271501 -173.751994 -36.348908 -3.427829 2.120337 69.002983 -5.885305 -12.323549 21.454555 0.003087 0.000000 121.183006 15.153594 152.037074 -74.090894 -5.910704 14.968471 82.605831 -8.795541 6.264567 21.454560 -0.003107 -0.000018 15.763218 2.726249 0.737575 21.582284 5.266917 1.973346 21.262918 5.278865 1.941453 -16.071491 1.617316 0.370194 -22.435771 2.586886 -0.199156 130.187613 -71.183282 49.562991 -40.361791 33.000411 9.350450 -22.864403 -11.898061 0.912273 15.781181 -3.967254 63.291518 124.427441 79.245030 -54.761458 -83.507238 -19.565999 0.778855 -36.391586 14.266144 -1.347270 3.540137 2.081908 -19.458934 
-117.870102 80.621628 -65.857384 109.774104 -7.030236 50.927410 138.019832 -14.916395 -172.646897 -39.994753 -2.491978 -1.463120 70.113039 -2.847760 -11.447424 21.454551 0.003088 0.000000 129.340014 19.534198 144.582469 -61.629883 -5.841253 11.828921 79.396557 -6.119498 7.884206 21.454557 -0.003113 -0.000016 15.231800 2.908876 0.676307 20.522096 5.651410 1.860926 20.202485 5.662690 1.826687 -14.151398 2.487863 -0.190107 -23.522188 2.190749 -0.377776 139.852139 -71.408706 39.724005 -32.870866 40.569329 12.140031 -23.408940 -11.802762 0.913788 16.693189 -2.484238 58.935551 134.349111 79.302280 -44.757376 -81.878341 -24.155036 -0.956511 -42.143797 14.847583 -1.533685 2.949463 0.821069 -19.383167 
-122.957703 77.424988 -67.929253 106.296397 -4.129100 55.720051 141.650433 -15.833210 -170.655090 -43.454613 -2.184146 -6.741671 71.837184 -1.841871 -20.791786 21.454557 0.003102 -0.000001 139.369860 25.111595 138.238739 -55.161981 -4.048533 1.107129 88.065700 4.694750 29.648089 21.454555 -0.003104 -0.000015 14.776815 3.038702 0.480752 19.605863 5.951688 1.472490 19.285999 5.960595 1.436423 -12.891111 3.390082 -0.537496 -22.598424 1.853761 -0.326465 148.971685 -72.208890 30.371946 -23.038829 46.802690 16.344185 -23.691768 -11.769437 0.915699 17.201249 -1.328847 53.259804 144.265480 78.727206 -34.776663 -78.523120 -29.259130 -2.356818 -49.997316 15.522635 -1.815078 2.830601 -0.816252 -20.702659 
-127.951302 74.653137 -69.735390 102.251197 -0.828348 61.290573 144.809860 -18.129996 -171.006545 -43.859397 -0.333537 -8.101462 71.650952 -2.001575 -24.099003 21.454555 0.003096 -0.000001 148.752504 26.808195 142.206478 -56.899226 0.078216 -1.480853 106.766204 1.418035 27.962234 21.454557 -0.003105 -0.000017 14.392573 3.118111 0.335650 18.831165 6.139679 1.177195 18.511155 6.146817 1.139975 -11.030500 5.547665 -1.015489 -21.645272 1.676728 -0.175078 154.994628 -74.679212 24.083988 -12.383673 52.182799 21.275413 -23.625937 -12.012920 0.930412 17.895359 0.252384 46.371930 157.634892 77.005028 -21.313605 -73.246184 -33.840544 -4.305543 -58.959170 15.420916 -2.120796 1.534267 -2.168409 -22.784403 
-132.188599 73.019676 -71.482803 97.884124 0.609778 65.827341 144.793276 -20.960995 -166.502554 -43.856976 1.333743 -6.264414 70.555888 -2.047544 -19.398635 21.454553 0.003096 -0.000001 151.689527 23.720900 155.859084 -64.578346 -3.374073 -4.435393 110.439309 2.748655 23.649629 21.454558 -0.003114 -0.000018 13.916703 3.566218 0.514486 17.902802 7.009507 1.579244 17.582229 7.019052 1.536704 -9.143151 5.877061 -1.382235 -22.913389 1.417859 -0.466497 161.970491 -76.325527 16.894082 -2.004473 56.367495 24.940345 -24.222439 -12.351502 0.960906 18.135452 1.398894 39.801681 167.887115 75.144129 -10.944372 -65.605552 -35.975935 -7.550914 -66.840866 14.507993 -2.363787 -0.008774 -3.154868 -22.962546 
-135.680496 72.705688 -72.307701 96.561185 3.556177 69.171286 147.645522 -20.469698 -158.837866 -41.845267 -1.741963 -9.230163 68.630745 2.253230 -12.655757 21.454553 0.003102 -0.000002 154.419253 23.264304 161.137413 -70.100417 -2.498100 -4.203085 109.568105 2.780885 20.292596 21.454558 -0.003106 -0.000017 13.759325 3.311723 0.381086 17.570653 6.526816 1.264137 17.250379 6.534457 1.224549 -8.860109 4.564523 -1.745486 -24.569384 2.006923 -1.479481 173.430715 -75.268302 5.237070 6.087260 57.330313 26.493264 -24.963860 -12.814222 1.001859 17.086664 3.191075 35.379618 173.926519 73.585385 -4.814509 -57.701069 -36.654719 -9.865337 -71.042307 13.139430 -2.441101 0.405022 -2.870629 -21.728346 
-138.425095 73.742622 -72.372437 96.402021 7.357114 72.386720 151.838097 -19.547303 -159.952949 -40.173588 -4.413280 -11.998510 66.616310 5.310933 -9.487646 21.454550 0.003098 0.000003 161.118808 24.396099 166.944604 -69.298505 -2.786082 -4.207193 110.470196 2.658048 17.955650 21.454558 -0.003105 -0.000016 13.650017 2.807144 0.545556 17.343638 5.500451 1.508426 17.024057 5.509590 1.475110 -8.262261 3.441611 -2.620252 -24.376184 3.046819 -3.143734 174.264763 -74.863156 4.395032 11.437690 58.547405 28.169066 -24.526291 -13.556635 1.042715 15.559429 6.913431 34.242638 -176.775500 71.921926 4.697709 -48.816260 -38.114949 -11.732405 -70.375401 12.942456 -2.399823 -0.067173 -1.677777 -21.253411 
-140.199402 75.549469 -72.354469 96.232332 9.086866 75.148432 153.500538 -19.332506 -168.206372 -42.493370 -4.878154 -9.220999 67.410894 2.540667 -11.825039 21.454551 0.003100 0.000000 166.738701 24.066802 170.187427 -65.953604 -1.924652 -3.296296 109.051203 2.227872 16.699543 21.454558 -0.003113 -0.000016 13.054261 2.522086 0.906864 16.156794 4.892460 2.159742 15.837663 4.905545 2.130114 -8.184292 2.430843 -3.205569 -22.412641 2.890075 -3.870235 176.634880 -75.750937 1.949948 15.667447 60.529082 32.525303 -24.092727 -13.253988 1.016831 14.146400 9.834047 37.075664 -168.187630 70.760036 13.532225 -39.433083 -40.455883 -15.130927 -66.089457 14.876383 -2.359005 -0.564706 1.142851 -25.354198 
-141.361206 78.191711 -72.203644 96.375608 9.622860 78.363771 154.273346 -17.613402 -177.497861 -46.752542 -3.225717 -5.612153 68.706533 0.622142 -10.034286 21.454545 0.003090 -0.000000 171.734342 23.736801 173.802537 -60.832848 -0.987135 -2.186028 104.480700 2.067169 15.582429 21.454558 -0.003116 -0.000016 12.251640 2.394856 0.958430 14.547543 4.649868 2.212794 14.228546 4.663276 2.184631 -8.752309 0.046648 -3.478946 -21.904065 3.008289 -4.782800 -179.133445 -75.197371 -2.364969 19.539920 61.295613 38.302864 -24.687642 -13.743700 1.057138 14.173132 13.653100 43.517761 -163.390624 70.466413 18.477798 -30.002975 -42.202400 -19.415407 -59.300577 16.861094 -2.231544 -1.193257 4.614318 -29.582864 
-142.210693 81.357986 -72.090553 96.677093 9.680437 81.649085 156.012394 -14.930300 175.235087 -50.076153 -1.990725 -5.455658 69.814253 0.447223 -10.450421 21.454551 0.003099 -0.000001 176.149390 23.616501 177.328773 -54.859666 0.533998 -1.275215 97.220557 2.215987 13.823545 21.454555 -0.003108 -0.000020 11.459296 2.235136 0.931925 12.955332 4.351596 2.110180 12.636444 4.364391 2.083841 -10.283129 -2.427026 -4.038190 -20.153776 3.434276 -6.116981 -176.905888 -74.593807 -4.636963 21.445063 61.953504 41.371313 -24.365867 -13.651596 1.046352 15.035966 17.234579 48.620879 -160.219791 70.292865 21.748412 -21.917602 -43.365889 -23.311704 -49.866791 17.595768 -1.948919 0.124080 8.445455 -24.237500 
-143.028397 84.465340 -72.055107 96.739985 9.534280 84.520579 158.575805 -12.091700 169.113011 -52.287953 -0.779822 -6.248815 71.336080 1.045456 -10.749528 21.454553 0.003080 0.000002 179.530908 23.328999 -177.323309 -49.528260 0.782333 -1.379521 88.303547 2.917595 11.187473 21.454560 -0.003104 -0.000016 10.759401 2.052059 0.888310 11.547726 4.005029 1.978442 11.228981 4.017037 1.954203 -11.159222 -4.182349 -4.677694 -19.117127 3.726117 -7.332621 -175.801570 -74.389154 -5.765998 22.211640 62.613109 42.357896 -23.917620 -13.045406 1.000899 17.078859 19.350795 50.798910 -156.887888 70.492101 25.178533 -17.149434 -44.959061 -23.257590 -38.346031 15.517519 -1.476610 6.057197 10.465896 -7.777533 
-143.813400 86.965134 -72.260361 96.646323 8.801020 86.007518 161.127386 -9.886298 164.525583 -53.980016 -0.329381 -4.810612 72.454257 0.009454 -10.996973 21.454551 0.003090 0.000001 179.812311 22.855396 -174.014246 -47.075409 0.892721 -1.737492 79.973777 3.418401 8.735642 21.454557 -0.003117 -0.000017 10.071661 1.751817 0.956540 10.165774 3.412705 2.064284 9.847289 3.425239 2.043643 -12.360730 -5.351241 -4.855588 -17.204883 4.278116 -7.996485 -173.138670 -74.147816 -8.491943 21.318806 62.989125 42.644293 -23.392841 -12.828871 0.979418 19.226395 20.889340 49.436083 -155.550906 71.003477 26.544374 -13.894013 -46.246361 -22.741239 -28.157545 12.914105 -1.087489 13.314474 10.474843 4.946901 
-144.652695 88.730507 -72.720062 96.035670 7.253013 86.815898 162.662608 -7.930891 163.046109 -55.103951 -0.759767 -0.949587 72.155566 -2.792036 -10.892719 21.454551 0.003096 -0.000000 177.166788 21.566191 -172.503189 -47.934179 0.364394 -1.698562 74.926526 3.529587 7.719668 21.454563 -0.003105 -0.000016 9.282132 1.505527 1.043859 8.582363 2.929489 2.197136 8.264064 2.942837 2.179397 -12.401251 -6.396794 -4.793742 -16.337616 4.800100 -8.378934 -169.725693 -73.206610 -11.990001 19.535326 62.571411 40.852010 -23.982398 -13.341863 1.020822 20.967002 21.791036 49.754824 -156.460824 71.513802 25.597394 -10.249221 -46.433310 -23.774978 -22.050366 11.352123 -0.891564 16.716675 8.983180 3.998927 
-145.604004 89.608673 -73.151688 94.900294 6.458940 87.481883 165.187879 -6.514690 165.005486 -54.742791 -2.897030 4.524322 71.655638 -6.789513 -10.846296 21.454557 0.003099 -0.000004 174.055391 19.350693 -173.087649 -51.365061 -0.200728 -0.874290 73.584435 3.220273 8.251625 21.454560 -0.003092 -0.000019 8.847892 1.322278 1.100920 7.710535 2.568328 2.287923 7.392373 2.582227 2.272368 -13.232995 -7.453843 -4.406672 -15.667361 5.989261 -8.724864 -165.407415 -72.460616 -16.427005 15.979159 61.953422 37.904678 -25.740241 -13.750029 1.074087 20.953723 20.925799 49.805388 -156.723581 71.763534 25.322035 -5.757739 -45.750858 -28.091214 -22.116262 11.925787 -0.929302 17.839332 6.608251 -5.160099 
-146.699799 89.516457 -73.575844 93.961382 6.275823 88.134343 168.663366 -4.249697 168.989207 -51.738939 -5.519341 6.622276 69.718965 -7.611572 -8.393771 21.454541 0.003086 0.000001 170.898273 16.981390 -175.252054 -56.377771 -0.242371 -0.011473 76.137307 2.220819 7.618359 21.454558 -0.003115 -0.000018 8.713824 1.066913 1.136241 7.437012 2.058671 2.338936 7.118973 2.072893 2.326463 -14.276371 -8.453770 -3.979661 -15.767365 7.240185 -9.114658 -164.270831 -72.209805 -17.597035 11.967243 61.078188 35.122704 -28.413454 -14.338380 1.157542 19.685635 18.480977 48.666980 -154.023921 72.263490 28.085031 -2.171722 -45.253589 -32.253280 -25.155059 12.607800 -1.017270 14.578702 3.621750 -13.752018 
-147.812195 88.429024 -74.128662 92.877718 6.010550 88.994660 172.021634 -2.171705 171.896669 -45.842187 -5.510403 3.130401 73.259134 -1.872321 0.691655 21.454548 0.003078 -0.000001 167.177063 14.765102 -176.475368 -62.708322 -0.303770 1.413781 78.138450 0.867805 6.898730 21.454558 -0.003112 -0.000014 8.643743 0.815239 1.013984 7.289513 1.565077 2.077360 6.971520 1.577731 2.067877 -14.582119 -7.771575 -3.791834 -16.538501 7.426407 -8.869866 -162.879576 -72.442100 -19.025019 7.551286 59.987434 32.575016 -31.358949 -14.747049 1.240347 17.263129 15.319988 48.102164 -152.936692 72.253402 29.201729 -0.004165 -43.830321 -36.486853 -28.784586 13.222863 -1.118760 11.063368 0.544539 -15.070413 
-148.955399 87.334587 -74.759079 92.965452 6.229152 90.214723 173.927011 -0.546994 172.637580 -43.008817 -3.637667 0.460916 82.228333 0.179416 1.851399 21.454548 0.003086 0.000001 164.298493 14.107996 -176.453142 -68.175246 -0.985987 2.980722 77.681866 -0.115881 7.265117 21.454560 -0.003112 -0.000014 8.743990 0.429234 0.651955 7.480065 0.815458 1.330256 7.162014 0.823605 1.325318 -13.998306 -7.189945 -3.394719 -17.598385 7.520882 -8.384759 -162.049517 -72.035423 -19.883055 1.894053 58.116871 30.628470 -33.958290 -15.121311 1.319594 14.440671 10.549374 45.258319 -153.364931 72.622977 28.752620 0.876487 -43.298663 -37.726625 -32.115812 14.355377 -1.257225 8.909949 -1.602600 -11.076580 
-149.972107 85.805962 -75.360802 93.856457 7.692273 92.776659 174.934477 0.986694 178.266284 -43.655192 -3.897609 -1.054468 89.814337 0.882676 0.559253 21.454553 0.003093 -0.000001 162.922688 15.029205 -176.148229 -73.581006 -1.278632 3.712557 78.564975 -0.826011 6.750629 21.454562 -0.003097 -0.000017 9.226455 -0.104832 0.011855 8.440039 -0.210305 0.016062 8.121937 -0.210058 0.017321 -12.413713 -6.630995 -2.897280 -20.200037 7.901293 -8.003947 -163.464404 -71.076253 -18.437015 -6.143350 54.467009 27.502149 -34.020291 -14.545559 1.283753 10.926656 3.996262 41.779157 -154.868775 72.229681 27.218092 0.122816 -44.106684 -33.240608 -34.072580 15.143971 -1.350420 9.455769 -2.752941 -7.904542 
-151.027206 84.815826 -75.914268 94.572097 8.017951 94.640576 174.202581 0.345003 -178.712760 -45.175462 -5.994209 -0.705092 92.846484 0.742737 1.098482 21.454551 0.003091 -0.000001 161.007599 15.287903 -176.587506 -76.705408 -1.849659 4.979965 79.273505 -1.780964 6.648637 21.454555 -0.003108 -0.000017 9.429766 -0.654988 -0.259092 8.850435 -1.288298 -0.567498 8.532259 -1.291552 -0.559715 -11.248953 -6.045096 -2.991480 -21.553820 8.363351 -8.184142 -167.451472 -71.085809 -14.329973 -15.194367 51.103533 24.474996 -30.004167 -13.873947 1.157408 7.766739 -2.453466 36.866264 -154.969192 71.118252 27.140380 -1.632413 -47.272545 -24.815344 -33.509994 16.053111 -1.396498 9.091598 -1.561821 -6.900494 
-152.087708 84.647728 -76.275963 94.867236 7.694463 95.711414 173.352196 -1.182012 178.932638 -45.764238 -5.627570 1.547397 92.676173 -0.725291 1.561004 21.454550 0.003090 0.000001 159.886683 14.883595 -176.765910 -76.286622 -2.142910 7.613081 79.991460 -3.698229 6.610587 21.454562 -0.003111 -0.000011 9.308469 -1.090362 -0.280119 8.611654 -2.156893 -0.640665 8.293332 -2.160596 -0.627608 -10.250928 -6.043942 -3.085975 -20.531035 9.970762 -8.783173 -173.607809 -71.725674 -7.994000 -19.883722 50.307680 17.369432 -27.412474 -14.296200 1.137065 7.584078 -5.282229 39.674356 -156.616566 70.158774 25.464803 -2.275119 -51.235564 -16.106739 -32.733060 16.807318 -1.427997 9.335124 2.891904 -7.394204 
-153.200500 85.504211 -76.386978 94.566332 7.649904 96.741290 174.108284 -2.230295 -179.753859 -43.215949 -6.009723 1.659620 90.810575 -0.849298 1.026762 21.454555 0.003096 0.000001 160.987709 13.939712 -175.942463 -71.809863 -2.206894 9.042101 80.289878 -4.736911 6.601548 21.454557 -0.003105 -0.000015 9.088893 -1.203079 -0.331888 8.174470 -2.379769 -0.747996 7.856096 -2.384097 -0.733591 -9.248683 -6.706884 -2.963938 -18.681129 10.720593 -8.869507 -175.049621 -72.162854 -6.515025 -22.397975 51.197780 10.309195 -28.968287 -14.978461 1.208749 10.862058 -7.324262 44.443235 -157.111071 70.940407 24.939821 -2.466946 -56.200606 -10.154776 -32.374280 17.028182 -1.434441 9.132854 7.400828 -5.929697 
-154.400101 87.095123 -76.281181 94.025484 7.330086 97.743593 175.391062 -2.806308 -178.078331 -38.782716 -5.303957 1.103734 86.727898 -0.727305 -0.427886 21.454551 0.003079 -0.000003 163.595776 12.508102 -174.813542 -63.897096 -2.289433 7.985196 81.189653 -4.021804 6.677607 21.454563 -0.003114 -0.000018 8.678320 -1.157083 -0.307543 7.352160 -2.292356 -0.687983 7.033798 -2.296333 -0.674114 -8.423526 -7.793988 -2.837955 -16.226250 11.253193 -8.880262 -172.519705 -72.578369 -9.118049 -23.630038 52.865155 6.596381 -32.561397 -15.154511 1.291492 12.779203 -8.259862 46.652005 -157.354308 71.404450 24.680470 -1.052052 -58.414360 -12.745673 -32.852957 16.638097 -1.419720 10.959236 10.497310 -0.150507 
-155.749695 88.826263 -76.087517 92.875601 6.876237 99.010962 175.845952 -3.913104 -175.288773 -35.164064 -4.679120 0.139140 81.004343 -0.469011 -1.982056 21.454553 0.003097 0.000001 166.944317 10.009010 -174.511634 -54.140393 -1.882947 5.955853 79.612671 -2.643433 6.201555 21.454558 -0.003118 -0.000016 8.206415 -0.910026 -0.286473 6.405674 -1.802889 -0.622773 6.087425 -1.806485 -0.611865 -7.901078 -8.608381 -2.941200 -13.988473 11.415139 -8.940270 -170.431251 -72.692570 -11.264053 -22.623337 53.922554 8.764262 -36.902853 -16.060473 1.448657 13.429964 -7.251303 42.940809 -157.669507 71.691120 24.350816 1.705496 -59.027854 -20.103711 -34.558264 17.286531 -1.499516 11.880150 9.121888 2.339762 
-157.109894 90.057503 -75.996231 91.827508 6.406454 100.535105 174.664234 -5.478195 -173.596266 -34.369341 -4.392836 0.312578 75.432206 -0.939103 -2.799328 21.454558 0.003097 0.000001 170.273064 7.502107 -175.542801 -44.794307 -0.948983 4.278521 75.940263 -1.568096 5.221832 21.454558 -0.003114 -0.000015 7.830590 -0.679462 -0.242719 5.651751 -1.346375 -0.518197 5.333572 -1.349347 -0.510038 -8.691708 -9.555825 -3.011871 -11.177646 12.501178 -9.312162 -168.713186 -73.750539 -13.029065 -21.706975 55.368993 11.097737 -41.167859 -16.900497 1.613024 11.763221 -4.623407 39.116203 -157.812941 71.453703 24.207702 4.390528 -58.799282 -24.640947 -37.392157 17.500946 -1.581293 9.688287 4.015875 -3.250979 
-158.473297 90.435608 -75.986748 90.605717 6.330627 102.559703 171.711366 -7.674094 -173.658489 -37.444224 -3.888187 2.055106 72.456313 -2.389207 -3.121065 21.454558 0.003101 0.000001 172.777749 5.057914 -176.549052 -39.740213 0.186236 5.588497 74.967152 -2.196343 6.260091 21.454557 -0.003096 -0.000019 7.610222 -0.362645 -0.243834 5.209263 -0.714061 -0.503636 4.891142 -0.716948 -0.499305 -9.571189 -10.560517 -3.377115 -9.386839 13.416526 -10.048172 -168.740179 -74.835623 -12.999996 -20.116311 56.413790 12.292983 -46.482747 -17.061177 1.776876 9.363765 -0.669602 37.955566 -157.195342 71.534238 24.841378 6.524717 -58.633185 -27.308754 -41.012670 17.844496 -1.698456 5.904105 -3.058544 -10.951120 
-159.717499 89.808502 -76.055267 90.022392 6.723161 104.838295 167.898098 -9.065799 -173.344245 -43.285002 -3.522673 3.161975 72.789633 -3.605723 -4.437422 21.454548 0.003089 0.000003 174.970595 4.294304 -174.294147 -37.384590 1.295459 5.872797 77.578716 -2.348958 7.030150 21.454562 -0.003113 -0.000016 7.612980 -0.121359 -0.192846 5.213527 -0.234023 -0.390938 4.895433 -0.236245 -0.389501 -10.943005 -11.463379 -3.911530 -8.077593 14.683831 -11.123508 -171.017049 -76.105444 -10.672959 -19.157591 56.965396 12.130226 -52.662528 -16.735683 1.954317 8.144598 4.255883 38.586297 -156.497693 71.192277 25.565980 7.680169 -57.509667 -28.831847 -45.675111 17.900087 -1.836809 4.372790 -9.301396 -16.940987 
-160.749100 88.562508 -76.257462 89.582193 7.664814 106.545699 164.398282 -10.273498 -173.692503 -49.685439 -2.950105 3.944520 74.028869 -4.431618 -5.426201 21.454550 0.003090 0.000004 176.881750 4.152105 -172.056454 -36.725227 2.874968 4.863588 83.196055 -2.178178 6.084656 21.454562 -0.003104 -0.000021 7.854404 0.154528 -0.053661 5.695829 0.311456 -0.099698 5.377729 0.310984 -0.101561 -12.452803 -12.317375 -4.496515 -8.480036 15.528652 -12.391349 -172.288885 -76.738712 -9.375978 -19.616484 57.162454 9.970216 -59.529258 -16.066261 2.153515 8.420468 9.277477 41.074514 -155.902715 71.679823 26.167727 7.053270 -56.604038 -29.428003 -50.623429 18.112171 -2.008382 4.967306 -13.691361 -18.736718 
-161.682602 86.725021 -76.593536 89.189655 8.982388 106.579904 161.829994 -11.886714 -176.737838 -55.917628 -1.011404 4.853798 75.789835 -5.176042 -5.915478 21.454551 0.003098 0.000001 177.746002 3.496991 -172.809537 -38.069801 4.313541 4.535250 90.809476 -2.455680 5.282782 21.454560 -0.003110 -0.000019 8.281001 0.380576 0.273748 6.551152 0.745033 0.568552 6.233030 0.748601 0.564030 -14.681878 -12.577290 -4.698586 -8.646290 16.229047 -13.124751 -172.199519 -76.608372 -9.467052 -20.432987 57.078443 6.068254 -66.680780 -14.720724 2.337548 10.145320 12.769081 44.288466 -157.393144 72.106601 24.627207 4.220584 -54.822124 -27.746250 -55.193953 17.411117 -2.118722 6.233560 -15.386172 -18.419287 
-162.444901 85.016899 -77.057503 88.423629 10.975628 105.114603 160.888999 -13.961194 -178.498852 -60.833783 0.135131 5.205678 77.247377 -5.279240 -5.615463 21.454555 0.003089 -0.000001 177.394438 2.573898 -172.356955 -41.910065 4.215765 3.245098 95.399909 -1.837598 4.390282 21.454557 -0.003098 -0.000015 8.907645 0.664971 0.665024 7.810638 1.283554 1.373428 7.492560 1.291959 1.365656 -15.796522 -11.548679 -4.797661 -10.464015 15.913467 -13.222587 -171.686913 -75.813331 -9.987046 -20.680505 57.125216 1.603287 -72.757771 -13.060334 2.471074 10.616108 13.626892 46.777329 -159.550432 72.529335 22.403388 -2.737009 -52.678841 -24.548883 -56.303968 16.912259 -2.124756 5.781997 -13.692034 -16.920909 
-163.266296 83.557030 -77.547112 87.724668 12.760270 102.829502 160.604563 -15.808802 -177.743392 -64.755050 -0.681328 4.597321 78.703088 -5.035463 -6.725410 21.454560 0.003102 -0.000003 175.934362 1.895996 -173.788030 -46.892951 4.995771 2.543555 97.657341 -1.522952 3.515486 21.454558 -0.003111 -0.000018 9.550034 0.938442 0.811378 9.101758 1.810103 1.694218 8.783634 1.820452 1.683250 -15.757586 -9.461275 -4.493518 -13.565257 14.021772 -12.139512 -171.482418 -75.064059 -10.193010 -19.590593 58.895485 -2.096115 -75.645267 -12.350465 2.543280 8.516213 11.331399 46.385478 -163.409011 72.354202 18.440961 -14.181924 -48.677898 -21.869260 -51.129662 16.786290 -1.936606 3.513545 -8.218733 -11.313507 
-163.676407 82.881554 -77.900391 87.786379 12.609638 101.335501 159.930833 -15.662708 -175.969907 -66.299868 -2.140311 3.492518 79.519446 -4.393770 -7.662452 21.454545 0.003083 0.000000 174.230462 2.783402 -172.903152 -49.591360 4.905268 0.930251 98.732283 -0.528666 2.669903 21.454557 -0.003105 -0.000016 9.635227 1.033564 0.446227 9.267692 2.027996 0.973924 8.949426 2.033975 0.961655 -15.053501 -9.771572 -3.119017 -14.945002 13.652157 -10.893390 -170.314810 -73.841209 -11.385996 -17.680915 60.825655 -1.522939 -71.691960 -14.111105 2.499813 2.939720 5.690297 41.249831 -171.281009 72.847649 10.351609 -24.111340 -45.626572 -19.695644 -41.208949 15.487802 -1.549904 2.166610 -0.392911 -7.054756 
-163.925598 83.137589 -78.017921 87.757119 12.507440 100.474507 160.578690 -15.307601 -174.134635 -65.284724 -3.509951 2.301291 80.106713 -3.498202 -7.821840 21.454551 0.003102 -0.000001 174.265283 2.758604 -172.901731 -48.907054 4.829417 0.509679 98.331618 -0.272799 2.251893 21.454557 -0.003117 -0.000018 9.572770 1.124504 0.228230 9.139702 2.227382 0.544635 8.821364 2.230755 0.531175 -14.053050 -9.287101 -2.397832 -13.704652 12.758267 -9.465911 -170.114809 -74.338925 -11.592048 -19.340823 62.916397 -0.155431 -62.253063 -16.766832 2.304635 0.116435 -1.690292 32.570355 -176.573122 72.356292 4.911018 -30.357589 -45.273339 -14.212683 -31.888408 14.825576 -1.282737 3.809479 3.377396 -8.799738 
-163.916397 84.107964 -77.993530 87.899221 11.885094 99.537317 162.437007 -14.340402 -173.870060 -61.485500 -3.644787 0.283306 81.745172 -1.851232 -7.479749 21.454546 0.003076 -0.000001 174.841068 2.664306 -173.739467 -46.086835 4.772272 0.637413 96.684340 -0.346455 2.079381 21.454557 -0.003112 -0.000018 9.255524 1.135084 0.314327 8.506775 2.243943 0.711302 8.188454 2.248322 0.697735 -12.096194 -8.102601 -2.377179 -12.544760 11.222760 -8.300197 -171.695683 -74.805495 -9.974005 -23.331943 63.477511 0.848415 -49.330358 -17.554061 1.898861 2.318832 -7.357905 24.143358 -176.372628 71.466373 5.106685 -33.323496 -47.526488 -5.098090 -26.765300 15.511725 -1.229327 7.930697 6.638004 -15.038746 
