HIERARCHY
ROOT Hips
{
	OFFSET -211.153198 91.653587 -35.738949
	CHANNELS 6 Xposition Yposition Zposition Zrotation Yrotation Xrotation 
	JOINT LeftUpLeg
	{
		OFFSET 0.103455 1.857827 10.548507
		CHANNELS 3 Zrotation Yrotation Xrotation
		JOINT LeftLeg
		{
			OFFSET 43.500000 -0.000031 0.000008
			CHANNELS 3 Zrotation Yrotation Xrotation
			JOINT LeftFoot
			{
				OFFSET 42.372192 0.000011 -0.000014
				CHANNELS 3 Zrotation Yrotation Xrotation
				JOINT LeftToe
				{
					OFFSET 17.299997 -0.000002 0.000013
					CHANNELS 3 Zrotation Yrotation Xrotation
					End Site
					{
						OFFSET 0.000000 0.000000 0.000000
					}
				}
			}
		}
	}
	JOINT RightUpLeg
	{
		OFFSET 0.103457 1.857826 -10.548499
		CHANNELS 3 Zrotation Yrotation Xrotation
		JOINT RightLeg
		{
			OFFSET 43.500046 -0.000019 0.000015
			CHANNELS 3 Zrotation Yrotation Xrotation
			JOINT RightFoot
			{
				OFFSET 42.372261 -0.000004 0.000013
				CHANNELS 3 Zrotation Yrotation Xrotation
				JOINT RightToe
				{
					OFFSET 17.299992 -0.000006 0.000004
					CHANNELS 3 Zrotation Yrotation Xrotation
					End Site
					{
						OFFSET 0.000000 0.000000 0.000000
					}
				}
			}
		}
	}
	JOINT Spine
	{
		OFFSET 6.901968 -2.603730 -0.000002
		CHANNELS 3 Zrotation Yrotation Xrotation
		JOINT Spine1
		{
			OFFSET 12.588100 -0.000001 0.000009
			CHANNELS 3 Zrotation Yrotation Xrotation
			JOINT Spine2
			{
				OFFSET 12.343201 0.000005 -0.000005
				CHANNELS 3 Zrotation Yrotation Xrotation
				JOINT Neck
				{
					OFFSET 25.832893 -0.000008 -0.000006
					CHANNELS 3 Zrotation Yrotation Xrotation
					JOINT Head
					{
						OFFSET 11.766606 0.000005 0.000008
						CHANNELS 3 Zrotation Yrotation Xrotation
						End Site
						{
							OFFSET 0.000000 0.000000 0.000000
						}
					}
				}
				JOINT LeftShoulder
				{
					OFFSET 19.745903 -1.480373 6.000100
					CHANNELS 3 Zrotation Yrotation Xrotation
					JOINT LeftArm
					{
						OFFSET 11.284123 -0.000007 -0.000024
						CHANNELS 3 Zrotation Yrotation Xrotation
						JOINT LeftForeArm
						{
							OFFSET 33.000053 0.000004 0.000036
							CHANNELS 3 Zrotation Yrotation Xrotation
							JOINT LeftHand
							{
								OFFSET 25.200006 0.000021 -0.000003
								CHANNELS 3 Zrotation Yrotation Xrotation
								End Site
								{
									OFFSET 0.000000 0.000000 0.000000
								}
							}
						}
					}
				}
				JOINT RightShoulder
				{
					OFFSET 19.746101 -1.480381 -6.000079
					CHANNELS 3 Zrotation Yrotation Xrotation
					JOINT RightArm
					{
						OFFSET 11.284133 -0.000015 -0.000008
						CHANNELS 3 Zrotation Yrotation Xrotation
						JOINT RightForeArm
						{
							OFFSET 33.000099 0.000016 0.000006
							CHANNELS 3 Zrotation Yrotation Xrotation
							JOINT RightHand
							{
								OFFSET 25.199781 0.000142 0.000425
								CHANNELS 3 Zrotation Yrotation Xrotation
								End Site
								{
									OFFSET 0.000000 0.000000 0.000000
								}
							}
						}
					}
				}
			}
		}
	}
}
MOTION
Frames: 71
Frame Time: 0.033333
109.092903 55.674629 103.207603 69.492079 -46.244793 102.086794 99.971000 -5.611497 178.024906 -129.659694 5.520838 -15.110684 102.740996 9.419852 -7.315368 21.454553 0.003094 -0.000001 97.294624 5.346604 -161.046845 -124.807104 -4.718474 -0.693778 101.023101 1.525253 11.615977 21.454567 -0.003096 -0.000023 19.210911 -0.472171 1.203621 28.398383 -1.224367 2.255164 28.080485 -1.210594 2.262535 -1.042109 1.038193 -6.172275 -33.636506 14.196768 -13.943550 85.241464 -72.502294 94.511206 -48.523061 7.791128 -31.837991 -61.026381 -21.534239 2.587694 -43.601342 -32.331653 75.167051 81.424987 77.240308 -97.915468 -57.467402 4.998873 15.119310 -42.634358 17.867251 -1.745238 -12.633919 53.220800 -25.339259 
109.513199 54.956009 104.063202 73.629344 -42.204811 98.221508 93.523834 -3.251207 175.366664 -134.343100 6.024226 -16.214213 104.269313 10.221251 -6.150249 21.454555 0.003082 0.000003 97.736606 7.081101 -162.341179 -125.393981 -4.915353 -0.541703 99.485844 1.677841 12.491228 21.454563 -0.003110 -0.000016 19.933581 -1.033306 1.009295 29.842835 -2.291052 1.719557 29.524620 -2.280495 1.733388 -0.818713 0.692416 -6.089263 -32.812287 14.262470 -13.826351 84.951496 -72.161604 94.826515 -48.759057 7.105340 -29.897343 -58.330676 -21.751304 2.499345 -42.193357 -33.542407 72.947691 79.463302 75.985663 -99.955249 -56.741182 5.364500 11.812750 -39.887796 16.462629 -1.578040 -6.640956 55.260947 -17.354204 
109.952499 53.964901 104.703201 76.859996 -38.248909 95.840142 87.768716 -0.843997 174.472470 -134.947995 6.182631 -17.023869 104.032210 10.785345 -5.402590 21.454545 0.003081 0.000006 99.169272 8.898102 -162.125359 -128.983396 -5.252014 1.032204 99.219433 0.743631 13.354165 21.454568 -0.003109 -0.000017 20.493192 -1.365658 0.871280 30.966138 -2.913824 1.347701 30.647687 -2.905512 1.365304 -1.051804 0.006961 -6.364908 -32.530985 14.465576 -14.308690 85.191392 -71.529839 94.645030 -49.100857 6.632577 -27.987988 -55.483232 -21.396700 2.369359 -40.810336 -34.965555 70.456536 78.602111 75.267947 -100.862196 -55.530616 6.363756 1.938097 -37.825512 16.831249 -1.548751 7.378869 56.599356 -0.868063 
110.434998 52.831600 105.012100 79.999041 -35.379376 94.214762 84.035287 0.886392 175.859326 -131.071002 5.677465 -14.261076 103.652799 8.946980 -7.039026 21.454553 0.003089 -0.000001 99.145277 11.355490 -162.364402 -130.569694 -5.163331 -1.933863 100.810894 2.655216 13.645030 21.454567 -0.003120 -0.000016 20.742270 -1.644089 0.624413 31.473799 -3.395572 0.780846 31.155119 -3.390667 0.801381 -2.357927 -0.255992 -6.499700 -31.511641 14.781631 -14.486961 85.260507 -70.687929 94.650330 -49.430697 6.608153 -26.786132 -52.543720 -20.978718 2.236530 -39.795329 -36.135768 68.144360 75.910757 74.996119 -103.534999 -54.980622 7.015348 -8.573494 -35.772668 17.146445 -1.518889 20.383991 55.031504 14.443876 
110.940201 52.087372 105.079498 81.831745 -33.633081 92.963608 84.284234 1.157101 177.423043 -127.349997 5.237219 -11.205685 103.325811 6.844509 -9.488585 21.454553 0.003098 -0.000002 99.220710 12.292104 -159.661150 -131.727097 -5.412926 1.940667 99.533314 0.159543 13.957155 21.454555 -0.003111 -0.000014 20.754010 -1.878766 0.574266 31.502414 -3.842565 0.618344 31.183560 -3.838634 0.641597 -4.666058 -0.076301 -6.706235 -30.027106 14.436170 -14.218802 85.357509 -70.146910 94.602116 -50.201870 6.786934 -25.893257 -49.629572 -20.759460 2.123179 -39.032359 -37.312644 66.075428 75.350681 74.151908 -104.151007 -53.643944 6.598841 -14.383885 -34.216618 18.252212 -1.553840 23.065996 52.045000 18.358281 
111.393204 51.014011 104.763496 82.504102 -33.014478 91.589340 86.621388 0.165397 177.975141 -127.928705 5.042113 -9.157465 109.349095 5.889400 -9.009720 21.454555 0.003096 -0.000002 99.347724 11.957699 -156.068306 -132.694402 -5.842374 4.685764 101.712397 -1.965694 14.201894 21.454558 -0.003108 -0.000019 20.490871 -2.055298 0.796038 30.971114 -4.248075 1.016197 30.652117 -4.241733 1.041899 -6.874506 -0.309576 -6.839982 -28.766510 14.305946 -14.124829 85.018322 -70.117513 94.938236 -51.317124 7.178764 -25.180370 -47.274140 -20.085274 2.002132 -38.303984 -38.198335 64.535234 75.880185 73.828806 -103.655210 -52.393449 5.150494 -9.949881 -34.278483 16.975279 -1.473075 15.210643 52.005706 8.811439 
111.690804 50.413010 104.066200 83.473982 -33.345257 90.627253 87.105259 -0.388601 177.128430 -127.293402 4.946972 -8.703001 114.031791 5.842079 -7.874009 21.454551 0.003085 0.000001 98.733943 11.092997 -153.733871 -132.284399 -6.090153 8.337979 102.941599 -4.648212 13.298502 21.454555 -0.003115 -0.000017 20.145593 -2.069551 0.852840 30.277993 -4.289509 1.137474 29.958992 -4.282453 1.163420 -7.171350 -1.647937 -6.716667 -28.956225 14.565674 -14.492200 85.225270 -70.080603 94.737920 -51.711765 7.284900 -23.280334 -45.905541 -19.585738 1.926470 -37.263917 -39.602431 63.009841 75.028972 73.876241 -104.488528 -52.543751 4.073628 -4.375016 -33.627910 14.293970 -1.285693 8.237931 52.591623 1.411555 
111.937798 50.078350 103.151398 84.896820 -33.435050 90.068557 85.700781 -0.476114 174.572341 -127.441399 5.050553 -9.624433 113.199204 6.351799 -6.933493 21.454555 0.003094 -0.000001 98.489074 10.943612 -153.569195 -131.345098 -6.263102 9.883410 104.788209 -5.901108 12.815250 21.454551 -0.003102 -0.000019 20.072242 -2.068466 0.628747 30.139132 -4.228954 0.699656 29.820118 -4.224513 0.725252 -7.255802 -2.122007 -6.576267 -29.088116 14.874907 -14.643997 85.075252 -70.790307 94.823701 -52.031476 7.038089 -22.048409 -46.178742 -19.684788 1.941412 -35.997044 -39.809232 62.206460 75.263589 73.751037 -104.267434 -52.399873 3.917907 -3.349206 -33.822660 15.093120 -1.341572 6.357275 53.311033 -0.940547 
112.234703 50.037331 102.127800 87.166553 -33.004471 89.719569 84.373737 0.026903 171.832492 -127.263295 5.054356 -9.713466 110.307104 6.272984 -6.319484 21.454557 0.003100 0.000002 98.453147 11.771306 -155.803158 -130.607301 -6.177876 9.758644 106.951207 -6.032717 12.412514 21.454560 -0.003105 -0.000018 20.317417 -2.084463 0.220591 30.644388 -4.153152 -0.116456 30.325367 -4.153668 -0.091312 -5.751389 -1.548346 -6.573004 -30.298869 14.280058 -14.393131 84.383340 -70.920620 95.493134 -51.946321 5.883942 -22.169201 -46.499474 -19.653398 1.949214 -34.834672 -39.639269 61.654608 74.513628 74.130700 -104.975800 -52.284265 5.073189 -2.439166 -34.434477 15.524047 -1.383100 4.643440 53.197092 -3.075218 
112.405296 50.630852 100.888397 89.104613 -32.772378 89.402996 83.836918 0.171292 170.211087 -125.657094 4.902924 -9.000664 108.773816 5.755820 -5.686302 21.454550 0.003088 -0.000002 97.576970 12.347509 -158.324304 -129.441196 -5.991648 9.231215 107.736098 -5.761833 11.619803 21.454555 -0.003103 -0.000016 20.544249 -2.068649 0.046540 31.103804 -4.074194 -0.462459 30.784834 -4.076774 -0.437783 -2.591260 -0.168747 -6.922022 -31.503134 13.285001 -14.126419 82.569822 -69.995417 97.355030 -51.932541 4.017822 -22.033171 -45.530383 -19.680473 1.921330 -32.307567 -39.823879 59.115704 72.142179 74.820904 -107.255758 -51.758818 6.352540 -1.785574 -35.027696 15.811975 -1.415267 4.755765 52.323197 -3.077323 
112.425697 51.812550 99.389610 90.173189 -33.261546 89.313206 83.242159 -0.202003 169.242853 -122.897397 4.642408 -8.580670 108.331902 5.477323 -4.571605 21.454543 0.003083 0.000001 96.038614 12.287288 -159.512456 -127.375296 -5.867449 9.446736 107.831393 -5.931297 11.112025 21.454555 -0.003112 -0.000016 20.620203 -1.936478 0.022761 31.252985 -3.807678 -0.476147 30.934125 -3.810360 -0.453088 -1.489241 0.050964 -7.109969 -31.996363 13.221356 -14.329264 80.846886 -69.132299 99.118489 -52.354179 1.446936 -21.493682 -43.212643 -19.436838 1.836624 -28.525737 -40.693830 55.179562 69.514626 74.845643 -109.836183 -51.135266 7.987493 -1.113522 -34.089963 15.830744 -1.395099 5.705896 51.117115 -1.675760 
112.348396 53.496399 97.636368 90.880462 -34.258207 89.502075 82.199517 -0.663289 168.541420 -119.409301 4.320880 -8.121920 106.951501 5.162265 -3.364383 21.454553 0.003088 0.000000 94.116797 12.179397 -160.105412 -124.458519 -5.713584 9.989001 107.272301 -6.279417 10.614538 21.454555 -0.003101 -0.000016 20.603440 -1.766094 -0.011159 31.216034 -3.464248 -0.496292 30.897307 -3.467054 -0.475315 -3.858239 0.425424 -7.512330 -30.326450 12.665678 -14.099062 78.170402 -68.379394 101.802180 -52.705674 -1.437895 -20.353641 -40.218445 -19.045387 1.727489 -24.097394 -41.630368 48.944282 67.872717 74.571261 -111.467506 -50.727962 9.883074 0.043871 -32.389112 15.969346 -1.366796 7.134027 48.596270 0.290179 
112.261803 55.544350 95.714211 91.955561 -34.998200 89.766997 81.396792 -0.747187 167.881556 -115.397603 3.916783 -7.121806 103.619195 4.503242 -2.172368 21.454548 0.003092 0.000002 92.705502 12.261003 -160.939133 -120.920508 -5.504645 10.746951 106.921701 -6.793195 9.795588 21.454560 -0.003103 -0.000020 20.641218 -1.640718 -0.186513 31.293027 -3.170649 -0.807966 30.974430 -3.175335 -0.788762 -6.471335 0.330983 -7.762839 -28.751937 12.708368 -14.131556 75.449780 -67.719994 104.514189 -52.758878 -4.440832 -19.472994 -37.350623 -18.527592 1.619567 -17.332483 -41.029401 40.167393 63.400329 73.880681 -115.938090 -50.662925 11.737244 1.512180 -29.752663 15.895546 -1.308428 9.115474 44.314783 3.283710 
112.023903 57.873859 93.800102 92.848089 -36.130072 89.957812 80.754385 -0.894607 167.545005 -110.844907 3.376524 -6.365566 100.332610 4.054139 -1.255358 21.454553 0.003097 0.000001 91.612747 11.890114 -161.817604 -116.605399 -5.157932 11.215895 107.076800 -7.144476 8.808197 21.454558 -0.003112 -0.000015 20.513546 -1.529513 -0.186257 31.034788 -2.953755 -0.774251 30.716266 -2.958235 -0.756358 -8.688843 1.285808 -8.356663 -27.034604 11.739972 -13.747843 74.045425 -66.266687 105.997077 -52.346939 -7.185724 -19.073346 -34.798093 -18.467588 1.554394 -9.737481 -36.792228 30.598735 56.260798 73.754582 -122.992459 -50.745632 13.030879 3.173308 -27.219916 15.470008 -1.234546 10.441507 38.297451 5.644015 
111.674698 60.418980 91.839882 93.014978 -36.704924 90.207271 81.231331 -1.290886 167.670680 -105.777897 2.882038 -5.763280 97.764261 3.737880 -0.362732 21.454550 0.003077 -0.000001 91.753981 11.207011 -162.233863 -111.538109 -4.699520 11.134611 107.023006 -7.126454 7.735503 21.454551 -0.003102 -0.000019 20.422833 -1.473466 -0.158041 30.851322 -2.852073 -0.701629 30.532820 -2.856150 -0.684361 -9.090879 2.430801 -8.487871 -26.762729 11.140818 -13.250839 73.069295 -66.480007 106.931604 -52.425984 -9.522738 -20.062067 -34.012488 -19.024992 1.572330 -3.649467 -29.634541 25.477967 51.045282 73.068435 -128.175193 -49.944956 14.194767 4.633330 -25.779948 16.209460 -1.257132 11.332955 30.483267 7.148172 
111.309799 62.948681 89.985367 92.724906 -36.898335 90.549956 82.284307 -1.781490 168.020482 -100.733201 2.418771 -5.097146 95.094101 3.413961 0.579952 21.454550 0.003093 -0.000003 92.513020 10.398195 -162.470598 -106.414204 -4.151268 10.917081 106.233709 -6.981324 7.087816 21.454555 -0.003097 -0.000017 20.214042 -1.403922 -0.059154 30.429903 -2.743308 -0.483940 30.111425 -2.746037 -0.467321 -7.583064 3.255322 -8.342367 -27.545588 11.061381 -13.007749 72.714693 -66.862388 107.248108 -51.823104 -10.166212 -23.367988 -36.565633 -20.660334 1.738454 0.961005 -20.063894 29.060720 46.894986 72.946974 -132.269386 -49.185927 14.958642 7.206083 -24.918854 17.664828 -1.335398 9.651413 19.193718 5.786687 
110.920097 65.440697 88.243088 92.005756 -36.581486 90.973011 83.964321 -2.039983 169.367012 -95.692337 1.557891 -4.573724 92.437055 3.183679 1.124363 21.454550 0.003092 -0.000003 93.819875 9.432306 -162.327082 -101.399103 -3.612373 10.818835 104.362306 -6.877498 6.468097 21.454558 -0.003102 -0.000018 19.929570 -1.328166 0.081940 29.856307 -2.632696 -0.180220 29.537853 -2.633611 -0.164283 -6.064081 3.899816 -8.376520 -28.163440 10.893975 -12.949123 72.488893 -67.534800 107.417695 -51.197882 -11.103499 -26.234830 -38.950137 -22.073331 1.891654 5.870677 -10.453290 34.090314 44.436289 72.094033 -134.742611 -47.121147 15.533314 12.835657 -25.388045 17.943701 -1.360637 8.469680 5.971158 9.012440 
110.555199 67.869667 86.631378 91.487584 -35.645774 91.205128 86.558332 -1.976803 170.914364 -90.491708 0.667234 -4.329741 90.034850 3.099978 1.252648 21.454555 0.003102 0.000001 95.883568 8.453005 -162.384046 -96.427388 -3.044678 10.699891 102.069999 -6.773769 5.533697 21.454560 -0.003105 -0.000017 19.623560 -1.345951 0.206524 29.241611 -2.700435 0.067505 28.923129 -2.699859 0.083845 -5.500956 5.030456 -8.375322 -28.410901 10.487014 -12.542621 68.295191 -68.302110 111.497224 -51.612389 -12.181129 -25.640224 -37.228769 -20.465794 1.742319 5.635374 -7.591725 41.123015 42.491426 71.801913 -136.662400 -46.293987 15.487381 15.945252 -26.106049 17.057060 -1.316367 8.030680 -0.672516 6.998847 
110.241600 70.152023 85.190758 91.166852 -34.365888 91.279160 89.795288 -1.811011 172.367433 -85.227927 -0.221283 -4.326379 88.199121 3.166293 1.332660 21.454557 0.003092 -0.000001 98.508403 7.433582 -162.993408 -91.476362 -2.107721 10.645272 100.127800 -6.761823 4.590907 21.454560 -0.003117 -0.000016 19.177862 -1.385071 0.337054 28.347382 -2.810390 0.325690 28.028875 -2.808231 0.342693 -4.203807 5.358049 -8.434644 -29.036620 10.321732 -12.599902 69.303396 -68.586294 110.466780 -52.006450 -11.641249 -21.069242 -36.108690 -21.831880 1.803285 3.919849 -8.695129 47.286144 43.698399 72.882018 -135.410700 -47.220496 14.560131 12.250118 -26.937284 17.459972 -1.356192 5.784630 2.137588 -3.737335 
109.962997 72.270813 84.017273 90.854930 -32.251743 91.459703 94.036945 -1.437504 173.620909 -80.079829 -0.799093 -4.563825 86.598138 3.354602 1.228733 21.454551 0.003090 -0.000002 102.352598 6.584006 -163.429078 -86.499005 -1.203102 10.647473 98.862050 -6.817795 3.815200 21.454557 -0.003104 -0.000016 18.798856 -1.413344 0.358634 27.588862 -2.871308 0.370960 27.270338 -2.868881 0.388329 -4.072419 4.726743 -8.228786 -28.906737 10.715297 -12.712538 71.495190 -69.388404 108.249517 -52.348499 -9.174430 -21.937027 -38.506718 -22.327403 1.896588 4.504406 -7.864226 48.802047 51.645861 73.921928 -127.543961 -48.312701 13.161750 8.361588 -27.854336 18.603099 -1.445188 3.974457 5.250283 -13.752500 
109.747200 74.305367 83.012077 90.673732 -29.463343 91.330803 99.128250 -1.268402 174.486540 -74.950487 -1.039790 -4.844335 85.058600 3.546739 1.037894 21.454553 0.003092 0.000000 106.920362 5.565598 -163.780970 -81.567840 -0.582598 10.680275 97.233309 -6.882782 3.218093 21.454558 -0.003107 -0.000017 18.520309 -1.481609 0.431378 27.030441 -3.022801 0.505671 26.711873 -3.019568 0.523956 -5.305950 3.796186 -8.360025 -28.116351 11.106923 -13.088546 73.643708 -70.627209 106.056213 -53.335291 -6.134394 -23.424848 -41.730403 -22.233495 1.978624 5.351960 -6.740834 49.022979 62.153683 75.347730 -117.086996 -49.431035 11.262083 6.899215 -30.424217 18.604670 -1.494751 4.187564 4.206665 -13.145781 
109.585197 76.175743 82.144119 90.668261 -26.375163 91.191392 104.569233 -1.033795 175.274511 -69.901338 -1.339302 -5.079386 83.482206 3.713007 0.874384 21.454555 0.003089 -0.000001 111.684788 4.819909 -164.226803 -77.018422 -0.079002 10.595323 95.315085 -6.863337 2.771613 21.454557 -0.003116 -0.000015 18.200600 -1.516488 0.551500 26.387910 -3.118563 0.743557 26.069331 -3.113888 0.762413 -6.134631 3.224657 -8.608649 -27.788468 11.188792 -13.440379 75.405603 -70.867700 104.312193 -53.406588 -2.137448 -22.806830 -44.868957 -23.104370 2.129201 5.149146 -5.530063 52.984018 70.044601 76.431162 -109.203325 -50.216599 7.653218 6.515905 -33.284342 18.120055 -1.524346 5.056414 1.847718 -8.897944 
109.490196 77.966820 81.372292 90.845129 -23.269929 91.006369 110.077207 -0.656209 175.758417 -64.811119 -1.408124 -5.324728 81.527153 3.871539 0.654898 21.454555 0.003103 0.000002 116.208552 4.391500 -165.059840 -73.031579 0.527747 10.344343 92.417131 -6.739346 2.412196 21.454555 -0.003099 -0.000015 17.831063 -1.534004 0.620404 25.646701 -3.167094 0.886183 25.328107 -3.161544 0.905332 -7.507264 2.630029 -8.779231 -26.902001 11.170447 -13.584662 76.524306 -71.624219 103.156238 -53.562483 2.126098 -21.086691 -47.588899 -23.400295 2.234734 4.204717 -5.180536 58.158781 73.420108 76.962722 -105.839532 -50.607815 2.757963 6.328183 -35.786332 17.642891 -1.551263 4.456074 0.158251 -7.149676 
109.404900 79.714882 80.692078 90.895126 -20.257931 90.642477 115.545463 -0.692905 175.899515 -59.724137 -1.374211 -5.426351 79.342114 3.959727 0.579626 21.454555 0.003092 0.000001 120.380513 4.414987 -165.415338 -69.948118 0.724050 8.652619 88.549462 -5.499069 2.822540 21.454563 -0.003123 -0.000019 17.388386 -1.531422 0.685533 24.759040 -3.173811 1.028188 24.440474 -3.167414 1.047368 -8.084393 1.442844 -8.649979 -26.808532 11.678918 -13.961972 78.972928 -72.187320 100.706925 -52.805384 6.215189 -18.819338 -49.779003 -23.078907 2.285083 3.472737 -4.585464 60.928935 77.259999 77.151208 -102.036934 -50.569358 -2.361676 4.710122 -38.305197 17.744210 -1.620150 3.729894 -0.608523 -8.980468 
109.262901 81.189713 80.138741 90.919851 -17.034902 90.338295 121.081072 -1.127303 175.417454 -55.028724 -1.454740 -5.177301 77.342644 3.907964 0.918694 21.454555 0.003105 0.000002 124.707821 5.320009 -166.454893 -68.308435 1.361856 4.165823 85.774144 -2.023023 4.620953 21.454555 -0.003110 -0.000015 16.968630 -1.483198 0.697110 23.918494 -3.078259 1.073108 23.599945 -3.071591 1.091709 -8.556280 -0.056293 -8.397419 -26.717149 12.551647 -14.478804 81.446099 -73.096616 98.199406 -51.911384 10.203632 -16.216206 -51.673212 -22.386145 2.302296 4.001025 -3.672805 61.624508 81.177871 77.230554 -98.160590 -50.072769 -7.493900 2.929924 -41.300105 18.109208 -1.723653 3.335430 -1.717668 -12.620632 
108.960503 82.355324 79.698257 90.597630 -13.536398 90.238424 126.545374 -2.013902 174.871066 -51.082001 -1.712098 -4.652573 75.695367 3.729784 1.475061 21.454551 0.003091 -0.000000 129.517394 6.031804 -168.382195 -68.192998 2.234820 0.357090 84.519923 1.681510 9.455865 21.454562 -0.003111 -0.000017 16.552202 -1.353307 0.700066 23.084680 -2.818912 1.116457 22.766229 -2.811981 1.133484 -8.320899 -0.877637 -8.267978 -27.228013 12.802487 -14.755304 82.951609 -74.213625 96.622335 -50.956852 14.331101 -12.901893 -52.867556 -21.677231 2.295383 4.065201 -3.163296 62.535416 85.587789 77.395421 -93.784501 -49.213040 -12.513840 1.055618 -44.189726 18.029227 -1.800904 3.336642 -2.149815 -16.325547 
108.531403 83.323624 79.324913 90.130186 -10.272990 90.502595 131.507902 -2.857613 173.547799 -47.585928 -1.288682 -3.627239 74.122886 3.212944 2.084073 21.454553 0.003096 0.000002 134.788169 6.354913 -168.700468 -70.016877 1.987618 2.835797 84.833948 -0.235429 8.776222 21.454558 -0.003107 -0.000016 16.029810 -1.169807 0.637592 22.040604 -2.439550 1.040851 21.722254 -2.433099 1.055593 -8.260004 -2.174544 -8.091046 -27.189778 13.710549 -15.334459 84.756897 -75.361698 94.742619 -49.697174 18.305382 -8.748207 -53.352418 -21.035832 2.268615 3.895607 -2.942686 62.019545 89.634929 78.240186 -89.699324 -48.788164 -17.725611 -0.474231 -46.606708 17.467220 -1.836695 3.185512 -2.653047 -18.992389 
108.027802 84.030273 79.031914 90.083604 -7.122765 91.242967 136.110589 -2.966101 173.487433 -44.432204 -1.559689 -3.087136 72.597364 2.978403 2.403401 21.454557 0.003088 0.000000 140.720366 7.044598 -168.265262 -72.610737 0.908025 7.104551 85.700836 -3.624601 6.911255 21.454558 -0.003116 -0.000019 15.472639 -1.034925 0.466802 20.929125 -2.137163 0.738721 20.610823 -2.132533 0.751633 -7.989809 -2.545987 -7.955531 -27.471284 13.955501 -15.450960 86.468617 -76.325124 92.967105 -48.089842 21.865621 -4.525505 -53.613085 -20.169866 2.218820 4.240815 -2.095809 60.614323 97.736127 79.319308 -81.521518 -47.767150 -22.729835 -2.619580 -48.893568 17.266938 -1.895439 3.285888 -3.133387 -19.947742 
107.455803 84.590714 78.708069 90.212059 -4.467143 91.808097 140.024055 -2.993304 173.505738 -41.572220 -1.722207 -2.716221 71.106586 2.780799 2.455330 21.454551 0.003087 -0.000001 146.918940 7.644294 -168.577333 -74.106740 -0.037251 8.522334 84.899327 -4.538330 6.969584 21.454560 -0.003109 -0.000019 14.823679 -0.962174 0.358092 19.632680 -1.971158 0.547670 19.314392 -1.967661 0.559585 -7.890245 -3.136818 -7.809795 -27.807515 14.271491 -15.658936 88.936098 -77.276740 90.440379 -46.370421 25.078891 -0.247193 -53.675930 -19.247441 2.158443 5.056096 -1.363928 59.041364 109.069201 80.358610 -70.089414 -45.866780 -27.410049 -4.833756 -51.216747 16.855334 -1.944129 3.386259 -3.722651 -20.636339 
106.932800 85.063019 78.388023 90.870817 -1.882372 91.945220 143.996165 -2.733998 172.991234 -38.619560 -1.747121 -2.428382 69.571002 2.597904 2.378622 21.454551 0.003077 -0.000000 153.848891 8.403402 -170.121981 -73.635648 -0.316565 7.722457 85.033731 -3.961021 7.042078 21.454560 -0.003122 -0.000016 14.239022 -1.053676 0.269330 18.464962 -2.136803 0.366925 18.146624 -2.134410 0.379837 -8.075402 -4.030489 -7.549504 -28.065874 14.681937 -15.868778 94.230827 -78.628332 85.044065 -44.646238 27.796322 3.634833 -53.641338 -18.437816 2.102484 5.611380 0.030203 56.573658 122.859872 80.937591 -56.198267 -43.414848 -31.477104 -7.354196 -53.339744 16.526478 -1.994153 3.498178 -4.278562 -20.883425 
106.319702 85.462883 77.910851 91.143998 0.007177 91.989036 146.961437 -2.896609 173.121745 -35.968627 -2.059600 -2.350158 67.972315 2.531497 2.190725 21.454555 0.003091 0.000002 160.603825 8.490285 -171.549244 -70.749012 -0.425748 6.815327 85.777586 -3.526657 6.173627 21.454560 -0.003109 -0.000014 13.583985 -1.071368 0.240399 17.155173 -2.166532 0.319131 16.836830 -2.164434 0.332226 -9.189217 -5.353523 -7.193007 -26.980806 15.248037 -15.969141 101.859280 -80.213427 77.281425 -42.706212 30.510363 6.691450 -53.931840 -17.851804 2.073009 6.732183 0.991514 54.718869 136.157977 80.943684 -42.811069 -40.386553 -34.986295 -9.984674 -55.121348 16.272692 -2.039309 3.656532 -4.401448 -20.924935 
105.745697 85.645798 77.215149 91.693883 1.289671 92.105811 148.956235 -2.610996 173.297117 -33.651051 -2.178905 -2.445154 66.307395 2.533193 1.874738 21.454548 0.003092 -0.000002 167.088680 8.845398 -172.767545 -65.724404 -0.421694 5.931170 86.150330 -3.054971 5.501959 21.454553 -0.003112 -0.000020 12.913613 -1.125422 0.203062 15.814979 -2.268017 0.250200 15.496610 -2.266347 0.263913 -10.364492 -6.578054 -7.019439 -26.188945 15.900274 -16.340490 108.758079 -81.932572 70.222766 -40.983816 33.663731 8.324610 -53.943451 -17.561067 2.053800 7.266701 1.485671 52.423532 147.130307 81.150447 -31.725522 -37.326697 -38.612688 -12.064791 -56.620018 16.324378 -2.096377 3.749137 -4.490793 -21.251271 
105.162804 85.742760 76.415817 92.243979 2.439629 92.467907 150.652881 -2.148616 173.972978 -31.397037 -2.330141 -2.735231 64.549748 2.640071 1.478443 21.454550 0.003095 0.000001 173.833109 9.180689 -173.180211 -58.192877 -0.458208 4.703267 84.553705 -2.195470 5.243411 21.454555 -0.003100 -0.000021 12.311770 -1.141797 0.203718 14.611001 -2.300186 0.261443 14.292623 -2.298412 0.275338 -11.816041 -7.523815 -6.784501 -24.285132 16.348512 -16.297704 119.780645 -82.965113 59.081539 -38.657788 36.538705 9.076097 -54.028125 -17.285860 2.038175 7.666104 1.748134 50.277934 157.729572 81.088662 -21.015372 -33.732402 -41.818550 -13.713901 -57.864803 16.247990 -2.136543 3.570998 -4.767893 -21.423638 
104.520699 85.648033 75.420959 92.682402 3.208567 93.044532 151.525821 -1.849698 174.824607 -29.650531 -2.633396 -2.950042 62.813363 2.771667 1.293927 21.454555 0.003096 0.000001 -179.889028 9.403302 -173.528797 -48.646506 0.082380 2.664018 87.716090 -0.689365 6.637294 21.454560 -0.003095 -0.000017 11.755538 -1.128705 0.265727 13.496923 -2.280726 0.397855 13.178553 -2.278117 0.411627 -12.961029 -8.153480 -6.693757 -22.893843 16.676762 -16.342073 131.862389 -84.081029 46.858953 -36.918969 39.371382 8.956410 -53.980402 -17.283719 2.036384 7.621626 1.565654 48.454926 169.947087 80.540068 -8.664862 -30.263554 -44.336414 -14.686693 -58.864961 16.141322 -2.166255 3.976592 -5.480148 -22.413652 
103.889297 85.606209 74.281288 92.817387 3.971573 93.639674 152.439796 -1.869107 174.822735 -27.632077 -2.571718 -2.609111 60.825806 2.567629 1.287632 21.454551 0.003099 0.000000 -174.784718 8.847402 -174.353720 -40.058274 1.016102 1.850492 92.720187 -0.420166 6.895887 21.454560 -0.003120 -0.000015 11.343243 -1.013831 0.399198 12.669520 -2.065303 0.684927 12.351229 -2.060990 0.697397 -13.489005 -9.460347 -6.769783 -22.507029 17.527382 -17.137834 148.786013 -84.633632 29.803841 -35.219601 42.148384 7.517116 -54.237542 -17.356105 2.050203 7.449761 1.006447 48.170254 179.930870 79.245801 1.438231 -27.019235 -45.676672 -15.805324 -59.241926 16.169390 -2.182221 4.300323 -5.778672 -23.071358 
103.214104 85.614807 72.689583 92.478186 4.586859 93.911467 153.409846 -2.449209 174.665559 -24.632114 -2.603739 -2.236029 58.150100 2.449056 1.496101 21.454551 0.003090 -0.000000 -172.469380 8.031987 -174.766017 -35.427269 2.415672 2.852192 96.368683 -1.390932 6.540143 21.454560 -0.003112 -0.000015 11.115004 -0.754209 0.580635 12.210910 -1.565535 1.078402 11.892752 -1.558857 1.087844 -14.897170 -10.756596 -6.722484 -21.717739 18.039759 -17.661662 171.477896 -83.759361 6.976249 -33.549080 44.309401 5.199826 -55.088368 -17.533840 2.092051 7.486400 -0.008891 48.770498 -172.861720 77.273495 8.754172 -25.124817 -45.419952 -16.649899 -58.785061 16.364309 -2.178448 4.001214 -5.084541 -23.211336 
102.479103 85.657631 70.687149 91.602358 4.901552 94.136119 154.325461 -3.339399 174.347723 -20.632268 -2.238004 -1.795997 55.412625 1.928416 0.985930 21.454550 0.003095 -0.000003 -172.512806 6.829297 -173.950493 -33.782874 3.089779 3.373207 98.056361 -1.897742 5.902739 21.454560 -0.003121 -0.000020 10.972240 -0.313722 0.714949 11.927552 -0.699550 1.393704 11.609537 -0.690992 1.397912 -15.194282 -11.408708 -6.708369 -22.620799 17.786234 -17.954952 -175.378576 -81.469260 -6.269191 -31.243184 46.318986 3.373943 -56.041907 -18.206738 2.171625 6.941031 -1.790561 50.034534 -170.070481 74.959632 11.597828 -24.354614 -44.024100 -16.680198 -56.425986 16.511152 -2.102011 4.219205 -4.189874 -21.931603 
101.861099 85.870888 68.483833 90.878939 4.739876 94.102986 154.628776 -4.176697 173.656931 -17.288795 -1.728247 -1.837576 56.254763 0.777412 -1.444312 21.454551 0.003099 -0.000001 -174.103202 6.685702 -175.398643 -33.693934 5.415394 3.481476 98.326980 -2.143641 4.594029 21.454557 -0.003104 -0.000018 10.781485 0.119294 0.814145 11.551296 0.156592 1.636095 11.233335 0.166605 1.635135 -14.977792 -11.182069 -6.602185 -23.745866 16.610632 -17.464958 -166.567700 -78.786335 -15.208398 -29.193861 49.009988 1.410154 -56.101026 -18.756188 2.211115 5.678965 -3.891865 49.259372 -169.491581 74.046436 12.189961 -24.243768 -44.034773 -15.847994 -51.810079 17.092586 -1.979923 3.279697 -2.808264 -19.621976 
101.423798 86.360558 66.521004 90.496059 4.839589 94.299292 155.478533 -5.161492 172.489625 -14.663404 -2.520294 -2.850054 60.045566 1.459807 -1.732991 21.454553 0.003091 0.000000 -175.026029 6.879005 -173.456738 -33.290690 5.989548 2.246965 97.171804 -1.379796 3.576925 21.454558 -0.003109 -0.000016 10.642289 0.454134 0.918928 11.278732 0.816382 1.877780 10.960779 0.827848 1.872825 -13.571799 -10.442832 -6.939472 -25.385288 15.501481 -17.259446 -163.758006 -76.436305 -18.087722 -26.708997 52.063517 -0.332392 -55.528106 -18.750468 2.190151 5.161187 -6.400004 48.094985 -167.645805 73.438454 14.083684 -24.299759 -44.976352 -13.984348 -46.046137 17.232089 -1.803969 3.504791 -0.890091 -16.351365 
101.152702 87.075890 64.929466 90.536207 5.354763 94.156016 156.908706 -5.865906 171.633857 -13.208788 -3.063256 -6.998255 64.061348 3.716675 -3.885084 21.454553 0.003091 -0.000000 -175.037736 6.779207 -171.111538 -32.037190 4.894644 1.121976 95.310434 -0.567731 3.264212 21.454555 -0.003104 -0.000017 10.512856 0.593309 1.082610 11.023843 1.080629 2.216919 10.705949 1.094149 2.210352 -11.556838 -9.475805 -7.444184 -25.888580 14.882953 -17.128222 -163.272872 -74.922722 -18.597429 -23.081560 55.357092 -0.117147 -53.809607 -18.965508 2.144025 4.735750 -7.428368 43.830024 -166.117700 72.359448 15.657065 -23.675341 -46.039624 -12.088540 -39.984119 16.929812 -1.611019 4.576190 1.547601 -13.588170 
101.043602 87.957489 63.491859 91.010604 5.867529 94.057804 157.613309 -5.608194 169.478645 -15.613030 -1.898585 -12.118982 64.714389 5.456086 -9.246349 21.454551 0.003093 -0.000000 -174.680722 6.716002 -171.804925 -29.910969 4.637080 1.753145 93.062577 -0.918565 3.325863 21.454557 -0.003108 -0.000018 10.319959 0.580689 1.173929 10.638532 1.050870 2.396376 10.320679 1.065453 2.389997 -10.076466 -8.546606 -7.664327 -25.265894 14.311769 -16.616867 -162.180602 -74.546809 -19.719687 -18.303160 58.699670 2.312174 -51.435863 -18.648575 2.041362 5.729729 -7.359652 38.268139 -164.625509 71.295994 17.198613 -22.557765 -47.496446 -10.031314 -34.207278 16.200717 -1.421580 5.874632 4.280325 -10.845471 
101.010300 88.684174 62.248310 91.363418 6.319720 94.413937 157.637146 -5.829697 166.720519 -22.127103 -0.539953 -13.509878 66.806961 6.728157 -8.812229 21.454551 0.003092 0.000001 -174.127326 6.822909 -172.174343 -27.858357 4.894848 2.313746 90.859766 -1.260286 3.227334 21.454558 -0.003117 -0.000018 10.025468 0.601698 1.146592 10.049805 1.101473 2.341151 9.731946 1.115716 2.334478 -9.077275 -8.220873 -7.859170 -24.171034 13.813048 -16.257180 -161.516256 -74.612426 -20.399316 -12.795417 60.867258 8.483987 -47.175314 -18.435510 1.889263 7.689999 -5.728238 31.218923 -162.469901 70.700121 19.424216 -20.272005 -49.366258 -8.640981 -30.089248 15.270498 -1.274973 7.982102 5.939835 -9.587174 
101.062698 89.141296 61.141640 91.415143 6.794922 94.731138 157.629797 -6.702301 165.552953 -30.646584 0.641837 -11.659372 69.341078 6.076696 -7.055434 21.454551 0.003086 -0.000001 -173.858121 6.966000 -171.557796 -26.772031 5.009696 2.151685 89.019078 -1.135287 3.016466 21.454558 -0.003109 -0.000017 9.698527 0.659078 1.112059 9.396938 1.225626 2.274066 9.079038 1.239470 2.266623 -8.447003 -8.198185 -8.150647 -23.157352 13.600420 -16.251773 -161.202956 -74.587715 -20.720496 -7.520536 61.755791 15.262459 -42.111381 -17.692628 1.690831 9.354219 -2.379690 27.401244 -160.758420 70.112315 21.195694 -16.588255 -50.523531 -10.378452 -27.551404 14.489613 -1.177769 10.101383 6.629763 -7.157113 
101.116997 89.384689 60.076790 91.060342 7.149579 94.775261 158.222725 -7.984887 167.863401 -38.512209 0.162885 -9.326628 71.824487 4.782884 -6.165251 21.454551 0.003084 0.000001 -174.127094 6.750406 -171.919618 -26.395119 5.346493 2.338654 87.575422 -1.263050 2.846573 21.454558 -0.003111 -0.000017 9.315398 0.753311 1.088336 8.632491 1.423333 2.229946 8.314550 1.436911 2.221327 -8.327895 -7.616025 -8.522883 -21.124279 12.771546 -15.812568 -160.944979 -74.648790 -20.983796 -3.127221 62.022195 21.378562 -36.536482 -16.524818 1.469887 10.966156 2.616958 27.974426 -158.616500 69.521408 23.414327 -12.507413 -50.830080 -14.656649 -26.000901 13.775651 -1.105695 11.118340 5.156033 -5.908888 
101.229797 89.500511 58.961670 90.527368 7.442526 94.324981 159.749669 -9.318808 170.605175 -44.762123 -0.882829 -6.784193 75.037134 3.429130 -5.043401 21.454550 0.003082 -0.000001 -174.838540 6.493888 -173.142782 -26.483973 5.878014 2.677311 86.525342 -1.504499 2.719001 21.454562 -0.003107 -0.000017 8.940477 0.845700 1.051022 7.884157 1.617873 2.157334 7.566174 1.631001 2.147527 -8.608413 -6.862093 -8.687072 -18.524373 11.812413 -15.053693 -160.664928 -74.710303 -21.269825 0.343476 62.238924 26.047550 -30.997051 -15.329111 1.270461 11.792435 7.487558 31.954135 -156.894199 69.028118 25.201381 -8.769305 -50.262618 -19.796938 -25.285480 13.046794 -1.047478 10.628359 2.389928 -6.910516 
101.375801 89.536331 57.728661 90.025711 7.772553 93.763498 162.226350 -10.135796 173.249756 -48.890829 -1.826065 -5.215825 78.097476 2.566663 -4.548928 21.454555 0.003096 0.000001 -175.664447 6.306003 -173.631455 -26.815350 6.059588 2.559584 85.926519 -1.431185 2.615731 21.454560 -0.003111 -0.000017 8.646901 0.905049 0.880497 7.295729 1.752848 1.816389 6.977642 1.763919 1.805771 -8.821866 -5.743265 -8.294914 -16.574530 11.187583 -13.896358 -160.491127 -74.693993 -21.447900 3.312726 62.357674 28.411686 -26.236966 -13.876618 1.090291 12.396154 10.096056 37.404981 -156.303292 68.631885 25.819828 -5.945046 -49.351614 -24.868335 -25.438748 12.975230 -1.045327 9.621478 -0.976173 -9.807658 
101.530502 89.506027 56.407082 89.533521 8.110106 93.156411 165.597636 -10.458698 174.677949 -50.738842 -1.701294 -4.172939 80.315136 1.823502 -4.843875 21.454553 0.003099 0.000000 -176.458292 6.050795 -174.349553 -27.012910 6.239260 2.608031 85.674211 -1.477336 2.531113 21.454560 -0.003106 -0.000017 8.440070 0.925130 0.629403 6.878531 1.811247 1.312698 6.560361 1.819273 1.301748 -9.239123 -4.471336 -7.751757 -14.955268 10.476129 -12.589836 -161.384092 -74.940815 -20.530512 6.161474 62.345413 30.494592 -23.557886 -12.841897 0.982625 13.730304 10.841815 40.150184 -155.559307 68.007053 26.602441 -4.574786 -48.345062 -28.500750 -26.163215 12.978699 -1.057300 8.816868 -3.220063 -13.612522 
101.708603 89.409332 54.955681 88.928715 8.188654 92.520404 169.422993 -10.541594 175.524687 -50.526751 -1.308824 -3.748654 81.877992 1.565956 -4.852402 21.454553 0.003086 0.000000 -177.563868 5.639011 -174.910367 -27.191676 6.239718 2.594662 85.593117 -1.480357 2.456713 21.454555 -0.003116 -0.000016 8.251821 0.945871 0.352517 6.497833 1.870477 0.757500 6.179588 1.875152 0.746196 -10.060081 -3.837965 -7.174824 -13.269578 9.946756 -11.497549 -162.466226 -75.116023 -19.421006 8.605530 62.079726 32.700600 -23.377084 -12.902300 0.983898 14.642800 11.397835 42.613134 -154.584489 67.609106 27.619789 -4.013790 -47.945175 -29.872423 -27.120449 13.020330 -1.076098 8.624599 -4.534525 -16.395456 
101.897301 89.279404 53.421612 88.130184 8.417133 92.052304 173.865689 -10.479002 176.876860 -48.369081 -1.228953 -3.356428 82.548492 1.176875 -5.451553 21.454550 0.003083 0.000000 -178.397274 4.936999 -175.092104 -27.115730 6.027609 2.521197 85.423393 -1.420535 2.463395 21.454558 -0.003113 -0.000015 8.172654 1.006049 0.064692 6.335065 2.006996 0.184193 6.016746 2.008217 0.172056 -10.833657 -3.246268 -6.621582 -12.080768 9.315462 -10.471897 -162.806261 -75.407508 -19.070119 8.362336 61.607719 34.341696 -24.364852 -13.181210 1.016240 14.516329 10.691445 42.788058 -154.293618 67.273566 27.928925 -3.626888 -48.244170 -29.298605 -27.755430 13.503102 -1.118168 8.154617 -4.705815 -17.363287 
102.127899 89.102257 51.729591 87.128618 8.574322 91.920850 178.206684 -10.462609 178.343042 -44.887307 -1.161501 -2.271906 80.738908 0.191859 -6.013672 21.454545 0.003084 0.000001 -179.390124 3.967998 -175.714676 -27.051787 5.991037 2.913377 85.088393 -1.657144 2.607805 21.454562 -0.003112 -0.000020 8.125103 1.126255 -0.214027 6.234927 2.262275 -0.367398 5.916546 2.260153 -0.381052 -11.140203 -3.108150 -6.008905 -11.582054 9.235630 -9.753077 -163.057475 -75.674801 -18.810503 5.216005 60.905494 34.961136 -25.401033 -13.216812 1.034529 13.639691 9.023753 40.955874 -154.288509 67.033368 27.940149 -3.321232 -48.804717 -28.616927 -28.130696 13.921074 -1.151687 7.826679 -2.842216 -15.679252 
102.395302 88.940910 49.873909 86.214473 8.399446 91.938656 -178.300094 -10.321100 179.460639 -39.789253 -0.914052 -2.119090 82.450670 -0.146579 -7.429191 21.454550 0.003096 -0.000002 178.905180 2.958497 -177.117009 -27.437811 6.004456 3.846935 84.631686 -2.221408 3.012519 21.454558 -0.003103 -0.000017 8.071850 1.231080 -0.418393 6.123919 2.482409 -0.771499 5.805531 2.477835 -0.786469 -11.302529 -3.193166 -5.674255 -11.387725 9.459338 -9.496243 -164.750406 -75.657213 -17.079689 -0.416729 59.959464 32.238264 -26.238807 -12.724074 1.016375 12.970369 5.819319 40.021189 -154.633188 66.682659 27.591697 -2.972631 -49.409097 -26.815917 -28.664487 14.222533 -1.180738 7.461171 -0.725892 -13.050424 
102.704002 89.202026 48.068279 86.876509 8.116677 91.729174 -175.350162 -9.209895 179.503068 -32.304698 -1.520766 -2.783629 86.000633 0.799375 -6.180938 21.454553 0.003088 0.000001 177.018955 3.477012 -178.324846 -27.996619 5.676720 4.422879 83.658657 -2.531608 3.405200 21.454557 -0.003110 -0.000017 8.074529 0.927092 -0.546205 6.128478 1.881610 -1.042876 5.810243 1.875425 -1.054217 -11.574417 -2.480102 -5.657405 -11.367091 9.250494 -9.219564 -166.108889 -76.294429 -15.687396 -7.878688 59.406007 27.926948 -26.746830 -12.435847 1.006249 12.256844 2.339625 40.231252 -155.578281 66.339845 26.620237 -2.768830 -50.680878 -23.587427 -29.157743 14.627724 -1.215904 6.876587 0.697956 -10.693791 
103.140602 89.411232 46.109550 87.673872 7.710677 91.627698 -174.174168 -8.313095 -179.536413 -27.202673 -3.045174 -3.905463 87.446447 1.848044 -5.269036 21.454551 0.003081 -0.000001 174.839483 4.275695 -178.935465 -28.726123 5.212677 4.658351 82.317857 -2.587843 3.746785 21.454560 -0.003091 -0.000015 8.143987 0.570745 -0.676073 6.268661 1.177052 -1.320433 5.950597 1.169186 -1.327504 -12.354992 -2.614204 -5.478876 -11.152395 9.700378 -9.208272 -167.996972 -76.596583 -13.758106 -15.744180 58.234411 22.696638 -27.300671 -12.779368 1.037762 11.490053 -0.761003 40.981695 -156.329807 66.326027 25.841445 -2.915783 -52.612616 -20.329508 -29.956411 15.431728 -1.282712 6.367196 0.932372 -10.064649 
103.664101 89.802612 44.066849 88.398856 7.230524 91.781186 -174.587449 -7.464293 -177.762681 -24.274736 -4.293754 -4.724479 86.331890 2.564910 -4.341316 21.454553 0.003087 -0.000001 173.526024 5.155898 -178.214238 -27.640222 4.491166 4.363014 80.198066 -2.267167 3.926313 21.454558 -0.003106 -0.000016 8.225958 0.186557 -0.794992 6.436244 0.416813 -1.578411 6.118265 0.407406 -1.580897 -12.402577 -3.214340 -5.365163 -11.817034 10.910685 -9.719023 -171.551348 -76.772399 -10.129386 -22.793381 56.202475 17.681504 -27.951950 -13.378646 1.087659 10.939938 -3.148977 41.189695 -158.129193 66.419205 23.973834 -2.406836 -54.854209 -17.630610 -31.115046 16.560927 -1.378132 6.405144 0.518090 -10.310380 
104.280602 90.276093 42.051971 89.085222 6.774313 91.661692 -175.531846 -6.335908 -176.174225 -22.416906 -5.027955 -5.769504 84.266564 3.359569 -3.751588 21.454555 0.003093 0.000000 172.890447 6.242906 -177.219913 -25.367700 4.143457 3.827086 77.971753 -2.009701 3.183578 21.454562 -0.003091 -0.000015 8.317555 -0.249563 -0.707929 6.625167 -0.458362 -1.428920 6.307172 -0.466846 -1.426122 -12.047156 -3.444681 -5.725162 -12.385472 11.749701 -10.472535 -175.515385 -77.162915 -6.087107 -29.457192 53.669202 12.847367 -28.490015 -13.730334 1.119900 10.459373 -4.678216 40.309721 -159.377301 66.497055 22.678258 -2.038875 -57.123512 -16.062115 -31.263869 17.124922 -1.417301 5.995148 0.081598 -10.231477 
104.861397 90.556252 40.096489 89.406964 5.706404 91.049338 -177.444053 -5.363095 -176.155169 -21.735648 -4.917140 -6.253052 82.992850 3.725758 -3.454005 21.454551 0.003086 -0.000001 171.327932 7.184403 -175.449105 -23.998052 3.967582 3.062146 77.335541 -1.599887 2.612495 21.454560 -0.003113 -0.000016 8.209538 -0.550940 -0.434977 6.410746 -1.077092 -0.899716 6.092621 -1.082365 -0.893203 -11.341953 -4.499274 -6.005118 -12.663694 13.086483 -11.498880 -179.121629 -77.117480 -2.408096 -34.938750 50.960690 9.171857 -29.376217 -14.191851 1.165910 10.427933 -4.521502 38.655121 -160.580384 67.409439 21.417648 -0.598039 -59.134453 -16.899599 -31.024557 17.397323 -1.429820 5.372340 -1.132748 -10.031214 
105.357002 90.829147 38.322880 89.301233 5.070093 90.375451 -178.821019 -4.918789 -176.908607 -21.148824 -4.522496 -6.317151 81.872412 3.799802 -3.177365 21.454551 0.003098 0.000001 169.821889 7.746597 -173.881604 -24.584656 4.215626 4.384817 78.357931 -2.434814 3.122117 21.454560 -0.003110 -0.000016 8.178932 -0.703835 -0.161290 6.347677 -1.397845 -0.360819 6.029485 -1.399855 -0.352366 -10.898550 -5.210485 -6.145137 -12.465056 13.654225 -11.975624 179.875354 -77.311212 -1.388501 -39.828735 49.114336 5.159007 -31.476517 -14.946235 1.255552 10.787846 -3.682105 37.998958 -162.196516 68.744761 19.728448 0.784269 -60.544853 -18.063644 -31.073249 17.746237 -1.453132 5.224044 -4.529863 -12.108594 
105.688599 90.977631 36.756760 89.156358 4.933063 89.967955 -179.907142 -4.766206 -177.598811 -21.142987 -4.285653 -6.195469 81.053677 3.758329 -2.892264 21.454553 0.003096 0.000002 168.594750 8.095391 -171.825197 -27.554621 3.643830 5.419639 79.144633 -3.083518 3.470190 21.454558 -0.003110 -0.000017 8.258076 -0.791076 -0.004015 6.504289 -1.580728 -0.052328 6.186050 -1.580875 -0.042782 -10.520438 -5.747426 -6.046293 -12.783163 14.086820 -12.195260 179.680612 -77.409314 -1.191696 -43.596544 47.693589 1.556199 -34.323111 -15.824435 1.373109 10.843407 -2.984280 38.361378 -163.806883 69.891516 18.053763 0.612494 -60.830443 -18.858325 -31.036390 17.620438 -1.444329 5.950871 -7.941877 -13.275814 
105.902199 91.014542 35.421421 89.002624 5.119836 89.957853 179.118187 -4.737305 -177.891389 -21.716674 -4.122108 -6.033281 80.587701 3.682309 -2.675059 21.454555 0.003094 0.000002 168.099780 8.386010 -170.023626 -31.342027 2.524887 4.588799 79.504911 -2.462144 3.533149 21.454560 -0.003104 -0.000018 8.356512 -0.842203 0.020522 6.700963 -1.684235 -0.007601 6.382717 -1.684098 0.002580 -9.708568 -5.769756 -5.872606 -13.533645 14.306808 -12.179185 178.885236 -77.791026 -0.388186 -45.976944 46.899743 -0.898102 -37.478266 -16.536031 1.493572 10.046660 -3.447718 37.589205 -165.426799 70.129104 16.380943 -0.522747 -60.012071 -19.077033 -30.889640 17.642722 -1.442756 6.508768 -11.158183 -14.969483 
106.047203 90.976257 34.353539 88.902562 5.596216 90.409875 178.348069 -4.710005 -176.693401 -22.566819 -4.410695 -6.411170 80.396012 3.971353 -2.565472 21.454553 0.003102 0.000001 168.886317 8.654105 -169.984147 -34.101058 2.055536 3.435054 79.273143 -1.508865 3.992680 21.454555 -0.003120 -0.000018 8.449648 -0.849938 -0.019347 6.887853 -1.697212 -0.089106 6.569606 -1.697597 -0.078846 -8.230083 -5.961845 -5.833761 -14.596553 14.621772 -12.395625 176.314408 -78.267315 2.219733 -47.402869 46.586238 -1.888081 -40.278790 -17.224987 1.610287 8.864730 -4.484680 36.746175 -165.888178 70.039936 15.905444 -1.711330 -59.243661 -18.054883 -30.728198 17.518151 -1.431507 7.409045 -12.249835 -16.268676 
106.160103 90.943428 33.529091 88.990118 6.052690 91.125112 177.856801 -4.555197 -175.794862 -23.070992 -4.608146 -6.498344 80.148520 4.071010 -2.403626 21.454548 0.003079 -0.000003 171.014317 8.819011 -170.187892 -34.589126 1.836322 2.348848 78.184404 -0.628483 4.254854 21.454555 -0.003111 -0.000018 8.457789 -0.852937 -0.079644 6.905034 -1.699664 -0.209891 6.586783 -1.700757 -0.199625 -6.378369 -5.836053 -5.893255 -15.509930 14.481336 -12.436262 174.530253 -78.547988 4.028303 -48.113980 46.578441 -1.553004 -42.504831 -17.668468 1.700254 7.139165 -5.691352 35.175133 -165.256085 69.657192 16.560016 -2.379014 -58.545089 -17.236467 -30.575765 17.421671 -1.422256 7.767822 -10.528368 -17.035771 
106.301399 90.908287 32.927059 89.372807 6.405348 91.718820 177.692931 -4.168501 -175.647071 -23.118975 -4.709823 -6.281715 79.833225 3.992970 -2.104812 21.454551 0.003097 -0.000002 174.221433 9.086001 -170.621745 -32.537928 2.005748 1.969724 75.705646 0.139744 5.703430 21.454557 -0.003115 -0.000016 8.370996 -0.916662 -0.087154 6.731814 -1.826759 -0.227342 6.413534 -1.827961 -0.216297 -3.960297 -5.738164 -6.062277 -16.837656 14.712919 -12.773121 174.862405 -78.753461 3.685286 -48.334004 46.989284 -1.103246 -44.538011 -17.456336 1.744775 5.976004 -6.398711 34.661373 -165.169219 69.190786 16.652828 -1.798117 -57.965869 -17.716823 -30.498407 17.436365 -1.422068 7.396862 -6.953005 -16.346227 
106.449097 90.904060 32.467770 89.874921 6.536641 92.116760 177.603920 -3.619708 -175.603685 -22.879872 -4.721632 -6.142452 79.570823 3.900917 -2.093607 21.454555 0.003091 0.000002 177.735469 9.201708 -171.389595 -27.858976 2.612409 2.231918 77.874176 -0.073213 6.103222 21.454558 -0.003112 -0.000017 8.222259 -0.997799 0.006578 6.433017 -1.994462 -0.042112 6.114712 -1.994533 -0.030057 -2.160730 -6.048138 -6.348182 -17.547079 15.249690 -13.362920 176.413118 -78.772401 2.107715 -48.237487 47.595818 0.239098 -46.359875 -17.414588 1.796511 5.457468 -6.101387 35.519992 -164.613788 69.015080 17.227812 -0.529330 -57.907437 -18.399729 -30.700123 17.419218 -1.425297 7.047390 -2.929137 -15.233241 
106.618599 91.128197 32.109421 89.992797 6.501310 92.163253 177.871213 -3.404699 -175.636907 -21.832698 -4.639847 -6.149096 79.125549 3.812896 -2.483060 21.454553 0.003096 0.000000 -178.662750 8.956103 -171.639949 -20.785620 3.424328 3.090003 78.744022 -0.744896 6.163786 21.454557 -0.003105 -0.000016 8.024237 -0.990424 0.143640 6.034494 -1.986999 0.235700 5.716187 -1.985409 0.247714 -0.866473 -6.407677 -6.540226 -17.801044 15.398245 -13.665981 -179.404658 -78.180702 -2.136799 -47.112469 48.168888 2.453146 -48.144805 -16.977229 1.822763 5.588581 -5.217123 36.749488 -164.117793 69.086318 17.739702 0.669554 -58.005142 -19.079637 -30.909406 17.362635 -1.425236 6.492359 0.202336 -13.463676 
106.702599 91.401657 31.817221 89.854130 6.496220 91.848443 178.323071 -3.560110 -175.695661 -20.657108 -4.705325 -6.284983 78.765776 3.762993 -3.086200 21.454555 0.003103 -0.000001 -175.913708 8.431202 -171.432202 -14.911123 3.707444 3.690845 77.488578 -1.202226 5.851469 21.454560 -0.003114 -0.000019 7.845397 -0.931215 0.309109 5.674020 -1.876444 0.572506 5.355761 -1.872815 0.583830 0.154181 -6.618666 -6.563623 -18.280284 15.419056 -13.766340 -175.878587 -77.413842 -5.719304 -44.839861 48.958666 5.688255 -49.331595 -16.914077 1.856268 5.374061 -4.360175 38.294545 -163.888408 69.130257 17.976344 1.125062 -58.014964 -19.057647 -30.812892 17.255201 -1.416398 6.135798 1.238300 -11.234581 
106.691002 91.563599 31.528419 89.742525 6.567215 91.297370 178.666124 -3.764797 -176.137957 -19.976586 -4.726885 -6.285577 78.712008 3.579798 -3.836133 21.454550 0.003086 -0.000001 -174.150358 8.027798 -170.348879 -10.948698 3.420856 3.039306 75.919349 -0.737270 5.579957 21.454560 -0.003109 -0.000017 7.742089 -0.855191 0.450230 5.465451 -1.730609 0.859885 5.147235 -1.725253 0.870341 0.494927 -6.834456 -6.459592 -18.403591 15.456867 -13.715471 -174.132258 -76.608488 -7.493607 -41.851318 49.964347 8.735832 -49.479618 -16.938261 1.862634 5.112350 -3.079073 40.059070 -163.921480 69.238509 17.941174 0.515085 -57.717127 -18.595501 -30.673485 17.141727 -1.406335 6.687428 0.721796 -9.304116 
106.614197 91.652061 31.178829 89.747231 6.604629 90.610908 178.882900 -3.827202 -177.120302 -19.500849 -4.483541 -6.034471 78.720177 3.192283 -4.663427 21.454553 0.003086 0.000001 -173.583507 8.449289 -170.360204 -9.307212 4.403565 2.736805 75.079208 -0.632446 5.122306 21.454558 -0.003105 -0.000019 7.691272 -0.801649 0.551562 5.362656 -1.627877 1.065701 5.044490 -1.621283 1.075519 0.513226 -6.813222 -6.300910 -18.437314 15.245431 -13.472761 -172.566095 -75.967331 -9.089115 -38.853548 51.164701 11.349216 -48.220210 -16.678407 1.805292 5.562124 -2.364452 39.281005 -164.078916 69.296490 17.778137 -0.746704 -57.250010 -17.880762 -30.691363 17.119791 -1.405293 6.853254 -0.621133 -9.275937 
106.452301 91.678741 30.773500 89.703142 6.635001 89.925246 178.841892 -4.026300 -177.691483 -19.434596 -4.430372 -5.945053 78.944064 2.889581 -5.646050 21.454553 0.003093 -0.000002 -174.251363 8.748900 -171.054998 -9.941806 5.035948 2.670922 75.205772 -0.640782 4.988054 21.454558 -0.003100 -0.000018 7.684105 -0.746672 0.601745 5.348089 -1.520225 1.168677 5.029938 -1.513004 1.177833 0.302462 -6.438964 -6.073777 -18.330990 14.710325 -12.963101 -170.644258 -75.619791 -11.052598 -36.452737 52.555010 13.474578 -45.458683 -16.208722 1.689724 7.152834 -1.546151 37.489314 -164.827696 69.464253 17.003653 -1.911081 -56.809572 -17.128366 -31.183464 17.095919 -1.413791 6.766785 -1.982527 -11.087632 
106.192596 91.623940 30.369780 89.764067 6.776155 89.576845 178.635675 -4.140590 -177.581954 -19.752065 -4.494083 -6.074172 79.209110 2.830918 -6.290630 21.454550 0.003102 0.000001 -175.724894 8.763001 -172.211786 -12.377185 4.977329 2.961159 76.080029 -0.891361 4.941792 21.454558 -0.003103 -0.000017 7.741171 -0.739358 0.592140 5.462398 -1.505715 1.149010 5.144244 -1.498613 1.158077 0.030342 -5.931060 -5.851037 -18.348033 14.336900 -12.517515 -170.158891 -75.690777 -11.549108 -34.793595 53.804467 15.110639 -41.052569 -15.303961 1.505533 7.717556 -1.767593 35.138776 -165.264896 69.408225 16.552581 -3.121739 -56.416717 -16.698112 -31.964906 17.305507 -1.443511 6.827637 -2.741617 -13.224026 
105.916496 91.545898 30.024580 90.069185 6.881754 89.576244 178.398216 -3.934007 -177.350616 -20.008862 -4.411004 -6.180260 79.381142 2.845461 -6.552231 21.454555 0.003091 0.000000 -177.066835 8.853904 -172.412362 -14.747521 4.612603 2.919999 76.933653 -0.955963 4.689137 21.454560 -0.003124 -0.000020 7.797055 -0.806968 0.547701 5.574292 -1.639269 1.056231 5.256105 -1.632719 1.066110 -0.195426 -5.424813 -5.775956 -18.460541 14.039300 -12.262637 -171.369064 -75.891168 -10.312293 -33.169554 54.750769 16.970131 -35.995042 -14.290817 1.312244 8.187762 -3.118511 33.462200 -165.074607 69.138364 16.750892 -3.979764 -56.213638 -16.759691 -32.929312 17.760273 -1.493421 6.532388 -3.118757 -14.505298 
105.648499 91.508133 29.780861 90.405367 7.019625 89.925963 178.332168 -3.676310 -177.338444 -20.008460 -4.189515 -6.052263 79.341404 2.786341 -6.388525 21.454551 0.003087 0.000000 -177.488258 8.982191 -172.405764 -15.713656 4.505437 3.046953 77.472841 -1.086509 4.610021 21.454558 -0.003105 -0.000017 7.857257 -0.878664 0.460819 5.695518 -1.778879 0.878171 5.377294 -1.773394 0.888899 -0.567430 -4.980662 -5.811778 -18.291458 13.699606 -12.077581 -172.456170 -75.928816 -9.201277 -31.431649 55.378747 18.716626 -31.474406 -13.178889 1.141567 8.881596 -5.030002 32.517998 -164.598092 68.890640 17.244993 -4.460681 -56.309910 -16.665303 -33.903338 18.016564 -1.531564 6.167323 -2.827107 -14.488880 
