HIERARCHY
ROOT Hips
{
	OFFSET -211.153198 91.653587 -35.738949
	CHANNELS 6 Xposition Yposition Zposition Zrotation Yrotation Xrotation 
	JOINT LeftUpLeg
	{
		OFFSET 0.103455 1.857827 10.548507
		CHANNELS 3 Zrotation Yrotation Xrotation
		JOINT LeftLeg
		{
			OFFSET 43.500000 -0.000031 0.000008
			CHANNELS 3 Zrotation Yrotation Xrotation
			JOINT LeftFoot
			{
				OFFSET 42.372192 0.000011 -0.000014
				CHANNELS 3 Zrotation Yrotation Xrotation
				JOINT LeftToe
				{
					OFFSET 17.299997 -0.000002 0.000013
					CHANNELS 3 Zrotation Yrotation Xrotation
					End Site
					{
						OFFSET 0.000000 0.000000 0.000000
					}
				}
			}
		}
	}
	JOINT RightUpLeg
	{
		OFFSET 0.103457 1.857826 -10.548499
		CHANNELS 3 Zrotation Yrotation Xrotation
		JOINT RightLeg
		{
			OFFSET 43.500046 -0.000019 0.000015
			CHANNELS 3 Zrotation Yrotation Xrotation
			JOINT RightFoot
			{
				OFFSET 42.372261 -0.000004 0.000013
				CHANNELS 3 Zrotation Yrotation Xrotation
				JOINT RightToe
				{
					OFFSET 17.299992 -0.000006 0.000004
					CHANNELS 3 Zrotation Yrotation Xrotation
					End Site
					{
						OFFSET 0.000000 0.000000 0.000000
					}
				}
			}
		}
	}
	JOINT Spine
	{
		OFFSET 6.901968 -2.603730 -0.000002
		CHANNELS 3 Zrotation Yrotation Xrotation
		JOINT Spine1
		{
			OFFSET 12.588100 -0.000001 0.000009
			CHANNELS 3 Zrotation Yrotation Xrotation
			JOINT Spine2
			{
				OFFSET 12.343201 0.000005 -0.000005
				CHANNELS 3 Zrotation Yrotation Xrotation
				JOINT Neck
				{
					OFFSET 25.832893 -0.000008 -0.000006
					CHANNELS 3 Zrotation Yrotation Xrotation
					JOINT Head
					{
						OFFSET 11.766606 0.000005 0.000008
						CHANNELS 3 Zrotation Yrotation Xrotation
						End Site
						{
							OFFSET 0.000000 0.000000 0.000000
						}
					}
				}
				JOINT LeftShoulder
				{
					OFFSET 19.745903 -1.480373 6.000100
					CHANNELS 3 Zrotation Yrotation Xrotation
					JOINT LeftArm
					{
						OFFSET 11.284123 -0.000007 -0.000024
						CHANNELS 3 Zrotation Yrotation Xrotation
						JOINT LeftForeArm
						{
							OFFSET 33.000053 0.000004 0.000036
							CHANNELS 3 Zrotation Yrotation Xrotation
							JOINT LeftHand
							{
								OFFSET 25.200006 0.000021 -0.000003
								CHANNELS 3 Zrotation Yrotation Xrotation
								End Site
								{
									OFFSET 0.000000 0.000000 0.000000
								}
							}
						}
					}
				}
				JOINT RightShoulder
				{
					OFFSET 19.746101 -1.480381 -6.000079
					CHANNELS 3 Zrotation Yrotation Xrotation
					JOINT RightArm
					{
						OFFSET 11.284133 -0.000015 -0.000008
						CHANNELS 3 Zrotation Yrotation Xrotation
						JOINT RightForeArm
						{
							OFFSET 33.000099 0.000016 0.000006
							CHANNELS 3 Zrotation Yrotation Xrotation
							JOINT RightHand
							{
								OFFSET 25.199781 0.000142 0.000425
								CHANNELS 3 Zrotation Yrotation Xrotation
								End Site
								{
									OFFSET 0.000000 0.000000 0.000000
								}
							}
						}
					}
				}
			}
		}
	}
}
MOTION
Frames: 51
Frame Time: 0.033333
-51.844509 58.622299 55.761009 109.125898 -22.833560 62.430839 82.279628 -13.517704 167.699517 -99.957681 1.490064 -0.989710 89.860161 0.266909 -1.773128 21.454555 0.003084 -0.000000 89.641759 37.254205 158.443313 -94.607512 -1.267583 -5.942138 103.682811 5.593798 27.645788 21.454558 -0.003110 -0.000017 19.109838 1.878525 1.516112 28.269695 3.331131 3.445581 27.951636 3.352021 3.425433 -9.250241 -22.473636 -8.645273 -27.615693 23.130912 -25.953880 22.666217 -77.944616 155.852103 -48.493909 -16.835212 -58.351160 -85.359647 -12.791763 2.997975 2.852925 -3.770340 73.181830 94.377682 66.268367 -86.046935 -48.081701 -4.900266 22.604550 -28.232324 13.888775 -1.151451 13.492905 37.825137 11.412788 
-53.468819 59.340149 55.095718 106.658800 -21.281170 64.173746 85.101917 -13.665203 170.109345 -98.384374 1.312096 -0.251491 88.962845 -0.397310 -2.665471 21.454553 0.003095 0.000001 94.182892 37.722199 163.477422 -94.999783 -1.952986 -5.602779 103.765607 5.265538 25.988673 21.454557 -0.003115 -0.000019 18.973311 1.937294 1.446457 27.997678 3.468321 3.319145 27.679528 3.488425 3.298168 -9.313514 -20.099987 -8.971184 -27.218008 22.161835 -25.077007 33.140652 -78.935554 145.516688 -53.224673 -14.843167 -59.768199 -88.523384 -10.269554 2.959668 1.084897 -4.547984 72.026442 97.480200 67.246996 -82.866341 -49.938563 -6.901548 23.975299 -28.825389 15.163575 -1.243982 11.980063 27.795366 9.078019 
-55.069221 60.766441 54.290371 104.270207 -20.154510 64.954880 88.093861 -14.603201 173.182520 -95.731139 0.620131 0.486359 87.703297 -1.099036 -3.647455 21.454551 0.003091 -0.000001 98.822469 36.425713 168.128781 -94.395817 -1.896876 -4.660755 101.969110 4.884374 24.208724 21.454558 -0.003109 -0.000015 18.852120 1.903065 1.605561 27.757453 3.366749 3.621349 27.439452 3.388668 3.600991 -10.492669 -18.779588 -8.982581 -26.384561 21.297758 -24.287654 46.326004 -79.059597 132.510082 -57.432281 -12.297558 -57.866961 -90.401174 -8.615441 2.926407 -0.859614 -7.200395 66.562413 98.803590 68.730404 -81.410029 -51.140461 -7.135990 25.214290 -28.413300 15.782038 -1.275871 12.754420 15.629001 10.785335 
-56.249760 62.485161 53.455139 104.432500 -19.309737 64.873335 91.031750 -14.969405 173.972281 -92.017668 -0.175259 0.823608 86.146068 -1.557828 -4.639718 21.454550 0.003084 -0.000001 100.900069 35.257505 169.682458 -92.927107 -1.754901 -3.831730 101.339592 4.334155 22.921963 21.454562 -0.003112 -0.000018 18.332574 1.431621 1.400801 26.692955 2.502285 3.094173 26.375033 2.521045 3.079034 -11.427972 -17.656201 -8.704831 -25.443421 20.534142 -23.240429 62.781890 -79.899389 116.144963 -61.756002 -8.751806 -52.460012 -91.079350 -8.261362 2.931654 -2.487021 -8.522067 62.837966 98.486355 69.361568 -81.669064 -51.662031 -6.648442 27.810961 -26.618975 14.068244 -1.134699 13.353318 3.989596 12.509569 
-57.516140 64.717262 52.644539 103.437102 -18.034368 65.855058 95.216163 -14.742702 175.355750 -87.232184 -1.126495 1.140709 84.203037 -1.997330 -5.399536 21.454555 0.003105 0.000003 105.682479 34.602705 172.640094 -90.119019 -1.174747 -3.174246 100.900001 3.813474 21.473847 21.454558 -0.003102 -0.000017 18.046497 1.224988 1.291867 26.111241 2.127456 2.826836 25.793333 2.144618 2.813959 -12.255000 -16.304708 -8.458975 -24.687041 19.687621 -22.150918 73.341636 -79.426330 105.694309 -65.373899 -3.233068 -47.782812 -90.354783 -8.869636 2.942285 -2.184090 -6.482963 61.526897 96.064200 70.739764 -83.960087 -52.552691 -6.493291 27.100773 -25.767058 13.339608 -1.073957 14.329766 -0.821354 8.625407 
-58.810230 67.284477 51.761921 102.164802 -16.930557 66.633461 99.694732 -14.935694 176.747469 -81.655745 -2.025787 1.379734 81.941165 -2.407131 -6.054951 21.454555 0.003085 0.000002 110.694130 33.030901 175.909651 -86.651871 -0.806729 -2.074420 99.110710 3.242442 20.190816 21.454558 -0.003110 -0.000016 17.702973 1.013134 1.309276 25.417226 1.714391 2.809056 25.099388 1.731450 2.798678 -12.236090 -14.285532 -8.643385 -24.619769 17.907320 -20.922290 77.313022 -78.384344 101.848660 -67.902496 3.853804 -43.871900 -88.652085 -9.881639 2.937945 0.578168 -4.001100 62.023186 95.087414 72.114374 -84.809872 -53.366682 -6.581156 22.213916 -25.556515 14.047878 -1.115854 14.397303 1.838071 -2.819245 
-60.215691 69.907158 50.879761 100.525802 -15.639429 67.450126 104.609845 -15.390496 178.151401 -75.648901 -2.756170 1.568640 79.480022 -2.838013 -6.735857 21.454553 0.003092 0.000000 115.866346 30.799314 178.560433 -83.048530 -0.542930 -1.304869 96.334962 3.095431 19.473127 21.454555 -0.003103 -0.000017 17.410540 0.864534 1.332897 24.827896 1.423298 2.820183 24.510110 1.440418 2.811564 -12.987022 -12.840062 -8.450340 -24.193713 16.493348 -19.662578 81.510637 -77.557420 97.765764 -69.246036 11.651907 -40.684729 -86.497707 -10.893529 2.913737 3.284407 -1.867693 66.418535 97.197963 72.905624 -82.633459 -53.504475 -6.179973 16.698650 -26.253012 14.671605 -1.167102 12.029910 4.684474 -14.521467 
-61.694611 72.529053 49.986031 98.764126 -14.102121 68.534733 109.959871 -15.775797 179.372242 -69.082323 -3.339057 1.650284 76.623828 -3.261397 -7.424411 21.454555 0.003087 -0.000001 121.075212 28.344189 179.836695 -79.366361 -0.084715 -1.117256 92.852426 3.464835 18.983157 21.454560 -0.003108 -0.000017 17.186841 0.805530 1.306946 24.378509 1.317913 2.754197 24.060723 1.334626 2.746214 -14.209651 -12.450585 -8.001815 -23.663633 15.959509 -18.879975 86.071298 -77.568826 93.252211 -69.969455 19.598688 -37.274757 -83.502000 -12.154871 2.870388 1.914246 -2.150027 72.563226 98.729592 73.649691 -81.037244 -53.439926 -6.360012 13.815173 -28.145046 15.252485 -1.237156 10.210154 6.220566 -21.558655 
-63.302330 75.029457 48.999329 97.220564 -12.495998 70.044389 115.473938 -15.880996 -179.697810 -61.832767 -3.783366 1.665108 73.386886 -3.693338 -8.057647 21.454555 0.003094 0.000002 126.114443 25.830003 179.372051 -75.533655 0.200164 -1.914732 89.503509 4.435646 18.098150 21.454557 -0.003109 -0.000018 16.890103 0.815968 1.298536 23.785277 1.347745 2.737057 23.467492 1.364385 2.728890 -14.322611 -11.391399 -7.806905 -24.094729 15.040418 -18.041280 90.362720 -77.296711 89.018593 -69.395371 27.870372 -34.914964 -80.992158 -13.134023 2.829300 0.894267 -1.867504 75.792683 101.377035 75.084994 -78.262008 -53.690867 -7.296741 12.918624 -29.979674 15.359060 -1.278499 9.151148 6.825453 -20.043832 
-64.985497 77.299568 47.967251 96.305818 -10.846423 72.077771 121.168676 -15.439301 -179.525785 -53.731688 -3.984678 1.826412 69.819382 -4.189506 -8.347467 21.454551 0.003099 -0.000000 131.383825 23.632600 176.746868 -70.917485 0.796853 -2.982551 88.294921 5.180077 17.043031 21.454557 -0.003103 -0.000018 16.539552 0.827101 1.220652 23.083826 1.394105 2.581788 22.765989 1.409811 2.573344 -14.738973 -10.327202 -7.929934 -24.097526 13.920942 -17.371901 98.086113 -77.594801 81.287441 -67.717835 35.654031 -32.774734 -79.401714 -13.731641 2.802069 1.875585 -1.290533 75.858854 106.201095 76.859135 -73.274413 -53.976939 -8.610608 11.779126 -31.713723 15.819504 -1.342965 9.009552 6.566103 -13.299469 
-66.668190 79.151649 47.054100 95.655249 -8.955078 74.946703 127.026724 -14.921293 179.800523 -45.273998 -4.516211 2.659826 66.043531 -4.904886 -7.832059 21.454555 0.003100 0.000001 137.695398 21.937698 174.784882 -65.828612 1.093957 -3.262032 89.681948 4.956962 16.005029 21.454562 -0.003106 -0.000016 16.162867 0.916610 1.113350 22.331891 1.601093 2.382770 22.013951 1.615564 2.373082 -14.656802 -9.921902 -8.177987 -24.097205 13.402877 -17.257183 106.321627 -78.291303 72.987388 -64.800948 42.854400 -30.006285 -78.056857 -13.900261 2.755544 2.007762 -1.754627 73.301563 115.541420 78.301521 -63.777117 -53.447340 -10.068279 10.547230 -33.712605 16.030625 -1.399534 9.277039 6.287234 -7.057625 
-68.232521 80.478737 46.295219 95.420946 -7.135008 78.414854 132.175731 -14.273398 176.972046 -38.248909 -4.482613 3.125185 63.640554 -4.455621 -5.437082 21.454551 0.003089 -0.000001 143.652539 21.345989 176.763452 -61.875196 1.036161 -0.631747 92.162843 2.724599 16.076631 21.454557 -0.003098 -0.000018 15.656897 1.046754 0.989074 21.321836 1.893198 2.154333 21.003790 1.906290 2.142888 -13.479308 -9.800813 -8.659786 -24.876563 13.027359 -17.570979 116.562410 -78.936011 62.657997 -59.854894 48.885966 -25.689547 -76.707177 -14.294527 2.725072 1.001735 -1.038767 70.612360 125.996363 79.853961 -53.132277 -52.410285 -12.547944 9.788347 -36.112511 16.444444 -1.481650 9.295829 5.710361 -3.789296 
-69.489906 81.662987 45.557331 95.443663 -5.471204 81.604956 136.370587 -13.726506 174.558270 -34.100539 -3.958107 -2.084626 65.755864 -0.624269 -5.749377 21.454550 0.003093 -0.000000 148.254966 21.568807 -178.826223 -59.020614 0.111641 1.298992 92.636906 1.262702 15.707495 21.454562 -0.003112 -0.000016 15.111923 1.140839 1.013031 20.234628 2.086711 2.210362 19.916557 2.100155 2.197738 -12.256990 -9.142666 -9.460102 -25.513391 12.166729 -17.802545 128.624183 -79.411761 50.482686 -53.913166 53.322396 -21.331089 -74.992028 -14.439655 2.661813 0.448074 -0.866032 66.039098 140.781933 80.733335 -38.162060 -50.410959 -14.911377 8.166437 -38.591832 17.169953 -1.590225 8.521214 5.353770 -2.797800 
-70.462753 82.550163 45.006081 95.332495 -3.508359 83.926339 140.195616 -13.805300 172.242809 -32.678203 -3.001062 -10.921624 68.226384 4.795290 -8.999708 21.454551 0.003095 0.000001 152.021132 21.611098 -176.128531 -57.183361 -0.489624 1.657807 91.982007 1.056646 15.331183 21.454558 -0.003114 -0.000016 14.649936 1.248040 1.190529 19.316624 2.279550 2.573283 18.998619 2.295188 2.559485 -11.293444 -9.543382 -10.046827 -25.884390 11.829521 -18.344208 143.585097 -79.582099 35.369486 -47.829598 56.178852 -16.801678 -72.509247 -14.666721 2.572741 -0.337810 -1.597642 60.767121 152.953262 81.349711 -25.831033 -47.622493 -17.244605 6.304812 -40.923106 17.658288 -1.683843 7.299487 5.781218 -3.286955 
-71.185081 83.211304 44.742882 95.304471 -1.416346 85.620239 143.669915 -14.382900 169.742099 -34.361473 -1.764415 -16.355861 68.191769 7.560301 -12.470448 21.454551 0.003088 -0.000001 155.563364 21.902209 -174.427677 -55.752242 -0.170321 1.887268 91.279543 0.898044 14.774696 21.454560 -0.003118 -0.000018 14.195344 1.292104 1.408759 18.412662 2.343218 3.005928 18.094751 2.361461 2.991745 -9.780898 -10.158977 -10.578408 -26.836974 11.571806 -18.964562 154.471913 -79.387391 24.361804 -41.103010 58.131740 -11.508951 -69.462395 -15.323350 2.492067 -0.899208 -3.902261 55.752355 163.951191 81.280822 -14.711324 -44.398887 -19.199039 3.568373 -42.532367 18.074806 -1.755938 6.078106 6.001377 -4.871144 
-71.647331 83.758476 44.593811 95.315345 0.258348 87.128400 146.695046 -15.463699 169.164128 -38.301662 -1.227652 -14.251117 69.015298 6.456112 -11.366559 21.454553 0.003097 0.000000 158.742339 22.511504 -172.102845 -54.299857 0.101685 1.706981 90.744719 0.993753 14.152302 21.454562 -0.003097 -0.000018 13.655093 1.288439 1.555689 17.334539 2.328862 3.287650 17.016732 2.348803 3.273550 -9.051923 -10.251019 -10.835244 -27.192028 10.853564 -18.908860 164.884100 -79.306324 13.805388 -35.455649 59.112931 -6.967206 -64.997214 -15.897118 2.351840 -0.598825 -5.978877 50.802896 175.457683 80.800229 -3.070854 -41.666063 -20.952005 0.638112 -43.114500 18.155259 -1.777865 5.304160 5.862585 -5.483172 
-71.767197 84.237267 44.506458 95.253429 1.688681 88.593325 149.671834 -16.175305 170.932751 -42.733499 -1.048227 -9.265769 71.013764 3.628148 -9.397018 21.454551 0.003077 -0.000000 161.784806 23.237101 -169.655233 -52.731533 0.446056 1.277404 90.065033 1.284828 13.606883 21.454560 -0.003109 -0.000017 13.063232 1.295309 1.655320 16.152822 2.346430 3.476116 15.835070 2.367496 3.461911 -8.515419 -10.541664 -10.895972 -27.133137 10.073869 -18.630618 171.561484 -78.822521 7.039501 -29.597242 59.409149 -2.720528 -60.254740 -16.429228 2.205427 0.555418 -7.344046 46.742191 -173.661193 80.027107 7.958350 -39.114144 -22.797824 -2.102417 -43.035308 18.048771 -1.768602 5.356360 5.589174 -6.099194 
-71.710533 84.827179 44.404579 94.901223 2.996414 89.746773 153.097734 -16.542091 175.202726 -46.237799 -1.887724 -6.795783 73.370541 2.549101 -7.705397 21.454551 0.003087 0.000001 164.853760 23.249602 -167.866283 -50.515512 0.842800 1.161193 88.957108 1.441008 13.341735 21.454558 -0.003110 -0.000017 12.480193 1.310730 1.702302 14.988112 2.389513 3.560946 14.670377 2.411072 3.546489 -7.510129 -10.660536 -10.785190 -27.469732 9.403786 -18.198279 176.525133 -78.441847 2.001224 -24.196900 59.164355 1.592028 -54.982517 -17.281668 2.071265 2.434213 -8.013126 42.769685 -166.731584 78.898425 15.000173 -36.733734 -24.652581 -4.189962 -42.193453 17.852916 -1.731818 5.701915 4.852862 -7.186127 
-71.556702 85.515007 44.273979 94.340984 3.976610 90.272349 157.035174 -16.745604 178.920890 -48.287692 -2.333091 -7.037642 75.525636 2.950927 -7.398572 21.454550 0.003095 0.000001 167.443891 22.604397 -166.956857 -47.786186 1.188306 1.295002 87.500358 1.485387 13.237404 21.454560 -0.003106 -0.000017 11.880806 1.282324 1.745137 13.789031 2.347149 3.631531 13.471342 2.369153 3.617337 -6.920770 -10.624111 -10.539227 -26.900415 8.768188 -17.525251 -177.994839 -78.300107 -3.574070 -19.767805 58.458831 5.582769 -49.333760 -17.760457 1.912732 4.826901 -7.020794 37.817535 -162.894807 77.552556 18.916817 -34.529215 -26.295182 -6.260762 -40.643672 17.654728 -1.675999 5.753031 4.102129 -8.019124 
-71.204697 86.154289 44.083019 93.744182 4.489145 90.728674 161.030357 -16.568495 -178.623886 -48.581858 -2.062538 -7.908422 76.870268 3.941704 -6.281026 21.454551 0.003082 0.000002 169.422228 21.729098 -166.664990 -44.966424 1.379295 1.748828 85.937010 1.387871 13.517404 21.454558 -0.003124 -0.000018 11.234763 1.245883 1.703677 12.494791 2.300210 3.532712 12.177075 2.321621 3.518786 -6.669524 -10.589895 -10.182264 -26.001668 8.398360 -16.859755 -173.525860 -78.142794 -8.123509 -15.788851 57.076588 9.460654 -43.443384 -17.184418 1.695134 7.078001 -5.498342 32.073510 -160.172294 75.970794 21.714671 -32.346570 -27.710221 -7.987784 -39.018023 17.185463 -1.602248 6.159383 4.101724 -8.542838 
-70.744888 86.687439 43.788940 93.087282 4.542215 91.514372 164.802192 -16.284199 -176.928278 -46.727342 -1.605875 -8.031991 78.364174 4.464660 -4.783986 21.454553 0.003088 0.000000 171.032527 20.915494 -166.613312 -42.133074 1.908559 2.454702 84.532252 1.105515 13.894389 21.454560 -0.003106 -0.000017 10.524457 1.225711 1.558375 11.070740 2.296510 3.227540 10.752904 2.316072 3.213642 -6.589584 -10.014014 -9.788977 -24.489508 7.806128 -15.886040 -170.088922 -78.442817 -11.624785 -12.549060 55.826466 13.257561 -37.463072 -16.028642 1.460269 8.250738 -3.498501 27.850305 -157.786795 74.311809 24.181986 -30.045135 -29.189742 -9.416591 -37.411583 16.845470 -1.539312 6.624181 4.147079 -8.589338 
-70.141197 87.029587 43.428570 92.205436 4.350737 92.380446 168.602140 -16.327692 -176.268481 -42.647192 -1.077536 -6.181833 78.354967 3.199292 -4.586844 21.454550 0.003102 -0.000002 172.304854 20.027301 -166.099491 -39.486369 2.158258 3.002168 83.355273 0.933199 14.330625 21.454562 -0.003113 -0.000018 9.817905 1.249570 1.342443 9.654076 2.382686 2.785064 9.336087 2.399601 2.770634 -6.899184 -9.724163 -9.112606 -22.342247 7.793207 -14.927471 -168.765765 -78.620941 -12.971807 -9.102719 54.285145 17.221084 -32.724495 -14.691604 1.265115 9.837353 -1.003940 26.790883 -155.923301 73.110550 26.115959 -27.556374 -30.984542 -10.409927 -35.837402 16.624759 -1.486736 6.946180 4.034295 -7.896107 
-69.264793 87.119881 42.986450 91.191932 4.192347 93.361924 172.465159 -16.569301 -175.166526 -36.929955 -1.153037 -3.498700 77.021284 0.282815 -8.171984 21.454550 0.003097 -0.000001 173.546200 19.335398 -165.744171 -37.023327 2.715773 3.596088 82.574043 0.692829 14.843548 21.454557 -0.003101 -0.000016 9.223248 1.284115 1.075405 8.460024 2.486168 2.242236 8.141851 2.499811 2.227188 -7.561046 -8.474623 -8.602914 -20.417589 7.273906 -13.753148 -165.854888 -79.197894 -15.931597 -7.043864 53.114061 20.359346 -28.997254 -13.411362 1.108665 11.354792 2.063359 30.287214 -154.989396 71.531110 27.110151 -24.965199 -31.973591 -11.231684 -34.710116 16.185658 -1.432056 7.163286 4.265816 -7.244508 
-68.197357 87.152199 42.562740 90.426691 4.404954 94.238312 176.917937 -16.243511 -174.634577 -29.701675 -1.151294 -6.346882 79.292219 0.514871 -16.129437 21.454557 0.003085 -0.000000 175.491356 18.923913 -166.003786 -33.887772 3.677547 4.486135 82.188677 0.205141 15.468196 21.454560 -0.003116 -0.000017 8.827460 1.269887 0.848581 7.663151 2.480819 1.779652 7.344893 2.491656 1.764647 -8.639556 -7.239498 -8.349759 -18.380997 6.922684 -12.931221 -164.621834 -79.478656 -17.183544 -6.160985 51.923993 22.853611 -26.414751 -12.737563 1.020138 13.137564 5.406499 36.626514 -154.527115 69.755684 27.627623 -22.035821 -32.422017 -12.059122 -34.092865 15.830925 -1.395172 7.678245 4.218465 -6.296688 
-67.065697 87.531723 42.010059 90.588382 4.542513 95.103499 -179.919559 -15.662903 -178.503251 -23.499264 -0.316565 -5.778661 80.295171 -0.269291 -18.269366 21.454551 0.003091 -0.000002 177.680650 19.121796 -165.596953 -29.830595 3.803965 5.151044 81.040440 0.010943 16.135381 21.454558 -0.003111 -0.000016 8.597706 1.075065 0.630435 7.196004 2.108873 1.326552 6.877756 2.116982 1.313788 -9.793113 -6.867447 -8.166955 -17.360685 7.464336 -12.819790 -163.285726 -79.498279 -18.541380 -7.183697 51.095597 23.489878 -25.056583 -12.283573 0.969208 16.020707 7.969492 47.272958 -153.983992 68.419603 28.220762 -19.166829 -33.372830 -12.827206 -33.722604 15.892742 -1.390880 7.685156 4.315310 -5.471738 
-65.504761 88.077881 41.288540 91.985129 4.898969 96.503463 -178.683295 -13.980310 178.414049 -20.377559 -0.406850 -3.322538 79.237994 -1.594301 -15.854870 21.454550 0.003075 -0.000001 -179.846681 20.841194 -164.115608 -26.074628 3.557878 5.492226 78.679142 0.265992 16.872977 21.454558 -0.003109 -0.000018 8.653317 0.644338 0.327603 7.298075 1.266702 0.695119 6.979935 1.271007 0.687464 -11.650652 -8.071813 -8.110310 -16.795705 9.208432 -13.771977 -161.649213 -78.549156 -20.215919 -10.743939 49.821042 21.959789 -24.155459 -11.794391 0.924085 18.164246 8.423465 57.146629 -154.711899 66.985311 27.502861 -16.203388 -34.292819 -12.823508 -33.509960 15.994662 -1.392737 7.729438 5.006597 -4.831763 
-63.468781 88.428543 40.256130 94.076246 4.939548 97.858627 -179.068408 -11.769896 179.447743 -19.836273 -3.011711 -3.103272 78.221478 -1.134566 -13.125106 21.454555 0.003099 0.000001 -178.258840 23.889895 -162.063286 -23.505792 3.263386 5.403063 76.065857 0.905817 17.529839 21.454560 -0.003111 -0.000017 8.787049 -0.010983 0.210002 7.561186 -0.035699 0.418834 7.243104 -0.033035 0.419054 -13.240653 -9.333135 -8.560293 -16.306821 11.311898 -15.388683 -162.522630 -78.230692 -19.330216 -15.014404 49.033655 19.717627 -23.767902 -11.607761 0.906394 18.610607 6.904302 65.062196 -154.865401 65.436621 27.380697 -12.763096 -36.922442 -11.905255 -33.185451 16.835334 -1.439634 7.968221 6.578705 -4.532233 
-61.411621 88.674492 38.902061 95.399165 3.607398 98.434350 178.862683 -9.783909 178.554204 -20.154695 -4.545508 -2.184573 77.892823 -1.137424 -10.611863 21.454555 0.003084 0.000001 -179.147188 26.270992 -160.715021 -21.618522 2.355404 5.130279 72.890570 1.899041 18.418030 21.454560 -0.003113 -0.000018 8.541621 -0.553505 0.311904 7.067843 -1.125017 0.589525 6.749683 -1.121308 0.596319 -12.922509 -10.652857 -9.190033 -15.919443 13.310692 -17.042097 -165.813688 -78.438985 -15.977563 -17.495292 49.367088 18.396443 -24.950259 -12.193616 0.961780 17.849438 4.413197 68.654985 -153.070003 65.333143 29.246795 -8.581384 -42.110257 -10.504625 -32.378092 17.222119 -1.446955 7.768176 7.493980 -4.382305 
-59.584549 88.967667 37.498150 96.116915 2.312907 98.380385 177.127241 -7.300197 -177.219216 -19.493418 -5.593134 -4.811788 77.386836 0.883494 -9.969663 21.454550 0.003086 0.000001 178.796690 27.625506 -160.691197 -20.745009 1.410800 5.943763 69.989201 1.447680 17.399678 21.454555 -0.003117 -0.000018 8.312518 -0.926870 0.453781 6.606043 -1.878069 0.854195 6.287808 -1.872746 0.865525 -12.443463 -12.157180 -9.448706 -15.217907 15.218582 -18.257181 -167.839085 -77.992141 -13.916339 -19.533062 49.593280 17.676842 -27.001599 -13.095910 1.053005 15.641312 2.336496 65.778560 -152.286007 66.401214 30.030563 -3.211846 -47.646758 -9.742717 -32.393176 17.074481 -1.437814 8.414639 7.524924 -4.777072 
-58.068359 89.241982 36.158489 96.396017 1.594223 97.938363 176.044656 -5.035801 -175.834396 -18.985199 -4.704067 -6.247437 76.840202 1.860774 -9.886910 21.454550 0.003084 0.000000 175.987515 27.834194 -163.087255 -22.032875 1.469096 9.571635 69.731300 -2.476258 13.633341 21.454557 -0.003099 -0.000018 8.292294 -1.144861 0.520607 6.563189 -2.317342 0.975837 6.244883 -2.311281 0.989828 -13.314348 -14.327587 -9.011117 -13.828552 17.055505 -18.929188 -166.901546 -76.073909 -14.878508 -21.896314 48.800459 16.635329 -29.368222 -13.762840 1.138183 12.889754 0.546876 58.326496 -152.512004 67.940083 29.754295 1.184797 -52.313331 -10.634965 -31.443998 17.242370 -1.428547 8.193570 5.286436 -4.375473 
-56.954399 89.542374 34.922329 96.233240 1.315506 97.574621 175.628015 -4.497184 -177.418549 -18.024920 -4.653013 -5.766065 75.919670 1.736471 -8.808402 21.454555 0.003103 0.000000 172.603552 26.792406 -165.417715 -26.832963 1.409002 12.068243 73.189486 -5.891887 9.500041 21.454557 -0.003105 -0.000016 8.376010 -1.351583 0.542683 6.729056 -2.732325 1.006379 6.410620 -2.726082 1.022879 -13.448823 -14.508561 -8.958402 -14.370513 17.660060 -19.256948 -167.159796 -74.846019 -14.618493 -23.481135 48.255136 15.188444 -31.836932 -14.164226 1.212556 9.957335 -1.002958 47.923018 -153.355587 67.968790 28.881595 2.765301 -54.498547 -13.369715 -28.776618 16.652527 -1.338141 7.872446 3.134427 -4.848738 
-56.196091 89.785393 33.874611 95.772455 1.431670 97.886480 175.421142 -4.643199 -178.806580 -17.286464 -4.762416 -4.903559 75.023378 1.356402 -7.753983 21.454550 0.003099 -0.000001 169.809663 24.677093 -165.473108 -33.918562 0.393550 11.568332 76.370982 -5.985574 8.486368 21.454562 -0.003115 -0.000018 8.505530 -1.470062 0.341332 6.992845 -2.958043 0.593623 6.674313 -2.954273 0.611495 -12.869196 -13.341970 -8.949247 -15.761712 17.124280 -18.922139 -169.196353 -74.856722 -12.533300 -23.621420 49.216291 13.352663 -34.665560 -14.769618 1.312676 7.891683 -2.387791 37.028641 -153.970099 67.752895 28.251768 2.574392 -56.216610 -16.062807 -25.963723 15.962849 -1.244507 7.531014 1.539204 -8.011583 
-55.661339 90.014999 33.008469 95.003109 1.690036 98.532439 175.219105 -5.096896 179.995579 -16.803447 -4.564165 -3.927582 74.222812 0.833165 -6.969030 21.454555 0.003103 -0.000001 167.969569 21.598918 -164.528301 -40.861743 -0.694125 9.222638 78.509295 -4.662506 7.452225 21.454558 -0.003110 -0.000018 8.594706 -1.463326 0.012146 7.179743 -2.924603 -0.066334 6.861203 -2.924833 -0.048637 -12.459740 -12.395830 -8.842669 -16.022189 16.913896 -18.476336 -170.216251 -75.526005 -11.490099 -23.626285 51.245632 11.631134 -37.472911 -15.411775 1.420474 7.264438 -2.819846 29.047954 -154.452311 67.691027 27.754540 2.169435 -57.653873 -17.519946 -24.499523 15.363828 -1.182990 7.555702 -1.064318 -13.334414 
-55.154202 90.242073 32.285480 94.337261 1.964023 98.843772 175.305001 -5.296395 178.876330 -16.063586 -4.090059 -3.238320 73.385670 0.437218 -6.464382 21.454551 0.003080 -0.000000 166.865674 18.092000 -164.644756 -46.304291 -0.836474 6.642383 80.051224 -2.965109 7.175733 21.454553 -0.003106 -0.000019 8.600254 -1.440341 -0.239870 7.197016 -2.863029 -0.568867 6.878497 -2.866291 -0.551517 -11.700358 -11.734820 -8.724027 -15.930976 16.871559 -18.068596 -171.726733 -76.132717 -9.947782 -23.343041 53.189723 10.540707 -40.150721 -15.907157 1.520926 7.501014 -2.619773 25.645624 -154.711489 67.832446 27.483179 2.505398 -58.821828 -19.211586 -24.003587 15.389171 -1.177022 7.728603 -4.893513 -17.525910 
-54.586460 90.429337 31.715981 93.934820 2.371453 98.874057 175.630023 -5.236796 178.362153 -15.460470 -3.826651 -3.039461 72.780290 0.385915 -6.065060 21.454555 0.003101 0.000001 167.115318 14.520285 -165.295045 -49.044785 0.068059 4.779929 81.396109 -1.633274 7.605496 21.454557 -0.003115 -0.000017 8.580562 -1.419066 -0.374435 7.160707 -2.812334 -0.836026 6.842215 -2.817182 -0.819008 -10.741071 -11.167916 -8.521288 -16.062932 16.965049 -17.684893 -173.057569 -76.422290 -8.589691 -23.345353 54.502731 10.051172 -42.404283 -16.274333 1.606049 7.725382 -1.490367 27.975736 -155.102586 68.009730 27.074595 3.453300 -59.437344 -20.234318 -24.223413 15.544559 -1.190216 8.262645 -8.966850 -18.063697 
-53.903931 90.573776 31.253611 94.042211 2.732929 98.743068 176.034165 -4.573591 179.109772 -14.905510 -3.862732 -3.666741 72.335125 0.918755 -5.752519 21.454551 0.003097 0.000001 168.849953 11.482703 -165.910923 -47.686414 1.162987 3.173756 81.467600 -0.381541 8.217944 21.454560 -0.003112 -0.000016 8.515210 -1.473979 -0.423004 7.031795 -2.919642 -0.934872 6.713274 -2.925086 -0.917210 -9.638255 -10.846452 -8.256171 -16.317757 17.308411 -17.414483 -173.226356 -76.710203 -8.419212 -23.955724 55.469237 10.009880 -43.974677 -16.551553 1.668814 7.506491 -0.207694 33.308176 -155.482699 68.218297 26.676854 4.368557 -59.522537 -21.224007 -24.484478 15.565506 -1.195560 8.274572 -12.391131 -15.545010 
-53.146870 90.620422 30.830420 94.680472 2.929152 98.476759 175.998361 -3.458205 -179.456500 -15.097373 -4.334141 -4.711695 72.140820 1.788819 -5.389957 21.454557 0.003102 0.000002 172.022604 9.017589 -166.759560 -41.527120 2.144143 3.262109 81.120251 -0.995916 5.897234 21.454557 -0.003112 -0.000019 8.400940 -1.591053 -0.328711 6.801969 -3.160128 -0.750403 6.483377 -3.164454 -0.731285 -8.309300 -10.714483 -8.158390 -16.688628 17.484091 -17.307611 -173.774069 -76.894031 -7.861432 -24.807797 55.927215 10.362332 -44.960342 -16.695165 1.707044 7.149711 1.196433 40.124923 -155.534322 68.490774 26.617442 5.142715 -59.314900 -22.331288 -24.709283 15.328823 -1.184014 7.874641 -13.907007 -11.292272 
-52.360989 90.734810 30.413759 95.073003 3.177053 98.195977 175.793360 -2.625603 -178.099600 -15.666405 -4.911618 -5.673723 72.323480 2.638549 -4.974013 21.454553 0.003092 0.000002 176.000588 6.935698 -166.958824 -33.528193 1.374413 7.581123 84.813580 -4.525999 4.145333 21.454562 -0.003103 -0.000018 8.320919 -1.598328 -0.086295 6.635236 -3.189140 -0.263916 6.316603 -3.190527 -0.244628 -7.298811 -10.987054 -8.315602 -17.104522 17.717842 -17.614710 -174.270665 -77.199504 -7.357189 -26.318064 56.333542 10.262114 -45.305406 -16.947895 1.733930 6.467768 2.390783 46.690815 -155.091589 68.845664 27.066612 5.693063 -59.301164 -22.961016 -25.358402 15.376023 -1.197302 7.510362 -13.432850 -9.784116 
-51.629059 90.829170 29.939240 94.941439 3.702789 98.276361 175.024444 -2.289801 -177.461128 -17.599622 -5.107809 -5.935371 72.804147 2.947084 -4.688521 21.454550 0.003084 -0.000001 179.883059 5.899989 -165.879217 -26.684939 0.675393 8.125957 86.879152 -4.882364 4.440008 21.454558 -0.003113 -0.000016 8.361839 -1.359907 0.144892 6.710193 -2.725922 0.210985 6.391712 -2.724469 0.227464 -6.817812 -12.177562 -8.409731 -17.390889 18.252277 -18.208186 -175.778716 -76.744620 -5.814095 -27.331593 56.433205 9.725272 -45.393413 -17.204307 1.753479 6.100544 2.905706 50.758202 -155.022386 69.495413 27.123076 5.085112 -58.770452 -24.090431 -26.309201 15.274362 -1.206465 7.747268 -10.616174 -9.755161 
-50.965549 90.743523 29.335510 93.949204 4.060613 98.822974 172.516986 -2.673998 -178.310503 -22.148225 -4.488946 -4.961267 73.552443 2.309968 -4.533051 21.454553 0.003087 -0.000001 -178.159897 5.440591 -166.778494 -23.053161 2.320931 8.584540 86.576104 -5.276860 4.081344 21.454555 -0.003112 -0.000017 8.400028 -0.830493 0.318210 6.783648 -1.678214 0.587390 6.465411 -1.674491 0.597516 -6.571804 -12.980699 -8.598432 -17.748404 18.046965 -18.557513 -176.870904 -76.195241 -4.692529 -28.188961 56.715736 9.256960 -44.237718 -17.087730 1.711724 5.351762 1.122577 50.838812 -155.466225 69.896037 26.656253 3.442066 -57.424563 -25.031392 -27.276012 15.109055 -1.212512 7.565961 -5.952982 -11.260499 
-50.437511 90.649727 28.622101 92.853949 4.454448 99.325642 169.636436 -3.736503 179.611777 -27.072227 -4.067421 -3.174707 72.721946 1.206851 -3.817019 21.454551 0.003089 0.000001 -177.295564 5.315395 -167.781521 -21.365856 4.433516 9.174611 85.500247 -5.810304 3.432303 21.454558 -0.003113 -0.000019 8.525113 -0.196034 0.466399 7.035740 -0.420042 0.920059 6.717684 -0.414354 0.922592 -6.952367 -13.877230 -8.684223 -17.632420 17.700929 -18.742567 -178.176495 -75.561119 -3.349700 -29.010453 57.540362 8.165264 -42.398799 -17.137358 1.662465 5.037950 -1.397058 48.061067 -156.462012 70.101688 25.625328 0.813615 -55.539868 -24.458243 -28.404827 15.433477 -1.253451 7.797870 -2.290888 -13.802261 
-50.033760 90.595543 27.815210 92.357114 3.953727 99.304284 166.006546 -5.172504 175.683967 -31.960613 -3.635278 0.011334 71.028394 -1.518609 -4.890191 21.454557 0.003097 0.000000 -178.139530 5.344399 -168.340066 -20.937533 4.835969 9.389750 84.924305 -5.937502 3.451201 21.454558 -0.003101 -0.000015 8.445715 0.168182 0.543585 6.880070 0.303781 1.096145 6.562033 0.310536 1.094303 -7.411187 -14.040367 -8.468311 -16.876004 16.978004 -18.199433 -179.233152 -75.489389 -2.268191 -28.469832 58.762016 7.921967 -40.128878 -17.031917 1.593711 5.172882 -3.452729 43.252808 -158.179586 70.764100 23.842905 -1.325456 -54.249648 -23.108009 -29.852838 15.960149 -1.314507 7.611596 0.133751 -16.314983 
-49.721039 90.416649 27.176760 91.834393 3.642637 98.996796 163.079564 -7.209104 173.191823 -36.449786 -3.034453 3.553451 71.476010 -5.776084 -9.945856 21.454557 0.003089 0.000000 -179.127175 4.810106 -169.639469 -21.036458 4.459738 10.025872 84.640059 -6.240869 3.982603 21.454557 -0.003110 -0.000016 8.395142 0.386249 0.594791 6.781480 0.737013 1.211157 6.463430 0.744446 1.206686 -8.269822 -13.208209 -8.218853 -15.823057 15.933860 -17.264090 -179.356492 -76.292496 -2.155122 -26.945834 59.657201 8.660961 -38.686301 -16.331264 1.510574 6.026017 -4.069311 39.077794 -158.735809 71.102160 23.264306 -3.815575 -53.452029 -20.960034 -31.860664 16.555970 -1.393273 6.993175 0.850758 -17.017259 
-49.339241 90.219688 26.772039 91.346322 3.848869 98.340592 161.699743 -9.275100 174.794062 -39.557495 -4.036010 6.559710 74.229492 -8.601845 -12.902614 21.454551 0.003093 0.000002 -179.159304 4.634898 -170.843508 -20.648936 4.822161 10.323834 84.311452 -6.414528 4.039312 21.454560 -0.003111 -0.000016 8.426970 0.541095 0.628406 6.847242 1.044105 1.287698 6.529178 1.051989 1.281371 -8.767164 -12.109376 -7.954642 -15.768672 15.094167 -16.461562 -179.957576 -76.845714 -1.550905 -24.009075 59.538315 11.088775 -37.843093 -15.830577 1.456824 6.825317 -3.019268 37.544327 -159.266406 71.078924 22.718444 -6.150062 -52.642655 -18.385314 -34.764215 17.282103 -1.503983 6.940199 0.192185 -16.915110 
-48.905811 90.171547 26.514891 91.174474 4.296758 97.436835 161.826811 -10.608099 176.399170 -41.043812 -4.031846 8.378337 76.970126 -8.958244 -10.789488 21.454551 0.003083 0.000004 -178.563835 4.856788 -171.655754 -19.734351 5.230419 10.247064 83.725285 -6.366227 3.955048 21.454555 -0.003119 -0.000019 8.498821 0.628784 0.614724 6.991941 1.219303 1.266283 6.673842 1.227076 1.258890 -9.062442 -11.472133 -7.513915 -15.933643 14.420963 -15.669887 -179.089800 -76.763478 -2.434984 -21.522411 58.668231 13.789289 -36.244112 -15.206381 1.377492 7.038685 -2.441512 38.683835 -159.521595 71.185536 22.454086 -8.403789 -51.928019 -15.994969 -37.904855 17.739098 -1.609615 6.450234 -0.137279 -15.025494 
-48.450039 90.208092 26.423920 91.103502 4.739467 96.284992 163.475633 -11.152308 178.746078 -40.755869 -3.767705 5.739912 77.423275 -6.586787 -9.345830 21.454551 0.003082 -0.000004 -177.903137 5.134290 -172.389767 -18.790720 5.399027 10.010733 83.055756 -6.199943 3.928623 21.454557 -0.003111 -0.000019 8.499227 0.647980 0.613578 6.992981 1.257748 1.265151 6.674895 1.265501 1.257535 -8.450475 -10.491574 -7.196702 -16.243918 13.449809 -14.747618 -179.067971 -76.172599 -2.447924 -19.391223 57.540478 16.906924 -33.207895 -14.880863 1.287673 6.759134 -2.583615 40.353717 -159.906517 71.339243 22.055535 -9.911841 -51.334305 -14.719167 -40.750442 18.177252 -1.713010 5.711463 -0.142646 -12.813787 
-48.005180 90.195343 26.487089 90.758536 5.067045 95.021325 166.187901 -11.746995 179.937263 -38.723064 -3.025227 2.426053 74.717461 -4.052810 -8.025463 21.454553 0.003093 -0.000001 -177.580738 5.131999 -173.467325 -18.354072 5.512626 9.895768 82.667214 -6.100423 4.019898 21.454558 -0.003116 -0.000017 8.406645 0.698929 0.614432 6.808465 1.360544 1.268864 6.490356 1.368311 1.260637 -7.458084 -9.442432 -6.796980 -16.465938 12.643907 -13.749255 -177.783472 -76.036214 -3.758124 -18.230651 57.375618 18.337338 -29.378102 -14.012073 1.154401 7.181561 -2.674892 41.327917 -160.130315 71.414231 21.824102 -10.983213 -50.979303 -14.103140 -43.014588 18.793820 -1.816920 4.685553 0.223380 -10.849826 
-47.579460 90.143463 26.669649 90.192320 5.296480 93.801126 169.714368 -12.562802 -179.484708 -34.499736 -2.880204 2.172904 72.126586 -3.993528 -7.770633 21.454555 0.003085 0.000001 -177.402429 4.977608 -173.937420 -18.227379 5.541483 9.430795 82.464863 -5.774540 4.056556 21.454558 -0.003117 -0.000017 8.250853 0.763165 0.598221 6.497481 1.491612 1.238294 6.179349 1.499202 1.229270 -6.500353 -8.245004 -6.318813 -16.250342 11.890167 -12.613712 -176.653854 -76.347807 -4.916097 -16.827281 58.094072 18.516948 -26.025439 -13.061326 1.034558 8.808666 -2.351318 42.770795 -160.038094 71.289027 21.920842 -11.637830 -50.680905 -13.385243 -45.319176 19.212724 -1.912725 4.231964 0.261812 -10.958791 
-47.248940 90.358963 26.955280 89.942301 5.292056 92.728718 173.414856 -12.981095 179.636147 -29.016730 -3.166736 2.858738 74.679458 -4.198955 -7.488399 21.454553 0.003091 -0.000000 -176.789898 5.086295 -174.372817 -16.953945 5.738595 9.070524 81.775642 -5.566932 3.900891 21.454560 -0.003102 -0.000015 8.037983 0.758590 0.513256 6.070548 1.489275 1.065489 5.752395 1.495827 1.056477 -5.577315 -6.639136 -5.922752 -16.333209 10.775294 -11.398875 -175.091517 -76.582472 -6.513919 -14.591338 58.826213 19.613259 -24.521329 -12.707004 0.988214 11.181687 -0.793000 44.782583 -159.947703 70.607907 22.024138 -12.378576 -49.970470 -12.422255 -47.156060 19.379128 -1.980566 3.860609 0.084195 -12.165046 
-46.891781 90.620796 27.319571 89.930396 5.523703 92.341910 177.286630 -12.834794 179.341575 -23.329269 -4.267680 1.411291 75.831827 -2.931203 -7.126379 21.454551 0.003100 0.000000 -175.582157 5.260303 -174.414290 -15.290019 5.737787 8.930572 80.917845 -5.461113 3.951928 21.454557 -0.003097 -0.000015 7.909241 0.743751 0.286705 5.810021 1.472205 0.610257 5.491827 1.475990 0.601360 -4.856843 -5.812720 -5.535152 -16.769180 10.307195 -10.668299 -173.304439 -76.348121 -8.337104 -12.039676 58.925306 21.652813 -24.628960 -12.803864 0.996060 12.717950 1.430736 48.815382 -160.153196 69.941547 21.822272 -12.807055 -49.445799 -11.379907 -48.347282 19.447707 -2.023062 3.755876 0.212857 -13.262263 
-46.409500 90.940063 27.698351 90.378614 5.859456 92.641776 -179.374633 -11.537602 177.343253 -18.231247 -3.220022 1.441725 75.687423 -2.935947 -6.991322 21.454557 0.003104 0.000001 -174.132681 5.727598 -174.079734 -13.621654 5.411412 9.015220 80.005988 -5.421784 4.350144 21.454558 -0.003110 -0.000017 7.851555 0.630741 0.028295 5.691102 1.259250 0.087402 5.372910 1.259899 0.079801 -4.609431 -5.442067 -5.330084 -16.952927 10.301472 -10.386971 -172.507602 -76.221141 -9.150313 -10.278438 58.758342 23.535901 -25.289006 -12.812348 1.006810 12.763285 2.705390 51.393926 -159.644621 69.046259 22.360859 -12.967995 -49.085394 -10.820729 -48.768435 19.573580 -2.045088 3.800959 0.429834 -13.950105 
