HIERARCHY
ROOT Hips
{
	OFFSET -211.153198 91.653587 -35.738949
	CHANNELS 6 Xposition Yposition Zposition Zrotation Yrotation Xrotation 
	JOINT LeftUpLeg
	{
		OFFSET 0.103455 1.857827 10.548507
		CHANNELS 3 Zrotation Yrotation Xrotation
		JOINT LeftLeg
		{
			OFFSET 43.500000 -0.000031 0.000008
			CHANNELS 3 Zrotation Yrotation Xrotation
			JOINT LeftFoot
			{
				OFFSET 42.372192 0.000011 -0.000014
				CHANNELS 3 Zrotation Yrotation Xrotation
				JOINT LeftToe
				{
					OFFSET 17.299997 -0.000002 0.000013
					CHANNELS 3 Zrotation Yrotation Xrotation
					End Site
					{
						OFFSET 0.000000 0.000000 0.000000
					}
				}
			}
		}
	}
	JOINT RightUpLeg
	{
		OFFSET 0.103457 1.857826 -10.548499
		CHANNELS 3 Zrotation Yrotation Xrotation
		JOINT RightLeg
		{
			OFFSET 43.500046 -0.000019 0.000015
			CHANNELS 3 Zrotation Yrotation Xrotation
			JOINT RightFoot
			{
				OFFSET 42.372261 -0.000004 0.000013
				CHANNELS 3 Zrotation Yrotation Xrotation
				JOINT RightToe
				{
					OFFSET 17.299992 -0.000006 0.000004
					CHANNELS 3 Zrotation Yrotation Xrotation
					End Site
					{
						OFFSET 0.000000 0.000000 0.000000
					}
				}
			}
		}
	}
	JOINT Spine
	{
		OFFSET 6.901968 -2.603730 -0.000002
		CHANNELS 3 Zrotation Yrotation Xrotation
		JOINT Spine1
		{
			OFFSET 12.588100 -0.000001 0.000009
			CHANNELS 3 Zrotation Yrotation Xrotation
			JOINT Spine2
			{
				OFFSET 12.343201 0.000005 -0.000005
				CHANNELS 3 Zrotation Yrotation Xrotation
				JOINT Neck
				{
					OFFSET 25.832893 -0.000008 -0.000006
					CHANNELS 3 Zrotation Yrotation Xrotation
					JOINT Head
					{
						OFFSET 11.766606 0.000005 0.000008
						CHANNELS 3 Zrotation Yrotation Xrotation
						End Site
						{
							OFFSET 0.000000 0.000000 0.000000
						}
					}
				}
				JOINT LeftShoulder
				{
					OFFSET 19.745903 -1.480373 6.000100
					CHANNELS 3 Zrotation Yrotation Xrotation
					JOINT LeftArm
					{
						OFFSET 11.284123 -0.000007 -0.000024
						CHANNELS 3 Zrotation Yrotation Xrotation
						JOINT LeftForeArm
						{
							OFFSET 33.000053 0.000004 0.000036
							CHANNELS 3 Zrotation Yrotation Xrotation
							JOINT LeftHand
							{
								OFFSET 25.200006 0.000021 -0.000003
								CHANNELS 3 Zrotation Yrotation Xrotation
								End Site
								{
									OFFSET 0.000000 0.000000 0.000000
								}
							}
						}
					}
				}
				JOINT RightShoulder
				{
					OFFSET 19.746101 -1.480381 -6.000079
					CHANNELS 3 Zrotation Yrotation Xrotation
					JOINT RightArm
					{
						OFFSET 11.284133 -0.000015 -0.000008
						CHANNELS 3 Zrotation Yrotation Xrotation
						JOINT RightForeArm
						{
							OFFSET 33.000099 0.000016 0.000006
							CHANNELS 3 Zrotation Yrotation Xrotation
							JOINT RightHand
							{
								OFFSET 25.199781 0.000142 0.000425
								CHANNELS 3 Zrotation Yrotation Xrotation
								End Site
								{
									OFFSET 0.000000 0.000000 0.000000
								}
							}
						}
					}
				}
			}
		}
	}
}
MOTION
Frames: 101
Frame Time: 0.033333
-35.847969 16.288990 -409.399994 34.840587 33.014116 45.148479 105.598536 -2.769112 159.920902 -113.952212 2.790893 0.020057 69.060951 -2.786142 -7.577429 21.454551 0.003096 -0.000006 128.930175 22.663497 -160.313337 -154.481093 -6.403700 13.951069 105.909603 -8.369469 13.747522 21.454560 -0.003109 -0.000018 18.787984 2.774558 1.943450 27.689462 5.005181 4.497753 27.371121 5.032357 4.467496 15.842709 -17.047261 -2.207870 -18.249512 14.465273 -8.401047 178.207818 -81.175835 0.234633 30.885641 66.616631 39.960493 -23.627400 -12.944470 0.990200 41.247529 -34.900737 -39.185031 160.686894 73.430257 -18.373684 3.051707 -68.154571 -36.455465 -36.402610 14.137791 -1.339202 25.142959 46.026384 30.239286 
-34.833038 17.617809 -410.770386 35.097176 34.853690 50.291113 104.501928 1.160402 159.904427 -115.270111 3.230063 -3.883217 68.184330 0.163105 -7.131123 21.454548 0.003090 0.000001 133.613609 25.514800 -156.320422 -151.707709 -6.912065 15.159682 106.413500 -9.244780 13.733291 21.454557 -0.003109 -0.000018 19.043580 2.775831 1.833800 28.197184 5.022988 4.291743 27.878728 5.048926 4.261366 17.902068 -20.390500 -3.476831 -21.546745 14.960261 -10.188237 -177.995454 -80.208831 -3.600260 26.729469 66.376830 35.379434 -29.307908 -18.115185 1.415583 38.969692 -40.248061 -32.238530 163.625924 72.707794 -15.398183 4.559180 -66.192470 -36.599866 -37.079987 13.301050 -1.301092 17.322917 36.844107 25.879822 
-33.764820 19.875990 -411.911987 36.315146 35.353332 53.359688 102.106690 1.886511 161.084916 -117.967790 3.849122 -7.322433 68.668126 3.128261 -5.837655 21.454548 0.003097 0.000003 137.208078 27.052706 -154.212530 -147.999995 -7.067629 14.643564 106.001107 -8.911060 14.274431 21.454557 -0.003110 -0.000018 18.979820 2.210484 2.045895 28.040993 3.861133 4.568042 27.723215 3.888747 4.544706 20.965952 -21.170783 -3.722736 -23.811815 16.054647 -10.713858 -174.212622 -79.308516 -7.433253 18.251635 64.608644 27.973964 -31.415732 -19.446903 1.542900 37.239697 -43.726905 -28.422183 160.133894 73.327094 -18.944018 4.541337 -63.784077 -39.486522 -35.579668 11.930690 -1.176283 11.995247 23.613883 25.097658 
-33.125858 22.437000 -412.571686 38.396352 36.736022 55.201862 99.561093 0.642299 164.383010 -122.754209 4.202672 -6.540192 69.786679 3.000248 -4.569728 21.454555 0.003086 0.000002 140.933946 28.177088 -153.699856 -144.770299 -7.215212 14.015771 106.099899 -8.519606 15.141607 21.454560 -0.003111 -0.000018 18.962823 0.980954 2.190426 27.943287 1.405573 4.552732 27.626196 1.433143 4.544194 23.371704 -20.841354 -2.639802 -24.531154 16.067842 -9.215699 -174.062631 -78.502752 -7.579711 12.952957 60.899736 20.387616 -33.614452 -18.751530 1.545778 34.222410 -46.941250 -23.208694 155.108514 73.487993 -24.070490 1.472351 -61.906144 -37.432503 -32.485554 9.904181 -0.975887 6.675315 8.371797 21.106704 
-32.651520 24.986589 -412.628204 40.424847 39.172829 57.081677 98.106959 0.719496 171.020273 -129.481399 4.457964 -3.115379 71.304955 1.167037 -2.614921 21.454553 0.003088 0.000001 146.185077 30.973904 -153.635352 -141.743501 -6.984242 12.234743 106.443205 -7.427654 14.528448 21.454558 -0.003108 -0.000017 19.090681 -0.246508 2.246821 28.149744 -1.030523 4.366663 27.832613 -1.004021 4.372816 25.145910 -20.977329 -1.474871 -25.006461 17.422347 -8.290744 -175.410883 -76.988847 -6.192022 7.243952 55.797294 14.569569 -32.332767 -18.396619 1.494949 32.374588 -48.223550 -20.925085 146.582840 74.051395 -32.728316 -2.982936 -62.573091 -35.732784 -28.586732 8.048701 -0.778426 4.664915 0.789474 5.966268 
-32.254551 27.310221 -412.243713 43.267233 41.652502 59.620988 97.879001 1.642305 -179.857090 -137.798493 4.665882 -3.064656 75.378343 1.123403 -2.690882 21.454551 0.003093 -0.000001 151.002205 34.151902 -154.066501 -139.207301 -6.515968 10.457421 106.761191 -6.342189 12.920780 21.454558 -0.003110 -0.000018 19.134601 -1.424857 2.551854 28.197949 -3.426674 4.682655 27.880412 -3.398241 4.703243 26.187113 -19.242564 -0.693958 -24.678956 19.030534 -8.011273 -178.574545 -76.446646 -2.956093 2.314670 51.035990 9.014167 -30.619311 -17.989323 1.433312 29.209355 -48.992110 -16.641652 141.218847 74.292036 -38.166100 -4.901422 -64.475825 -36.655119 -26.241348 8.822482 -0.789265 2.965053 1.595106 -6.876772 
-31.661369 29.255470 -412.046112 47.688575 42.807398 61.292909 99.628957 -0.313000 -167.291728 -144.737897 4.540652 -4.315356 82.004344 2.201747 -2.273458 21.454553 0.003098 0.000002 149.954741 35.652693 -159.943564 -137.736106 -6.039424 7.167028 104.390808 -3.920556 12.891169 21.454560 -0.003108 -0.000017 18.884573 -2.861721 3.257283 27.636371 -6.416110 5.746313 27.317890 -6.381217 5.784941 26.227969 -17.636870 -0.304476 -24.480986 21.279666 -8.656681 176.954123 -76.326346 1.611304 -2.020316 46.105724 3.826692 -29.033024 -16.789238 1.325752 25.618353 -49.093976 -11.651200 139.025495 74.930338 -40.347410 -8.470835 -65.556702 -33.574054 -25.362229 8.041195 -0.723975 2.683617 1.311569 -9.746698 
-30.882669 30.413321 -411.977386 52.999447 42.979095 63.712469 103.891385 -3.017998 -152.485121 -147.215999 4.097388 -2.436629 86.200860 0.873573 -2.708508 21.454553 0.003101 -0.000001 146.523335 37.236993 -170.814452 -136.904394 -5.045056 -1.416956 102.771104 2.047049 12.990350 21.454562 -0.003110 -0.000017 18.627949 -4.124931 3.676261 27.075360 -8.992543 6.303159 26.755113 -8.954265 6.357488 25.553170 -16.273535 -0.399199 -24.632795 22.741999 -9.645313 169.820988 -75.769973 8.908872 -5.364433 41.145968 -0.056623 -26.336622 -15.160961 1.174005 24.231247 -48.355803 -10.145227 134.022409 75.270638 -45.392450 -14.199986 -64.509190 -26.785893 -25.340284 7.948050 -0.717509 2.882001 -2.380893 -11.367868 
-29.790850 31.200010 -412.595398 57.220852 41.421566 67.698397 107.308119 -4.750700 -141.240280 -145.565511 3.876891 -0.178621 90.121450 -0.319450 -1.096356 21.454551 0.003095 -0.000003 144.605692 36.631599 -173.883830 -134.736901 -5.024544 -2.718423 103.980785 2.843547 14.618516 21.454557 -0.003108 -0.000018 18.400246 -4.683176 3.566760 26.623789 -10.058372 5.980441 26.302251 -10.022011 6.041375 25.013106 -13.220465 -0.267867 -25.540480 23.302447 -10.212191 164.226339 -75.139307 14.644083 -8.418793 37.466873 -3.654695 -23.247444 -13.857250 1.043074 22.860715 -46.808157 -9.529320 130.331771 74.590549 -49.180538 -20.695103 -59.923333 -19.311576 -24.436450 8.576796 -0.745056 2.681165 -1.289555 -15.922581 
-29.037580 31.821810 -414.017792 59.985494 38.170960 72.787475 108.952965 -5.854303 -136.310577 -141.322802 3.728742 0.974072 91.247304 -1.019870 -0.672718 21.454553 0.003082 0.000001 143.697044 34.548207 -170.103512 -132.780394 -5.326078 1.804280 106.346694 -0.503169 17.872530 21.454560 -0.003109 -0.000018 18.217393 -4.571939 3.191385 26.289381 -9.746887 5.277067 25.967741 -9.714759 5.336177 23.546278 -8.118243 0.229685 -25.603451 24.328630 -10.523332 157.682294 -75.242682 21.315157 -11.326907 34.571494 -4.068704 -20.629248 -11.575967 0.862556 24.984612 -44.326958 -14.065315 127.667943 74.385828 -51.890795 -24.923623 -54.558858 -8.201743 -23.308775 9.575386 -0.793882 2.619950 4.279572 -16.180361 
-28.467150 32.512470 -416.035797 62.249244 34.207490 78.630661 108.183107 -7.755798 -135.822341 -135.163297 3.772048 3.855195 97.383512 -4.207036 -13.094497 21.454548 0.003088 -0.000000 140.278999 32.192505 -168.143903 -130.999900 -5.631025 5.003177 103.859003 -2.203099 20.806524 21.454558 -0.003107 -0.000019 18.271171 -4.208033 2.774518 26.430923 -8.936481 4.526747 26.109694 -8.908878 4.580925 20.108116 -1.528494 -0.008514 -24.993698 24.636940 -11.039206 144.476888 -75.963581 34.706196 -14.163850 33.718988 -4.570165 -19.407581 -10.493211 0.778657 26.594439 -42.678765 -18.381771 126.272863 74.992294 -53.250771 -27.182020 -49.728531 5.426045 -24.755519 11.817390 -0.960262 5.757033 10.999888 -7.416341 
-28.053049 33.604679 -417.328094 65.328505 31.237081 84.821251 102.662039 -4.047312 -139.116105 -133.028494 3.674327 3.780709 95.676771 -3.978601 -9.918469 21.454553 0.003090 0.000002 138.667143 32.983988 -166.052089 -129.419012 -5.843171 7.524244 103.336807 -3.841140 20.570742 21.454557 -0.003110 -0.000017 18.718253 -4.055757 2.203398 27.371420 -8.515833 3.393796 27.050100 -8.495061 3.445466 15.073901 4.058358 -0.511623 -24.703358 25.086790 -11.519903 130.311554 -75.944532 49.056031 -16.819585 32.931368 -5.942834 -19.064607 -10.366771 0.766728 28.898486 -40.958336 -22.521579 123.091142 75.744544 -56.398658 -28.318948 -45.613608 19.933685 -29.025323 14.295780 -1.192137 11.147054 12.946790 11.870229 
-27.453051 34.942299 -419.184814 69.422466 30.492813 88.256856 99.488583 -4.149711 -148.035130 -130.312605 4.063981 2.183515 91.887245 -2.178055 -2.857259 21.454551 0.003093 -0.000004 135.804515 33.637599 -168.002067 -127.756708 -5.791492 9.630955 101.757299 -5.085038 19.070008 21.454560 -0.003107 -0.000017 19.718085 -4.384760 1.891405 29.410856 -9.104424 2.615063 29.088717 -9.088333 2.670425 11.258010 6.325640 -1.926625 -25.198431 24.638354 -12.610042 121.633143 -74.871987 57.905053 -20.468888 30.541191 -8.873834 -18.307762 -10.178009 0.746536 30.603178 -38.638855 -25.507608 118.816263 76.663525 -60.626385 -29.332241 -40.608302 33.190939 -34.478484 16.681228 -1.458700 14.611960 11.189453 27.544722 
-26.938030 36.480122 -421.007294 72.181671 28.323247 91.464648 98.086503 -4.737899 -151.188778 -127.074003 4.037964 -0.173606 92.333830 -1.281898 -8.087590 21.454553 0.003096 0.000000 133.149142 33.632203 -168.982664 -125.399910 -5.748999 10.702136 100.331709 -5.614230 18.926982 21.454558 -0.003109 -0.000018 20.233657 -4.258295 1.629960 30.462992 -8.793922 2.089282 30.141020 -8.781010 2.142761 8.667742 4.428799 -3.620682 -26.172067 24.818358 -14.778060 114.461649 -74.442635 65.162785 -24.609184 28.257575 -9.678784 -17.407842 -9.938204 0.722110 33.150016 -32.334068 -29.363253 110.484799 77.281746 -68.942584 -28.490145 -36.634785 47.137509 -42.739328 17.717751 -1.738423 16.142300 13.227130 33.101344 
-26.454620 38.617378 -422.842712 73.860443 25.679804 95.285558 96.778071 -3.091706 -153.735032 -122.837619 3.847486 -0.513308 90.972136 -1.598236 -11.155240 21.454553 0.003097 -0.000000 132.378068 34.592302 -167.958395 -121.796302 -5.468226 10.015786 99.250681 -4.970367 19.601680 21.454562 -0.003114 -0.000016 20.431092 -3.632891 1.439117 30.853768 -7.516649 1.864234 30.532868 -7.505127 1.909854 8.393441 3.407693 -5.774376 -28.190124 23.293839 -16.933053 105.839764 -73.199206 73.928315 -27.279094 26.434048 -12.164933 -17.725505 -9.801072 0.716332 34.688926 -23.715394 -33.466288 101.021455 78.805848 -78.283824 -25.856026 -33.480710 55.093976 -53.419504 18.298787 -2.116145 15.734140 14.820013 34.246845 
-25.933090 41.096581 -424.762512 76.668074 23.160497 97.952603 96.920965 -3.167207 -158.448846 -118.084299 3.606384 -0.306828 90.363287 -1.809755 -11.368515 21.454555 0.003088 -0.000002 130.440330 35.393798 -169.376165 -118.053796 -5.046805 8.913730 98.088811 -4.021779 20.088408 21.454558 -0.003113 -0.000018 20.390012 -3.595410 1.231021 30.783335 -7.387755 1.466951 30.462463 -7.378627 1.511793 8.173164 4.830373 -6.915816 -30.276736 23.218350 -18.454292 98.248815 -72.102694 81.620419 -29.537778 24.019878 -17.836380 -16.848294 -11.353379 0.807902 34.586562 -9.882840 -39.018859 90.584810 80.177152 -88.583141 -21.847146 -30.799741 59.638323 -64.284470 16.572773 -2.404109 13.015930 14.873826 31.666116 
-25.546061 43.903881 -426.581085 78.397615 21.374341 99.555068 98.333790 -3.927203 -161.627411 -112.966104 3.236836 -0.356880 89.694495 -1.884066 -11.798425 21.454548 0.003098 -0.000000 130.056296 35.072997 -169.687662 -113.782899 -4.653876 8.302696 96.972260 -3.470320 19.903724 21.454558 -0.003106 -0.000016 20.256598 -3.555791 1.078856 30.523811 -7.269478 1.186457 30.202984 -7.262047 1.230579 7.527715 6.641159 -7.879782 -31.820185 21.474279 -18.698925 93.544809 -71.359952 86.378110 -30.474658 20.608142 -26.858706 -16.332927 -12.508698 0.877026 28.696166 3.102695 -38.446541 83.941085 81.403602 -95.075864 -17.786279 -27.083408 63.363877 -74.230510 13.102008 -2.572551 8.170033 15.436897 21.977025 
-25.317610 47.219372 -428.472504 78.949740 19.715604 101.207400 100.106067 -4.532202 -163.774413 -107.040109 2.669106 0.353804 88.417093 -2.325360 -10.882624 21.454553 0.003086 -0.000003 131.360575 34.455798 -167.933151 -108.475603 -4.169165 7.883970 95.751275 -3.058862 19.599142 21.454558 -0.003117 -0.000017 20.021629 -3.383572 0.767913 30.065134 -6.850136 0.633719 29.744576 -6.846049 0.675289 6.289952 7.613916 -8.699751 -33.106624 20.969167 -19.382711 91.210380 -71.933981 88.650262 -31.476691 17.364603 -30.086410 -23.133243 -15.766679 1.162846 19.126218 6.933316 -26.477322 80.595611 82.975686 -98.268431 -15.429689 -22.651411 67.004333 -83.244727 8.381526 -2.633283 3.626783 15.382105 12.017643 
-24.969500 50.879971 -430.547699 79.073763 17.897823 102.817590 102.123465 -4.908904 -165.490743 -100.457910 2.090932 0.645535 87.321455 -2.615382 -10.903147 21.454553 0.003089 -0.000004 133.065704 34.005907 -165.407880 -102.298421 -3.583764 7.360535 94.456660 -2.618221 18.897021 21.454557 -0.003104 -0.000017 19.557757 -3.274319 0.467135 29.147901 -6.560704 0.096259 28.827520 -6.559873 0.136084 6.132543 10.343984 -8.585918 -33.370607 19.621194 -18.214525 90.036660 -72.196343 89.794373 -35.181283 12.049642 -29.553631 -32.542108 -17.819081 1.462363 20.784945 0.122044 -25.967172 81.804472 84.173988 -96.968571 -14.146643 -19.459865 71.016120 -90.547019 3.261834 -2.599349 -1.041392 13.300879 3.136568 
-24.460329 54.764381 -432.877014 79.149202 16.380218 103.692298 104.936950 -5.785993 -167.222606 -93.198416 1.244574 0.720002 86.369634 -2.635633 -10.409960 21.454550 0.003083 -0.000005 134.787609 33.015000 -163.530397 -95.338082 -2.626595 6.400314 93.328729 -1.990671 17.584361 21.454558 -0.003105 -0.000017 19.103165 -3.268474 0.116601 28.255034 -6.466757 -0.568141 27.934729 -6.469938 -0.528889 5.574359 11.290468 -8.178801 -32.887221 18.239182 -16.753006 87.341925 -71.647995 92.515916 -40.631802 7.504527 -30.169256 -38.067943 -21.526791 1.832799 19.184617 -5.876399 -23.126416 82.464494 84.878180 -96.253498 -14.910397 -16.920325 72.216533 -97.526325 0.574464 -2.724099 -4.168789 12.232101 -3.738735 
-23.823940 58.858459 -435.575104 78.419902 14.853686 103.529501 107.948169 -7.294496 -168.427411 -85.153007 0.251570 0.725293 85.210558 -2.556794 -9.606355 21.454551 0.003092 -0.000002 136.554729 30.694597 -162.331153 -87.358236 -0.929867 5.028375 93.431558 -1.194986 17.007808 21.454560 -0.003113 -0.000020 18.640945 -3.118830 -0.263089 27.341751 -6.087644 -1.256628 27.021758 -6.094974 -1.219700 3.555419 10.731511 -7.643479 -32.172216 17.114306 -15.315641 83.801838 -71.169321 96.043887 -44.601559 5.754634 -36.053485 -48.006637 -22.919376 2.215737 13.093770 -6.497791 -8.423029 80.214698 85.117332 -98.473679 -17.296532 -14.443927 70.643240 -104.341207 -0.663624 -2.941923 -6.189024 12.714222 -8.450765 
-22.935049 62.916901 -438.382111 77.373052 13.540970 102.718402 111.386520 -9.003298 -169.763150 -76.653779 -0.529745 0.653616 84.039611 -2.361148 -8.520436 21.454555 0.003090 -0.000001 138.272399 26.949799 -161.746051 -79.766514 0.236258 7.520891 94.882406 -3.366921 15.428595 21.454560 -0.003103 -0.000017 18.093864 -2.784681 -0.497915 26.242473 -5.384271 -1.615662 25.922972 -5.393806 -1.583006 1.729782 9.274322 -7.409229 -31.304458 16.346362 -14.570733 82.469138 -71.320938 97.341800 -47.710900 5.608227 -39.272625 -60.398584 -22.127335 2.604857 7.633051 -4.032728 11.032122 79.469572 84.919667 -99.231413 -19.806966 -12.242981 65.727231 -110.546796 -1.446103 -3.159997 -8.502388 13.528212 -12.495395 
-21.968981 66.835876 -440.854614 76.154594 13.087016 101.299014 115.812155 -11.451908 -171.506200 -68.162283 -1.126036 0.996354 83.179239 -2.430673 -7.511229 21.454555 0.003084 -0.000004 140.155441 22.204310 -160.292724 -77.592930 -0.331533 12.533304 93.127328 -6.628565 15.421022 21.454560 -0.003109 -0.000018 17.411452 -2.441154 -0.480152 24.862015 -4.722300 -1.474618 24.542854 -4.730994 -1.445987 1.951719 7.912147 -6.827844 -31.140854 16.215704 -14.121761 83.421397 -71.056732 96.427682 -48.100436 7.383835 -40.501567 -73.977629 -18.795789 2.927495 4.028797 -1.248083 27.298646 82.699609 84.703129 -96.033949 -22.869019 -10.993871 57.231460 -114.825998 -1.719457 -3.324636 -11.138325 12.169997 -17.223306 
-20.963461 70.227020 -442.888306 76.653710 14.167882 100.103997 122.395528 -13.162204 -175.504211 -60.035061 -1.082035 1.537464 83.498031 -2.558516 -6.502975 21.454553 0.003087 -0.000006 143.303543 18.470802 -158.587253 -83.907337 -1.033100 10.944414 91.588158 -5.474135 14.488843 21.454558 -0.003108 -0.000019 16.864386 -2.447380 -0.380256 23.762947 -4.764535 -1.256117 23.443733 -4.771899 -1.227239 4.095354 7.028562 -6.614239 -31.508977 16.786479 -14.566908 86.457600 -72.138026 93.344411 -48.948827 10.252859 -41.452418 -84.997845 -12.777400 2.980864 0.042436 1.040303 36.970441 87.548210 83.788990 -91.285335 -24.371389 -12.046083 44.988830 -117.564098 -1.291398 -3.469112 -12.776867 9.286597 -22.873247 
-20.149570 73.022087 -444.809601 78.134495 15.868389 100.385496 129.395311 -12.923799 -179.082711 -52.302003 -1.104227 1.323229 85.901520 -2.261154 -6.607140 21.454555 0.003089 -0.000004 149.126170 13.729403 -154.433651 -92.335224 -2.813525 10.821962 88.226168 -5.303389 12.513340 21.454555 -0.003109 -0.000018 16.392953 -2.493916 -0.263855 22.815771 -4.886772 -1.015420 22.496466 -4.892680 -0.985806 6.105355 6.670253 -6.609587 -31.649884 18.260210 -15.546812 88.189497 -73.380028 91.525628 -49.408704 14.697638 -41.407161 -93.627420 -6.419544 2.915545 -3.888659 1.311212 39.044449 95.659661 83.574318 -83.218315 -24.516846 -15.568735 32.274095 -119.287300 -1.260977 -3.542397 -13.785594 4.855590 -29.356372 
-19.517260 75.255890 -446.648193 79.703042 16.678523 102.524193 134.557500 -10.758510 178.351307 -45.609363 -0.467541 -0.066808 90.355186 -1.105233 -7.234339 21.454557 0.003100 0.000001 157.082904 7.440501 -150.093830 -96.614214 -3.291150 9.206215 83.357384 -4.012712 11.073087 21.454563 -0.003112 -0.000014 15.707446 -2.370373 -0.297531 21.440770 -4.644441 -1.030377 21.121580 -4.650427 -1.002246 7.065572 6.811455 -7.372281 -30.178204 18.541956 -16.245407 91.121909 -74.573098 88.503167 -48.559903 20.014524 -37.517256 -101.228403 -2.968533 3.011505 -5.704890 0.627794 38.635484 115.454690 83.733434 -63.394326 -23.609141 -20.453614 18.740828 -120.128302 -0.916755 -3.600515 -13.921708 0.591192 -36.186411 
-18.769381 76.669762 -448.439514 82.531170 15.515608 106.434100 137.309219 -6.348413 177.489651 -39.918965 -0.996177 -4.362071 91.626230 1.592305 -10.072254 21.454550 0.003095 -0.000000 165.418016 1.820490 -147.485668 -94.296799 -2.531762 3.611977 75.517672 0.717926 11.270139 21.454562 -0.003111 -0.000018 14.655851 -2.486215 -0.646815 19.352226 -4.829024 -1.702520 19.033044 -4.839095 -1.673245 7.045817 7.084189 -8.450085 -27.771600 19.222277 -17.178225 95.537619 -75.977132 83.976684 -46.477105 25.012687 -30.058826 -108.632800 -1.854839 3.258457 -5.986572 1.040787 38.242799 143.955253 83.259596 -34.793315 -21.090299 -26.793169 5.594995 -119.481797 -0.964245 -3.570814 -13.829125 -1.431332 -39.598718 
-17.767981 76.949944 -450.149506 86.004622 13.439405 110.934696 137.560707 -1.033993 176.323833 -38.206080 -0.904795 -9.494385 84.177628 4.617229 -10.072261 21.454557 0.003095 -0.000000 173.623928 -3.014013 -147.285844 -85.649090 -0.346123 -1.868019 70.429263 4.724829 9.955241 21.454563 -0.003109 -0.000010 13.551628 -2.872051 -1.004359 17.170025 -5.562982 -2.427653 16.850591 -5.577399 -2.393918 7.162953 6.903098 -9.995369 -26.398575 20.771821 -19.255369 103.263574 -77.358968 76.132410 -43.162738 28.323365 -20.860492 -114.732903 -1.404511 3.487591 -6.715666 0.940075 40.343544 168.586472 80.089938 -10.059577 -14.649065 -32.300593 -8.221758 -118.345404 -0.943560 -3.525463 -13.246610 -1.174865 -38.969559 
-16.483810 75.817177 -452.049591 89.474454 10.556227 114.191194 135.203103 4.461900 176.412038 -40.340224 0.333052 -11.640298 74.573385 5.627032 -9.398267 21.454551 0.003096 0.000005 -179.323980 -7.596890 -148.630039 -71.664886 0.974274 0.411322 81.248543 0.183063 2.332804 21.454560 -0.003103 -0.000016 12.476368 -3.424006 -0.924769 15.033031 -6.698574 -2.291889 14.712820 -6.712145 -2.251231 7.047027 5.199876 -12.292295 -26.216441 22.763323 -22.723770 111.618227 -78.562769 67.654164 -39.698074 30.540016 -12.442889 -120.198612 -1.027570 3.686822 -8.779960 0.741612 43.437220 -173.432601 76.912431 8.169594 -4.776387 -39.015635 -20.575252 -117.323416 -0.878490 -3.487541 -13.304969 -2.729286 -40.246845 
-14.828520 74.633324 -453.585205 92.520342 8.949319 115.546092 133.941444 7.813000 178.818164 -43.871784 1.082648 -9.724757 66.947609 3.355870 -10.386669 21.454550 0.003097 0.000000 -172.802242 -10.086809 -149.113534 -58.790703 -0.356338 5.005384 101.919700 -3.627475 -5.809368 21.454558 -0.003112 -0.000018 11.832207 -3.798243 -0.429106 13.724387 -7.518562 -1.310199 13.403367 -7.526188 -1.264506 5.153169 -0.655907 -14.866057 -23.574611 25.895902 -26.754836 128.201421 -79.756139 50.881115 -35.159840 31.535970 -5.322893 -124.271303 -0.974425 3.844928 -10.837574 0.789448 44.685881 -167.452811 73.701716 14.281018 10.367244 -44.880627 -31.455897 -117.041083 -0.821890 -3.479685 -12.610766 -4.907367 -42.714439 
-13.114050 73.836052 -455.206085 94.298234 10.112228 114.375698 134.618234 7.653097 -175.591787 -48.243259 0.151472 -5.881837 64.363666 0.634639 -9.557747 21.454548 0.003077 -0.000005 -167.727289 -11.889001 -155.885681 -51.281655 -0.253552 8.589998 117.492013 -5.311253 -1.803878 21.454560 -0.003105 -0.000015 11.880865 -3.558789 0.441447 13.761366 -7.144635 0.455883 13.440585 -7.141617 0.499256 3.635314 -7.518212 -16.453524 -22.915428 28.396860 -30.260009 155.583691 -79.473479 23.230539 -30.012807 32.128107 -0.210360 -125.703116 -0.861651 3.892552 -12.300977 -0.000340 43.195209 -165.174997 70.750193 16.636415 22.972694 -48.288075 -38.387825 -115.391606 -0.607432 -3.425292 -13.300601 -3.443543 -44.742530 
-11.507800 73.429443 -457.218414 95.190243 10.536013 113.079102 134.585531 7.413312 -168.261942 -52.103395 -2.097015 -3.326689 64.950495 -0.204516 -7.104635 21.454553 0.003088 0.000001 -168.309303 -11.132500 -160.849807 -52.311360 -0.189552 11.379057 122.728705 -7.177756 0.328883 21.454560 -0.003108 -0.000017 11.904350 -3.116936 0.575686 13.795225 -6.280140 0.775678 13.475063 -6.275197 0.813743 1.588116 -11.299246 -16.337650 -22.957982 27.409667 -30.443936 -177.143784 -76.022901 -4.411515 -22.200724 34.489139 4.708368 -123.123804 -1.053051 3.805381 -12.100716 -0.380463 42.226080 -164.547481 69.493862 17.292707 27.100826 -50.936655 -39.442625 -111.485189 0.024825 -3.302440 -13.381070 -1.519632 -42.991383 
-10.221700 73.468880 -458.977997 95.551341 10.368868 114.627800 134.458462 7.979801 -161.495547 -55.159880 -4.110794 -2.692790 65.220110 -0.976832 -8.020803 21.454551 0.003094 -0.000000 -170.393522 -8.234099 -159.541089 -55.859862 1.458129 10.625325 122.326803 -6.804123 0.696348 21.454560 -0.003110 -0.000020 11.786947 -2.491307 0.041389 13.578413 -4.970126 -0.210749 13.259012 -4.971178 -0.180640 1.929870 -12.357608 -15.892301 -24.876259 26.352750 -30.258517 -168.091994 -74.173471 -13.665089 -11.298150 42.235971 9.787816 -115.197506 -1.138593 3.488582 -8.268153 0.197772 40.459814 -164.512332 69.770765 17.326908 26.632222 -53.913699 -37.143552 -106.205712 0.767525 -3.123839 -13.302630 -1.078055 -43.851232 
-9.278388 74.419769 -459.700806 94.815088 10.798768 118.345595 135.476515 7.145090 -160.160956 -57.536052 -3.028823 -2.281759 65.226695 -1.440261 -8.355758 21.454553 0.003093 -0.000001 -168.955179 -8.141295 -154.336334 -52.849067 1.381431 8.596531 121.238604 -5.573500 0.887106 21.454557 -0.003111 -0.000019 11.578103 -1.707098 -0.460040 13.165299 -3.350646 -1.112089 12.846671 -3.357162 -1.091801 2.488594 -10.476627 -16.539301 -23.933987 24.338770 -29.392391 -170.748732 -75.220388 -10.944680 3.407917 51.621945 16.525749 -106.396001 -1.522824 3.137982 -1.690406 0.091903 39.607403 -164.194210 68.503526 17.665594 25.053697 -54.540194 -33.927377 -102.406310 1.161840 -2.983057 -13.007921 -0.947785 -46.783702 
-8.309147 75.917763 -460.023407 94.032847 10.984840 121.191503 136.985072 5.388589 -164.221448 -59.227166 1.303182 -2.408022 67.282985 -1.316717 -8.390023 21.454558 0.003102 0.000000 -167.723054 -9.811706 -153.270797 -48.203148 1.301997 9.079368 118.297210 -5.976481 1.759226 21.454557 -0.003102 -0.000015 11.276828 -1.206591 -0.587134 12.556784 -2.342258 -1.302137 12.238481 -2.349945 -1.287955 1.872774 -7.929751 -17.642392 -23.397732 23.309865 -29.545851 -171.445999 -76.177687 -10.234786 17.752196 56.949912 25.148295 -99.731957 -2.458321 2.909550 -0.605287 -2.563317 42.775651 -162.097464 67.347400 19.847205 23.292309 -54.838851 -32.762396 -99.530712 1.728829 -2.894351 -12.646163 -0.380318 -47.706754 
-7.063924 78.036011 -460.453186 94.081170 9.506036 122.307296 138.538284 4.019194 -167.242919 -59.501855 3.089726 -2.990758 69.389217 -0.956043 -8.896295 21.454555 0.003091 0.000000 -167.321849 -9.259089 -155.749678 -43.382606 2.786890 10.179451 114.375814 -6.730808 2.153567 21.454560 -0.003120 -0.000017 10.679341 -1.195018 -0.422100 11.358031 -2.342788 -0.959743 11.039689 -2.348410 -0.945559 1.991640 -7.601919 -18.743861 -24.368496 24.014496 -31.181217 -168.586294 -75.960221 -13.156932 28.669210 57.989010 32.336274 -95.203391 -3.255751 2.764006 -0.760543 -2.574863 46.129168 -160.726318 67.271011 21.268502 22.861128 -55.449228 -32.881361 -97.140125 2.107408 -2.813814 -9.154070 -0.806457 -45.882544 
-5.653702 80.518440 -460.773193 94.269096 7.430709 121.930802 140.647815 2.447097 -169.201052 -58.982966 2.951406 -1.224663 71.360908 -1.660377 -7.612363 21.454551 0.003106 -0.000001 -167.060512 -7.352607 -157.215901 -38.779246 3.230174 9.772554 108.829393 -6.485478 2.693904 21.454560 -0.003101 -0.000016 9.961008 -1.341239 0.144807 9.909858 -2.689955 0.174232 9.591370 -2.688710 0.190486 1.936660 -9.613185 -19.838822 -24.027636 24.929402 -32.922564 -166.161782 -75.030919 -15.639407 33.546669 56.565871 36.266696 -91.522698 -3.886610 2.644482 0.086511 -2.217819 47.028547 -159.926257 67.929920 22.087018 22.949033 -56.202099 -33.285800 -94.401376 2.448840 -2.714970 -4.531438 -1.411599 -42.424378 
-4.074322 82.839088 -461.128296 94.623399 5.470990 120.634405 143.787203 1.133903 -168.961012 -57.545245 0.939064 2.461839 71.618433 -4.393678 -7.960339 21.454553 0.003097 0.000001 -167.674082 -3.888699 -156.927380 -37.126897 3.295114 7.659349 102.049399 -5.036738 3.259604 21.454558 -0.003112 -0.000019 9.311548 -1.526983 0.917711 8.589975 -3.117800 1.720207 8.271528 -3.107215 1.739011 2.337537 -12.276305 -20.787080 -23.282066 25.717160 -34.396102 -163.166867 -74.561234 -18.709410 34.416176 54.988511 39.908358 -88.291922 -5.520472 2.615576 1.225711 -3.043899 46.986254 -159.805731 68.404734 22.204402 20.605347 -56.221565 -32.329068 -90.587337 2.993332 -2.582397 -0.683315 -2.200067 -38.465235 
-2.383313 84.685547 -461.626190 95.005466 3.940286 118.638105 147.805731 0.020796 -168.781214 -55.296539 -1.099488 6.169477 70.268815 -7.179891 -7.965109 21.454553 0.003092 0.000001 -169.285446 0.518599 -156.816157 -38.452848 3.804614 5.034538 95.779968 -3.121232 3.957750 21.454557 -0.003109 -0.000018 8.757409 -1.591203 1.692745 7.457932 -3.287967 3.280893 7.139840 -3.267977 3.300684 3.011289 -15.121933 -21.373815 -21.685072 26.315575 -35.127127 -160.223998 -74.178224 -21.728826 35.179880 54.140017 43.440075 -85.622828 -6.974895 2.599619 1.394897 -3.937831 46.963681 -159.703429 70.448880 22.278300 15.620240 -56.313837 -32.887993 -85.400970 5.727325 -2.542916 1.574245 -2.665656 -34.872733 
-0.678374 85.818527 -462.153290 95.412709 2.963031 116.251104 152.696092 -1.074398 -170.503310 -52.355794 -2.120777 7.262415 71.217119 -7.444665 -6.717835 21.454550 0.003094 0.000000 -172.129073 5.216004 -156.116650 -43.035615 3.077253 1.833073 90.453636 -0.538995 5.415943 21.454562 -0.003111 -0.000018 8.438869 -1.544083 2.259167 6.805361 -3.217932 4.425539 6.487761 -3.191037 4.444849 2.912921 -17.679260 -21.394657 -20.286910 26.739726 -35.281725 -159.758890 -73.471648 -22.216222 37.307596 53.556995 45.667830 -84.867710 -7.464698 2.600705 0.905954 -5.073442 48.529143 -162.337136 73.036251 19.534975 7.500436 -55.358089 -32.069780 -79.710077 8.571252 -2.492032 2.628952 -3.284755 -32.447572 
0.622939 86.346718 -462.677185 95.560883 2.267308 113.381393 157.236610 -2.440004 -173.591279 -47.773584 -2.793700 7.525986 75.519578 -6.287614 -3.392246 21.454550 0.003098 0.000000 -176.401520 9.023605 -158.132321 -49.273132 1.979227 -0.799179 86.188743 1.861582 7.056328 21.454563 -0.003102 -0.000022 8.261926 -1.365852 2.640073 6.447710 -2.876148 5.201748 6.130632 -2.844605 5.218973 2.739327 -19.774323 -20.762882 -20.281772 27.160749 -35.153467 -157.019219 -72.063461 -25.053776 38.723276 53.757837 46.312893 -84.665768 -7.558024 2.601057 0.571832 -5.152726 50.894287 -168.691889 75.542357 13.008518 -2.119373 -52.718661 -30.627118 -74.337737 10.777759 -2.415363 3.466406 -3.755836 -30.253360 
1.745035 86.446320 -463.043610 96.680576 2.195425 111.158303 161.303837 -2.598697 -177.113745 -42.737545 -3.879810 7.927128 80.052044 -5.864528 -1.514929 21.454551 0.003080 0.000001 179.275800 12.896393 -161.881576 -56.640703 0.859797 -3.398178 82.936057 4.331526 8.610275 21.454557 -0.003120 -0.000013 8.463862 -1.307888 2.631146 6.854240 -2.768877 5.181840 6.537176 -2.737449 5.198421 1.820909 -20.791519 -19.804822 -20.436959 26.684533 -34.345012 -154.969192 -70.738452 -27.190927 39.318076 54.808897 45.546830 -84.877784 -7.498691 2.600949 1.345189 -4.883791 52.553542 -177.716932 76.850802 3.797084 -11.499639 -48.786658 -28.307647 -70.176382 12.278500 -2.345687 4.169985 -5.933058 -30.304480 
2.603585 85.846947 -463.394409 98.214254 2.468661 110.547404 163.108442 -1.542601 -177.737423 -41.692311 -5.626345 7.017999 83.437366 -4.867469 -0.478234 21.454558 0.003097 0.000000 174.719422 16.746797 -165.892591 -64.978096 -0.176345 -6.586835 79.892361 7.296691 9.941506 21.454558 -0.003107 -0.000018 8.895232 -1.363128 2.334220 7.722529 -2.878703 4.573756 7.405126 -2.850933 4.591021 1.628026 -20.239635 -19.384768 -21.883515 25.878962 -33.974635 -155.132324 -70.408329 -27.030521 37.700233 56.243521 43.494371 -84.394043 -7.749418 2.599844 1.951825 -5.071195 52.545144 179.115796 77.416253 0.576122 -18.646282 -47.084514 -23.999956 -67.676281 13.881682 -2.354316 5.435590 -9.004257 -37.029321 
3.162155 85.109756 -463.564606 99.277455 3.212136 111.506506 163.263378 0.700199 -177.367186 -43.518950 -3.977576 6.521022 85.366491 -4.596040 -0.785926 21.454551 0.003097 0.000002 170.853412 19.738408 -170.198069 -72.021824 -0.033237 -10.038805 76.083615 10.084995 9.449941 21.454568 -0.003101 -0.000019 9.497678 -1.288303 1.852528 8.942269 -2.715810 3.600921 8.624490 -2.693900 3.617236 1.225824 -18.952204 -19.332027 -23.180007 24.211279 -33.440746 -158.125190 -70.426272 -23.946413 31.069929 57.473563 38.995097 -82.382730 -8.960152 2.596590 2.687191 -5.885937 51.613277 178.578124 78.108110 0.041298 -22.643522 -49.448445 -14.976419 -67.215099 15.188599 -2.425942 6.944433 -10.299741 -46.942213 
3.303027 84.680107 -463.408386 99.253959 3.841257 112.229598 163.135243 0.480806 -174.518956 -44.925559 -5.875240 5.850060 86.327622 -3.996361 -0.426296 21.454553 0.003088 -0.000001 167.372761 20.626411 -174.707851 -75.754154 0.429578 -11.625879 75.945345 10.621344 7.392845 21.454563 -0.003104 -0.000015 9.955470 -1.144443 1.598276 9.867568 -2.421006 3.093699 9.549686 -2.402158 3.108273 1.331965 -17.714121 -19.413529 -25.171453 23.673623 -33.637650 -163.450211 -71.069662 -18.451469 20.034249 57.727318 33.223239 -78.142371 -11.477310 2.589006 2.716040 -7.327412 50.113436 -178.229169 76.113852 3.263814 -24.262731 -51.913512 -5.262941 -68.537164 15.459961 -2.498695 6.674887 -6.354970 -54.004704 
3.224277 84.858994 -463.081512 98.514421 4.095076 112.155702 163.396307 -1.056001 -175.917423 -44.790502 -5.824071 6.948620 86.232395 -4.661124 0.091189 21.454553 0.003086 0.000001 164.523753 20.712002 -177.821421 -75.688755 0.752007 -8.463751 79.543242 8.380826 8.807772 21.454553 -0.003111 -0.000021 10.147524 -0.904548 1.337834 10.261874 -1.924210 2.590437 9.943932 -1.908403 2.602019 1.655539 -17.008023 -19.145107 -26.581645 22.586334 -33.107600 -166.419198 -72.815936 -15.385793 9.963713 58.856150 29.864866 -71.807937 -14.798966 2.552637 1.590400 -8.161505 47.662901 -177.872688 73.964378 3.598108 -24.388855 -55.063759 2.098514 -69.048882 15.585705 -2.528507 1.038724 0.486864 -53.263263 
2.983035 85.798668 -462.645691 97.712809 3.890292 112.110602 164.573886 -1.783900 -176.165031 -41.900700 -5.213245 6.986285 84.966221 -4.805883 -0.341614 21.454553 0.003086 0.000000 163.167769 21.194000 -178.465248 -71.181417 1.024147 -2.235631 80.229253 3.936717 9.350412 21.454558 -0.003106 -0.000024 10.105939 -0.650549 0.909473 10.189152 -1.378693 1.758193 9.871118 -1.367912 1.766487 1.722894 -16.882139 -18.230224 -26.353293 22.123256 -31.873679 -170.754579 -74.272167 -10.936288 3.282992 59.360177 27.802352 -65.472964 -16.714211 2.427236 1.863839 -8.603222 42.035839 -177.427619 72.549764 4.035495 -23.930517 -58.333354 5.190013 -68.239860 16.300788 -2.544983 -4.034737 6.750448 -45.196335 
2.572677 87.114754 -462.026306 96.409370 3.705975 112.129208 166.359871 -2.884409 -174.421202 -37.449050 -5.327613 6.065507 83.187640 -4.381624 -1.206422 21.454553 0.003090 0.000001 163.684691 21.268704 -176.929616 -62.591942 1.235531 4.212506 80.126718 -1.137645 7.605391 21.454557 -0.003106 -0.000017 9.918564 -0.266589 0.461582 9.822170 -0.571460 0.898871 9.504094 -0.565874 0.902297 1.563692 -16.222620 -17.072889 -25.447487 20.931548 -29.825008 -174.663687 -75.850275 -6.944284 -1.232704 60.028163 27.104639 -59.754190 -17.417464 2.254181 4.718580 -8.077591 33.549561 -175.002929 71.861185 6.519892 -22.182882 -61.069247 4.229327 -66.394739 16.887726 -2.510511 -4.811533 10.864958 -34.367685 
2.067873 88.503189 -461.258301 94.639019 3.255307 111.322405 168.297842 -4.429602 -173.797852 -32.354931 -4.668105 5.160780 81.303792 -4.093777 -2.417471 21.454550 0.003090 0.000001 165.050866 20.474192 -172.814701 -51.234116 -0.122977 8.561518 80.229717 -4.396772 6.865190 21.454558 -0.003097 -0.000018 9.583925 0.137268 0.129128 9.155330 0.263827 0.268706 8.837241 0.265576 0.267115 1.232926 -15.007037 -15.615674 -24.729936 19.563678 -27.386608 -176.779721 -76.861191 -4.793822 -4.158544 60.345022 27.033194 -55.259881 -17.603597 2.102832 7.960761 -6.531139 27.047534 -173.383423 71.125471 8.180695 -18.564732 -62.593957 1.849328 -65.120834 16.784592 -2.452058 -1.424526 9.343665 -28.192369 
1.527485 89.482063 -460.371796 93.220355 2.519083 110.029997 169.946813 -5.709588 -173.865894 -28.037530 -3.853390 4.286789 79.975593 -3.867042 -3.721506 21.454555 0.003094 0.000001 166.687912 19.882708 -168.957802 -40.024567 -0.012441 10.274392 79.097108 -5.567633 6.934222 21.454557 -0.003102 -0.000018 9.173617 0.417744 -0.173662 8.333464 0.846814 -0.316823 8.015319 0.845029 -0.321927 1.243676 -14.079459 -14.007882 -24.181259 18.467252 -24.978494 -179.084404 -77.247698 -2.448179 -4.110818 60.091451 27.997179 -53.234737 -17.566844 2.029713 10.617865 -3.383729 24.985763 -171.765693 70.796017 9.845214 -14.546269 -63.380781 -0.997379 -64.096353 16.866374 -2.416920 2.680642 3.610441 -29.299739 
0.901132 89.932823 -459.429993 92.270733 1.939534 108.511202 171.218212 -6.866496 -174.040078 -25.375686 -3.424390 3.436247 79.677401 -3.585316 -4.900644 21.454548 0.003094 -0.000002 168.018596 19.380491 -165.683724 -31.728582 0.825749 9.067012 76.406280 -4.732344 6.496391 21.454557 -0.003106 -0.000018 8.860968 0.570979 -0.433953 7.705270 1.169460 -0.829023 7.387127 1.164565 -0.836065 0.603124 -13.275350 -12.348651 -22.716538 17.425448 -22.449090 -179.525580 -77.976773 -2.010309 -3.436300 59.795096 29.236710 -53.079012 -17.325603 2.008137 11.630974 -1.686619 27.395139 -170.468367 70.686598 11.181709 -11.565310 -63.265044 -4.081643 -62.088086 17.315617 -2.369116 4.066209 -0.832239 -34.161598 
0.126701 89.815063 -458.445099 92.033917 1.957138 106.780514 172.233260 -8.077497 -173.954837 -24.957240 -4.078748 2.628603 80.459451 -3.147294 -5.669702 21.454553 0.003095 0.000001 169.061744 18.736210 -164.555240 -27.342243 1.756372 8.260232 75.455470 -4.388386 5.593203 21.454560 -0.003102 -0.000016 8.778381 0.544247 -0.557532 7.538972 1.123530 -1.078527 7.220873 1.117128 -1.085278 0.538552 -12.714880 -11.348833 -22.601221 16.926148 -21.100468 178.687516 -78.915446 -0.208380 -2.751569 59.190460 30.111736 -54.129099 -17.164757 2.033527 11.359166 -0.945172 32.155728 -169.038876 70.883662 12.654775 -10.277007 -62.822625 -6.834975 -58.582287 17.595476 -2.254777 3.380899 -1.323890 -36.820392 
-0.717161 89.470520 -457.594910 91.722487 2.681392 104.817497 172.906485 -9.663203 -174.652103 -26.562192 -4.711208 2.389972 81.603829 -3.063875 -6.359051 21.454553 0.003089 -0.000001 169.424468 17.294797 -163.911617 -26.775366 1.000041 7.483641 74.976667 -3.616052 6.211509 21.454558 -0.003110 -0.000020 8.938794 0.486624 -0.512837 7.860688 1.006814 -0.991522 7.542593 1.000959 -0.997573 0.640887 -12.163372 -10.806286 -23.127162 16.756780 -20.470275 177.744663 -79.467612 0.739047 -3.508733 57.726621 29.627837 -55.583345 -17.059441 2.077480 10.231215 -0.483961 38.236540 -170.110492 70.680799 11.550586 -9.397009 -61.338548 -10.237082 -54.459113 17.760633 -2.116290 2.710826 1.246110 -34.340043 
-1.598813 88.607521 -456.883514 91.160349 3.753207 102.920603 171.981254 -11.207196 -175.600175 -31.792704 -4.502964 2.582906 83.451606 -3.322034 -7.390305 21.454551 0.003086 -0.000001 168.854338 16.097398 -166.281133 -29.366610 0.960496 7.223346 76.894399 -2.462879 10.131053 21.454560 -0.003107 -0.000016 9.300427 0.497474 -0.327244 8.585602 1.017757 -0.616720 8.267474 1.014146 -0.622841 -0.779834 -11.872097 -10.253207 -22.327521 17.106917 -19.974091 177.174916 -79.572319 1.315688 -5.446908 55.776541 28.174665 -56.833318 -17.344919 2.141602 8.573721 -0.516505 42.695181 -170.785520 70.404046 10.854192 -10.703022 -59.751328 -12.689632 -48.554220 17.828534 -1.921886 2.707394 4.760955 -27.009969 
-2.432739 87.557053 -456.318115 90.026060 4.658328 101.348095 169.099802 -13.020209 -177.491946 -39.697941 -2.892216 3.628375 83.725647 -4.285571 -8.301117 21.454550 0.003095 -0.000000 167.339648 15.651498 -168.095682 -33.713397 2.947477 6.671894 79.015262 -2.129545 10.675528 21.454557 -0.003113 -0.000020 9.673770 0.693443 -0.148374 9.333908 1.396510 -0.240355 9.015718 1.395176 -0.248789 -1.791458 -11.212410 -9.691166 -22.844893 16.752552 -19.313297 174.791330 -79.140555 3.747792 -6.665019 54.195249 25.812714 -57.378527 -17.682825 2.184360 7.020370 -1.154801 45.257281 -172.117666 70.579575 9.481502 -13.351367 -58.407775 -12.294089 -41.122660 16.359220 -1.604473 4.266672 7.356407 -16.342081 
-3.336814 86.539001 -455.845795 88.400208 4.890260 100.590102 163.847673 -15.876095 -177.664408 -48.988251 -2.635740 4.702667 80.002655 -5.223250 -7.685001 21.454553 0.003099 -0.000000 165.813101 14.929513 -167.486238 -37.405702 4.410961 5.558914 81.276355 -1.782543 9.653577 21.454560 -0.003101 -0.000018 9.881080 1.059151 -0.103154 9.749898 2.123127 -0.116696 9.431568 2.122522 -0.129509 -2.741011 -11.060170 -9.021817 -23.091113 16.660607 -18.688827 173.400321 -78.420694 5.181101 -7.960912 53.769271 22.728259 -56.068343 -18.439648 2.188396 5.906170 -2.191535 44.617821 -173.986023 71.619834 7.563994 -15.880145 -58.099365 -10.124791 -33.652141 14.692300 -1.311942 6.000554 8.495166 -4.200159 
-3.940136 86.024277 -455.334900 87.101380 4.698004 100.101504 158.308881 -18.535805 -177.732696 -57.016046 -2.507137 6.023507 74.071776 -6.636070 -7.571388 21.454545 0.003087 -0.000003 164.953016 13.633882 -166.381687 -38.960762 4.076786 4.848227 82.462281 -1.413130 9.367075 21.454558 -0.003106 -0.000017 9.954156 1.302894 -0.049154 9.898206 2.605074 0.013378 9.579742 2.605251 -0.002362 -3.294633 -10.696497 -8.579214 -23.130716 16.553679 -18.169951 170.974607 -78.721216 7.639234 -9.445518 55.301149 18.410022 -53.785551 -19.076672 2.150700 6.164050 -3.082441 42.699314 -175.725522 72.128403 5.779517 -16.040301 -58.024212 -7.543699 -29.728719 13.932196 -1.182124 10.591054 6.697536 0.717912 
-4.301531 86.224777 -454.549286 87.163930 4.894116 99.333196 155.347052 -19.859000 -179.145726 -62.155801 -1.804319 6.424358 70.282817 -8.023411 -9.713595 21.454553 0.003091 -0.000000 165.656498 13.179903 -166.297116 -38.548392 3.878197 4.506351 82.678682 -1.250622 9.033752 21.454558 -0.003106 -0.000018 10.141925 1.261154 0.014282 10.275003 2.515969 0.140573 9.956582 2.516903 0.125376 -3.772919 -10.509656 -8.313973 -23.299655 16.563065 -17.935686 169.482306 -78.649656 9.158625 -11.366167 56.780250 13.478647 -51.523850 -19.313921 2.089063 7.469194 -3.640225 40.153514 -175.778019 72.363593 5.728086 -15.231194 -57.710276 -5.897014 -28.095763 13.701423 -1.136960 13.843463 4.841403 -0.837358 
-4.339991 86.661583 -453.647095 87.839231 4.957254 98.196352 154.439088 -19.628010 179.611955 -63.552472 -1.771898 5.492271 72.003089 -6.766636 -8.543941 21.454550 0.003097 0.000000 166.683609 13.682397 -167.435940 -37.402768 4.769113 4.374777 82.518131 -1.290651 8.473533 21.454560 -0.003111 -0.000016 10.241250 1.058330 0.067501 10.473533 2.106100 0.230589 10.155209 2.107582 0.217875 -3.631484 -10.374507 -8.155548 -23.449896 16.270786 -17.634712 170.184600 -78.144290 8.460794 -12.938639 57.572710 10.430923 -49.045522 -19.568512 2.024169 8.370954 -4.204455 37.632666 -174.781918 72.373490 6.751890 -13.415196 -56.738245 -7.185283 -27.605509 13.406765 -1.109337 14.007214 4.176266 -5.073716 
-4.198689 87.312248 -452.723907 88.503932 4.462133 96.841742 154.628161 -19.093603 178.152152 -60.729684 -2.217848 3.930829 75.483706 -5.264905 -8.427361 21.454553 0.003107 0.000000 167.408770 13.875592 -167.826108 -35.442186 4.442741 4.047454 81.806419 -1.034742 8.335795 21.454562 -0.003096 -0.000019 10.118021 0.836282 0.094273 10.226162 1.660880 0.262115 9.907920 1.662564 0.252082 -3.415416 -9.963240 -7.668340 -22.889844 15.908615 -16.772486 171.704303 -77.622641 6.930172 -13.727962 58.098252 9.837655 -46.149297 -20.031044 1.963514 8.775279 -4.478541 34.967164 -173.557129 72.554477 8.011890 -10.753493 -55.756658 -11.004175 -28.033084 13.497021 -1.122720 12.204890 4.216046 -9.599897 
-3.921116 87.947411 -451.757996 89.031803 3.927962 95.388366 156.244457 -18.189103 176.548984 -54.184796 -2.669505 1.489404 76.639886 -3.495029 -8.819232 21.454553 0.003086 -0.000001 168.084371 13.687804 -168.775095 -33.241547 3.772757 4.085285 80.924095 -0.903418 8.699454 21.454558 -0.003100 -0.000016 9.942035 0.655619 0.089122 9.873204 1.301153 0.233876 9.555016 1.302689 0.226022 -3.412382 -9.353347 -7.061131 -21.778244 15.085181 -15.478629 173.127633 -77.287149 5.490109 -13.803238 58.599540 10.545197 -43.237970 -20.199147 1.887592 8.863855 -3.797498 33.388229 -172.331110 72.893022 9.273414 -8.007731 -54.668793 -15.287681 -29.357038 13.670450 -1.158228 10.086331 4.258206 -12.168123 
-3.503705 88.360046 -450.740112 89.279588 3.416138 94.090350 158.717778 -16.839208 175.189680 -45.028015 -2.692857 0.434597 76.686707 -2.842751 -9.261436 21.454550 0.003085 0.000000 168.615091 13.614591 -169.443169 -31.607684 3.319794 3.936953 80.350209 -0.676391 9.021079 21.454557 -0.003112 -0.000018 9.728989 0.583276 0.035214 9.446236 1.161663 0.117903 9.128061 1.162490 0.110894 -3.385468 -8.608056 -6.418983 -20.983717 14.335409 -14.222738 173.105230 -77.181185 5.515917 -12.898175 59.377006 11.866448 -41.124193 -19.897360 1.807909 8.980666 -2.809240 32.942337 -169.828446 73.371326 11.844078 -5.943235 -53.514600 -18.352723 -31.386536 13.765426 -1.204145 8.480266 3.389644 -13.043733 
-2.991161 88.506691 -449.586792 89.210398 3.284476 92.867944 162.267413 -15.333998 175.542337 -34.337468 -3.508329 1.030919 76.093170 -3.242645 -9.076021 21.454551 0.003090 -0.000002 169.273275 13.753597 -170.225376 -30.825620 3.616936 3.695916 80.258807 -0.496971 9.093488 21.454557 -0.003098 -0.000017 9.568953 0.614920 -0.066094 9.125132 1.233045 -0.083513 8.806952 1.232660 -0.090963 -3.005918 -7.174070 -5.763568 -20.645970 13.023465 -12.645119 172.200694 -77.298651 6.434065 -11.458498 60.534812 13.454838 -39.665313 -19.581971 1.747749 9.305421 -1.875283 32.880353 -168.445019 73.526706 13.263472 -4.504829 -51.766321 -20.006326 -33.907723 13.952549 -1.269795 7.926079 1.617399 -12.259847 
-2.594085 88.935593 -448.581787 89.902140 3.651055 91.784021 165.374043 -13.522994 176.518111 -29.300036 -3.828236 -0.438938 73.632779 -1.929413 -7.574962 21.454553 0.003095 -0.000001 170.473913 14.370196 -171.101047 -29.689794 3.626788 3.609411 79.809886 -0.387030 9.210552 21.454558 -0.003106 -0.000019 9.537232 0.534285 -0.286806 9.059507 1.089291 -0.530907 8.741361 1.086208 -0.537488 -2.453232 -5.544644 -5.157087 -20.424368 11.395942 -10.978184 172.036018 -77.500790 6.596121 -10.797247 61.863619 14.931072 -38.558836 -19.476332 1.711857 9.244234 -1.340360 33.386200 -167.438918 73.743742 14.295099 -4.375546 -50.143349 -19.525964 -36.474504 14.141547 -1.341169 8.030457 -0.740524 -12.222820 
-1.960536 88.749893 -447.672089 89.963318 4.575359 90.626495 166.705247 -12.442897 176.771648 -30.542960 -2.581469 -1.492081 75.548046 -1.374318 -8.670074 21.454553 0.003099 0.000001 170.953843 14.636803 -171.735859 -30.818821 3.100041 3.226983 80.088442 -0.022364 9.646387 21.454560 -0.003117 -0.000018 9.684891 0.503734 -0.495497 9.352990 1.045805 -0.948685 9.034878 1.040191 -0.954975 -2.063154 -4.078636 -4.474742 -20.664227 10.363526 -9.584025 174.063724 -77.000862 4.543832 -11.397972 61.896008 15.779369 -37.122153 -19.138272 1.653478 8.727729 -1.582444 34.211263 -168.212219 72.859329 13.503384 -5.425247 -48.059960 -17.031516 -38.315384 14.488742 -1.408937 7.380312 -1.807258 -12.393480 
-1.301781 88.818283 -446.750214 90.673650 5.494748 89.678492 168.612522 -11.698189 175.384655 -30.487468 -2.715373 -1.398754 75.553135 -1.404086 -8.557230 21.454553 0.003106 -0.000001 171.936803 15.528503 -171.373503 -31.033193 2.155545 2.535733 80.026260 0.592096 10.021002 21.454563 -0.003107 -0.000020 9.828483 0.229741 -0.592386 9.641631 0.507972 -1.163573 9.323586 0.501069 -1.166601 -1.418295 -3.021828 -4.224503 -21.042042 10.182235 -9.072743 174.798392 -76.935510 3.796347 -13.420154 61.665427 15.497055 -35.058804 -18.782329 1.580760 8.148144 -2.399473 34.243211 -168.650567 71.372157 13.054520 -6.068393 -47.744559 -13.621573 -39.657379 15.771166 -1.526920 6.945697 -0.197680 -13.395147 
-0.720658 89.029716 -445.925293 90.722677 5.278730 88.980009 169.678032 -12.286292 174.699218 -29.778863 -4.563305 -1.267338 75.784767 -1.126139 -7.460323 21.454551 0.003084 -0.000001 172.526180 15.962999 -170.918025 -29.973773 2.032296 1.977448 79.349552 1.058848 10.035440 21.454558 -0.003101 -0.000016 9.574597 0.151742 -0.581648 9.134651 0.348859 -1.149497 8.816615 0.342050 -1.151572 -0.089757 -2.664968 -4.067495 -21.010917 9.890041 -8.696157 176.221927 -77.111586 2.340576 -14.571860 62.071065 15.220988 -33.761803 -18.522836 1.534355 8.242029 -3.222854 34.861467 -168.496518 70.562657 13.214128 -5.224526 -49.401689 -9.982254 -40.855736 16.977506 -1.637570 6.163457 3.090733 -14.033113 
-0.207029 89.435677 -445.130615 90.984308 5.017109 88.445998 171.132958 -11.430599 173.782279 -27.803545 -4.144221 -1.438319 75.507844 -1.028829 -7.467146 21.454553 0.003093 0.000001 173.513934 16.621708 -171.026175 -28.087244 2.531106 1.793808 78.224797 1.259982 9.975099 21.454562 -0.003111 -0.000016 9.266425 0.065326 -0.583517 8.519147 0.173371 -1.160639 8.201115 0.166480 -1.161656 1.080710 -2.789505 -3.795675 -20.788405 9.695524 -8.312984 178.178530 -76.876409 0.350222 -14.520846 62.367209 14.946899 -33.713295 -18.572626 1.536464 8.628827 -3.567341 35.205954 -167.184384 70.646709 14.566321 -4.262721 -52.483201 -6.680951 -42.065325 17.611016 -1.712383 5.770404 6.711305 -12.814092 
0.218872 89.834030 -444.407898 91.406270 4.908344 87.854039 172.852936 -9.938989 175.210909 -25.219451 -3.835474 -3.038952 75.001631 -0.132322 -8.209846 21.454555 0.003089 0.000001 174.470379 17.256499 -171.984068 -26.294697 3.074133 2.047027 77.133190 1.215385 10.183776 21.454557 -0.003117 -0.000019 9.020482 -0.089659 -0.513335 8.028767 -0.143593 -1.031621 7.710729 -0.149658 -1.030736 1.415245 -3.231572 -3.727411 -20.010684 10.189968 -8.424380 -179.712905 -76.641443 -1.797108 -13.946784 62.299057 15.665683 -34.704485 -18.882505 1.578983 9.027144 -3.982281 34.222786 -165.406117 70.481719 16.400087 -3.150199 -55.194120 -4.837383 -43.463038 17.954884 -1.774780 5.698551 8.559817 -10.521359 
0.551662 90.176277 -443.782715 91.868974 4.830654 87.413116 174.514653 -8.285510 177.154548 -22.534700 -3.189177 -4.852943 74.282508 0.830076 -9.164351 21.454557 0.003092 0.000001 175.250073 17.743800 -172.834754 -24.840570 3.233824 2.379728 76.249807 1.138804 10.508066 21.454558 -0.003103 -0.000017 8.845494 -0.264204 -0.447109 7.680163 -0.498277 -0.910721 7.362106 -0.503626 -0.907692 1.274090 -3.709130 -3.845387 -19.453453 10.583347 -8.722551 -177.026974 -76.175071 -4.532766 -13.503709 61.621236 16.474293 -36.327618 -19.055231 1.628602 9.217070 -4.291970 32.172554 -164.905806 70.141931 16.918232 -1.698486 -57.168496 -4.254744 -44.818926 18.382981 -1.842877 5.944297 7.334692 -8.088513 
0.749413 90.379120 -443.229187 92.231917 4.728167 87.003599 175.989700 -7.503599 178.071870 -20.225088 -3.276456 -5.859480 73.722350 1.446192 -9.395763 21.454555 0.003101 0.000001 175.683039 17.963602 -172.914736 -24.021990 2.803242 2.363253 75.904008 1.277003 10.823515 21.454557 -0.003115 -0.000020 8.711350 -0.431073 -0.377278 7.412914 -0.837208 -0.781328 7.094810 -0.841761 -0.776261 0.805950 -4.247963 -3.874187 -18.739855 11.163694 -8.999818 -174.523191 -76.011864 -7.089303 -13.349787 61.055430 16.942803 -38.164174 -19.189620 1.683064 9.128030 -4.253559 29.997323 -165.380149 69.877384 16.430587 -0.427182 -58.419673 -4.616270 -45.690776 18.791126 -1.896160 5.867577 4.623573 -8.518330 
0.832670 90.479897 -442.739807 92.458003 4.733999 86.793618 177.308692 -7.240199 177.627744 -18.376431 -3.396480 -5.877566 73.335297 1.493704 -9.192483 21.454550 0.003086 -0.000000 176.226448 18.074209 -172.547203 -23.402055 2.396964 2.195653 75.962331 1.448490 11.005369 21.454557 -0.003109 -0.000018 8.657061 -0.567866 -0.332956 7.305022 -1.113676 -0.701039 6.986880 -1.117768 -0.694288 0.380458 -4.792567 -3.870341 -18.679405 11.866425 -9.367898 -172.829522 -76.089585 -8.820681 -13.454096 60.634178 16.740457 -40.216089 -19.332799 1.746209 9.176247 -3.815934 28.483870 -165.824207 69.735856 15.973214 -0.145198 -59.119795 -5.493934 -45.719596 18.906283 -1.904663 6.076521 2.191620 -11.516687 
0.917536 90.516190 -442.308990 92.703248 4.753769 87.089290 178.241996 -6.978701 177.139672 -17.028423 -3.429309 -5.543144 73.072219 1.329545 -8.879397 21.454550 0.003086 -0.000004 176.923046 18.418594 -171.801346 -22.935529 2.346241 2.026626 76.210288 1.563226 11.072215 21.454557 -0.003099 -0.000016 8.612810 -0.685858 -0.345457 7.217580 -1.348916 -0.732950 6.899426 -1.353175 -0.724786 0.304399 -4.917171 -4.075558 -18.710789 12.061953 -9.682924 -172.745784 -75.990048 -8.905587 -13.673606 59.876949 16.445618 -41.778993 -19.449058 1.796700 9.074156 -3.524390 27.739307 -166.151291 69.585687 15.636304 -0.621946 -59.269902 -6.979671 -44.530197 18.764237 -1.859396 6.497083 0.502224 -15.253511 
1.002910 90.528717 -441.885498 92.866066 4.848137 87.497626 178.972963 -6.811296 176.493905 -16.189394 -3.388414 -5.011863 72.955190 1.036812 -8.560049 21.454553 0.003085 -0.000001 177.721536 18.730394 -171.338546 -22.515698 2.522492 2.047529 76.399518 1.545559 11.149945 21.454558 -0.003106 -0.000017 8.573154 -0.769079 -0.324935 7.138682 -1.516758 -0.696627 6.820485 -1.520802 -0.687447 0.525649 -4.916958 -4.358736 -18.570629 12.035221 -9.937417 -172.867799 -75.977262 -8.780809 -14.474808 59.371078 15.731633 -42.535686 -19.540053 1.824017 8.914865 -3.368268 27.965902 -166.060982 69.592975 15.729494 -1.427592 -59.494103 -8.427986 -42.438066 18.658904 -1.791540 6.882485 -0.669728 -19.213158 
1.044714 90.525299 -441.476807 92.946785 4.976003 87.843534 179.533257 -6.765900 175.810203 -15.776455 -3.333802 -4.455238 72.990318 0.716790 -8.306241 21.454557 0.003091 -0.000001 178.518960 18.837803 -171.210521 -22.078568 2.644382 2.244928 76.619853 1.421362 11.313307 21.454557 -0.003095 -0.000015 8.537366 -0.826561 -0.265910 7.066765 -1.635420 -0.581717 6.748541 -1.638774 -0.571822 0.643662 -5.243072 -4.512744 -18.366990 12.561798 -10.322270 -172.880639 -75.846799 -8.767010 -15.491357 58.980616 14.817221 -42.671351 -19.616363 1.832904 8.755798 -3.477721 28.707797 -166.005904 69.677997 15.786029 -2.301409 -59.682343 -9.519314 -39.755130 18.327679 -1.695975 7.098725 -0.547095 -21.513750 
1.079509 90.528473 -441.121704 93.052059 4.985457 88.129548 179.848252 -6.618995 175.997132 -15.506379 -3.334242 -4.433224 73.070491 0.718765 -8.269868 21.454553 0.003092 -0.000001 179.099841 18.742399 -171.079341 -21.643234 2.324199 2.452966 76.839539 1.349160 11.668078 21.454558 -0.003111 -0.000016 8.471879 -0.878010 -0.203534 6.935189 -1.742309 -0.459208 6.616938 -1.744926 -0.448667 0.649285 -5.554569 -4.612889 -18.160699 13.085761 -10.649931 -172.195926 -75.662063 -9.466009 -16.516217 58.724211 13.822345 -42.483469 -19.572742 1.824674 9.132240 -3.439172 29.194523 -166.152220 69.749393 15.634609 -2.757181 -59.875842 -10.245739 -37.227154 17.901096 -1.603096 7.297610 0.134429 -21.456903 
1.106819 90.543030 -440.802612 93.172543 4.932513 88.426245 -179.969105 -6.332903 176.402681 -15.290896 -3.117847 -4.548772 73.133882 0.765789 -8.395398 21.454555 0.003100 0.000002 179.647854 18.647200 -171.242692 -21.104858 2.130522 2.841550 77.010779 1.149388 12.030102 21.454558 -0.003106 -0.000017 8.397436 -0.924221 -0.156071 6.785846 -1.837748 -0.365948 6.467566 -1.839790 -0.354835 0.580260 -5.716964 -4.745451 -18.075838 13.419402 -10.931733 -171.405032 -75.452881 -10.273988 -17.241062 58.649953 13.044020 -41.948430 -19.571402 1.809475 9.405691 -3.401875 29.536853 -166.210017 69.718828 15.575101 -2.762790 -60.035327 -10.498224 -35.297028 17.437680 -1.526425 7.625253 0.627560 -19.754869 
1.110076 90.559067 -440.451111 93.234302 4.990147 88.643705 -179.580522 -6.070402 176.968357 -14.951860 -2.867120 -4.808587 73.153136 0.885778 -8.611611 21.454553 0.003084 -0.000003 -179.609154 18.634295 -171.122794 -20.452990 2.158712 3.023057 77.135717 1.038608 12.165008 21.454558 -0.003106 -0.000017 8.359614 -0.947410 -0.106116 6.709486 -1.887119 -0.266831 6.391190 -1.888567 -0.255422 0.352197 -5.916928 -4.897328 -18.024886 13.717542 -11.238293 -170.714172 -75.334261 -10.980411 -17.378487 58.790321 12.823598 -41.467861 -19.612002 1.798724 9.531116 -3.289318 29.569736 -165.740401 69.619736 16.060409 -2.412095 -60.088514 -10.619357 -34.297696 17.090253 -1.480910 8.019072 0.751267 -17.567938 
1.087243 90.579750 -440.093414 93.261015 5.065461 88.822642 -179.088912 -5.914789 177.463368 -14.480230 -2.715863 -5.040928 73.105618 0.997470 -8.779702 21.454557 0.003102 0.000002 -178.818710 18.639100 -170.848453 -19.750556 2.283634 3.091017 77.218560 0.978848 12.179042 21.454562 -0.003107 -0.000018 8.329483 -0.943871 -0.086859 6.648892 -1.881248 -0.227665 6.330614 -1.882444 -0.216302 0.185634 -6.278864 -5.006044 -18.061523 13.955086 -11.516842 -169.685586 -75.151964 -12.032617 -17.242107 58.877242 12.935097 -40.814236 -19.365041 1.764532 9.758908 -3.239197 28.759946 -165.159930 69.570312 16.659905 -1.726943 -60.082032 -10.875351 -34.094013 17.026104 -1.472167 8.215845 0.749788 -15.906467 
1.050398 90.600647 -439.757294 93.260885 5.183241 89.028237 -178.584517 -5.933590 177.895952 -14.045602 -2.808175 -5.186699 73.062390 1.093770 -8.808466 21.454551 0.003092 0.000000 -177.982791 18.614110 -170.711057 -19.028588 2.487636 3.247998 77.248483 0.853994 12.177344 21.454557 -0.003111 -0.000017 8.319769 -0.927893 -0.102868 6.629627 -1.848423 -0.258575 6.311351 -1.849798 -0.247412 0.103403 -6.531455 -5.075508 -18.133826 14.079018 -11.694820 -168.646468 -74.913549 -13.096206 -16.882486 58.891708 13.364948 -39.905022 -18.999064 1.716085 9.799265 -3.297770 28.244070 -164.688114 69.524338 17.147294 -1.002062 -59.967135 -11.055272 -34.352221 17.038124 -1.478805 8.179485 1.023051 -15.171751 
0.995144 90.610001 -439.452515 93.236904 5.278893 89.212953 -178.218938 -6.041503 178.023580 -13.829937 -2.916105 -5.143856 73.098105 1.077803 -8.777519 21.454557 0.003085 0.000000 -177.302886 18.538892 -170.518828 -18.494100 2.598891 3.341158 77.293897 0.777409 12.177819 21.454558 -0.003116 -0.000019 8.314254 -0.909623 -0.125861 6.618876 -1.810638 -0.303424 6.300608 -1.812291 -0.292469 0.116641 -6.500651 -5.124428 -18.241656 13.974135 -11.715115 -168.256232 -74.686507 -13.496086 -16.258989 58.858732 14.126423 -38.795874 -18.673654 1.665740 10.075832 -3.066873 28.225371 -164.266172 69.365106 17.584100 -0.462154 -59.634279 -11.275102 -34.723644 17.148307 -1.494420 7.890502 1.538773 -14.898150 
0.928301 90.612984 -439.187012 93.222083 5.343816 89.331607 -177.960155 -6.159190 177.884900 -13.750025 -2.984285 -4.982636 73.148512 0.979704 -8.735899 21.454550 0.003087 -0.000001 -176.870016 18.427516 -170.265729 -18.241933 2.524477 3.331038 77.364221 0.787466 12.215870 21.454560 -0.003110 -0.000016 8.308564 -0.897415 -0.145546 6.607733 -1.785126 -0.341951 6.289466 -1.787029 -0.331147 0.212476 -6.320208 -5.151732 -18.351935 13.844428 -11.673381 -168.361335 -74.527049 -13.388673 -15.478076 58.847783 15.274219 -37.384771 -18.421847 1.613550 10.382373 -2.732417 27.908800 -163.910210 69.193190 17.953328 -0.184067 -59.230321 -11.371760 -35.072454 17.354317 -1.515789 7.657460 2.210629 -14.780225 
0.842825 90.607338 -438.962585 93.209426 5.393129 89.423644 -177.819344 -6.289701 177.579577 -13.835579 -3.008492 -4.737260 73.228254 0.818901 -8.703879 21.454550 0.003094 -0.000000 -176.631875 18.377599 -170.294538 -18.257727 2.603883 3.410733 77.463511 0.717065 12.212925 21.454555 -0.003116 -0.000018 8.305945 -0.890605 -0.164545 6.602750 -1.770447 -0.379503 6.284506 -1.772549 -0.368810 0.320593 -6.144317 -5.165229 -18.426916 13.785221 -11.639528 -168.413668 -74.463808 -13.335042 -14.821275 58.924336 15.979631 -35.823734 -17.896750 1.541585 10.608958 -2.428213 28.107335 -163.545738 69.076831 18.330892 -0.164870 -58.869885 -11.223065 -35.307816 17.483066 -1.529617 7.436724 2.538498 -14.330176 
0.736289 90.590858 -438.774506 93.190473 5.434038 89.503489 -177.770590 -6.426994 177.370806 -14.040151 -3.020326 -4.557334 73.341082 0.691380 -8.722676 21.454551 0.003090 0.000002 -176.552221 18.353114 -170.279813 -18.514858 2.699462 3.421150 77.609397 0.681101 12.166798 21.454563 -0.003125 -0.000018 8.309649 -0.888839 -0.183286 6.610417 -1.752619 -0.416540 6.292171 -1.754959 -0.405945 0.348540 -6.062264 -5.108388 -18.439702 13.798079 -11.572268 -168.436099 -74.419706 -13.312203 -14.249835 58.998942 16.614403 -34.199864 -17.317427 1.466592 10.792820 -2.090855 28.663900 -163.184803 69.064694 18.703708 -0.298295 -58.616028 -10.802532 -35.553054 17.501801 -1.536609 7.454741 2.706058 -13.897624 
0.611983 90.564789 -438.615692 93.170385 5.470015 89.540583 -177.781437 -6.540798 177.330890 -14.322721 -3.002790 -4.504584 73.466546 0.631868 -8.819635 21.454550 0.003076 -0.000001 -176.615182 18.321704 -170.155353 -18.965554 2.708996 3.325951 77.808333 0.715522 12.110695 21.454560 -0.003109 -0.000017 8.321823 -0.889355 -0.186998 6.634794 -1.742880 -0.423870 6.316539 -1.745267 -0.413327 0.251352 -5.978794 -5.050884 -18.395337 13.791614 -11.494013 -168.409802 -74.440620 -13.339111 -13.751104 59.115000 17.277583 -32.779177 -16.873234 1.406703 11.135075 -1.642289 29.336219 -163.023365 69.039805 18.870716 -0.494127 -58.372415 -10.271863 -35.820753 17.551196 -1.546163 7.499669 2.743372 -13.707695 
0.472270 90.543610 -438.482910 93.155871 5.495091 89.562092 -177.770686 -6.583208 177.539839 -14.490823 -2.904906 -4.621319 73.520614 0.655173 -9.025063 21.454557 0.003097 -0.000001 -176.711337 18.286597 -170.058296 -19.410865 2.720222 3.233733 78.003513 0.746045 12.045576 21.454555 -0.003112 -0.000017 8.334921 -0.890805 -0.176259 6.660841 -1.745451 -0.402682 6.342585 -1.747720 -0.392119 0.134308 -5.896358 -5.035175 -18.361843 13.780120 -11.459338 -168.309481 -74.475836 -13.441784 -13.240375 59.232726 18.128864 -31.648935 -16.625688 1.366963 11.215725 -1.196663 30.071827 -163.099481 69.009376 18.792507 -0.634985 -58.161178 -9.833197 -36.108447 17.626500 -1.557936 7.424148 2.943409 -13.736917 
0.331074 90.523743 -438.374695 93.153487 5.539990 89.556218 -177.675815 -6.613096 177.787679 -14.512417 -2.831903 -4.780673 73.532389 0.707970 -9.227230 21.454553 0.003088 -0.000000 -176.793545 18.250110 -170.081464 -19.807516 2.743331 3.199578 78.202811 0.738963 11.999741 21.454562 -0.003114 -0.000018 8.353212 -0.891912 -0.154476 6.697145 -1.759995 -0.359792 6.378875 -1.761999 -0.349146 0.076284 -5.860664 -5.051493 -18.410133 13.800251 -11.487176 -167.915570 -74.473384 -13.845279 -12.662493 59.354665 18.928638 -31.010005 -16.506276 1.346234 11.339129 -1.004405 30.782119 -163.148316 68.983155 18.742179 -0.908624 -58.005805 -9.499916 -36.298982 17.721346 -1.568661 7.307940 3.370533 -13.874763 
0.187273 90.502007 -438.283813 93.154484 5.604489 89.559565 -177.538050 -6.646191 177.913560 -14.472416 -2.739725 -4.863331 73.539315 0.712832 -9.404297 21.454551 0.003089 -0.000001 -176.806659 18.195400 -170.132595 -20.098798 2.766937 3.203486 78.426267 0.706028 11.971530 21.454558 -0.003112 -0.000018 8.374901 -0.891324 -0.127857 6.740138 -1.773769 -0.307288 6.421884 -1.775425 -0.296577 0.020588 -5.880094 -5.084465 -18.442713 13.840715 -11.547301 -167.756700 -74.443167 -14.008194 -12.052559 59.423308 19.714501 -30.716969 -16.517995 1.341095 11.426044 -0.997593 31.305646 -163.077829 68.976578 18.815184 -1.292058 -57.939941 -9.169790 -36.431607 17.826068 -1.578651 7.249655 3.838117 -13.883311 
0.050371 90.494301 -438.208801 93.139465 5.679506 89.650925 -177.379166 -6.714099 177.867920 -14.364617 -2.631985 -4.794103 73.514344 0.624202 -9.521572 21.454553 0.003097 0.000003 -176.660630 18.116597 -170.078855 -20.163326 2.826358 3.225055 78.569981 0.663916 11.929682 21.454560 -0.003097 -0.000017 8.390729 -0.887482 -0.117854 6.771638 -1.766605 -0.287300 6.453371 -1.768166 -0.276623 0.127743 -5.945456 -5.117912 -18.609477 13.882044 -11.629032 -168.068129 -74.304965 -13.689383 -11.316233 59.359596 20.430709 -30.669168 -16.570030 1.343480 11.404754 -1.046273 31.336904 -163.218012 68.992431 18.670197 -1.580542 -57.871018 -8.840574 -36.594251 17.901637 -1.587514 7.248220 4.124013 -13.703942 
-0.089310 90.494980 -438.163788 93.092425 5.721781 89.795602 -177.288625 -6.850090 177.810916 -14.270167 -2.574243 -4.673249 73.491162 0.513111 -9.594368 21.454553 0.003093 0.000001 -176.480067 17.983099 -169.996633 -20.099710 2.892892 3.279167 78.660174 0.602637 11.884257 21.454558 -0.003107 -0.000016 8.394022 -0.877159 -0.112427 6.778085 -1.746258 -0.275903 6.459835 -1.747763 -0.265343 0.344029 -5.968936 -5.153491 -18.879087 13.915798 -11.713091 -168.584805 -74.238637 -13.159962 -10.607392 59.358401 20.972533 -30.826406 -16.672750 1.353208 11.392964 -1.117282 30.814060 -163.571720 68.935119 18.305223 -1.727864 -57.734052 -8.524939 -36.807206 17.958956 -1.596431 7.236322 4.171517 -13.617550 
-0.223661 90.498360 -438.147491 93.048446 5.735815 89.980653 -177.242603 -6.990797 177.961467 -14.143745 -2.581115 -4.645271 73.442388 0.471798 -9.654465 21.454551 0.003089 -0.000001 -176.322522 17.836114 -169.926596 -20.012051 2.948299 3.368750 78.735976 0.520664 11.851653 21.454555 -0.003112 -0.000017 8.390280 -0.866875 -0.105573 6.770461 -1.726126 -0.261569 6.452201 -1.727540 -0.251127 0.510685 -5.961475 -5.202378 -19.083706 13.970174 -11.806165 -169.043098 -74.270097 -12.690302 -10.159650 59.449284 21.126473 -31.103606 -16.744632 1.363413 11.293400 -1.162723 30.610739 -163.773620 68.933131 18.096704 -1.840432 -57.715645 -8.270240 -37.012194 18.013128 -1.605021 7.222610 4.124315 -13.820387 
-0.338587 90.502876 -438.170410 93.018277 5.716457 90.207101 -177.283912 -7.099300 178.204512 -14.049446 -2.585147 -4.649883 73.386148 0.455134 -9.707537 21.454551 0.003092 0.000000 -176.213949 17.704699 -169.848104 -19.929145 2.995079 3.475454 78.793397 0.430548 11.827925 21.454560 -0.003102 -0.000018 8.383111 -0.856403 -0.109206 6.756113 -1.705017 -0.268086 6.437874 -1.706475 -0.257794 0.544831 -6.004649 -5.209171 -19.161918 14.139507 -11.896929 -169.409455 -74.350140 -12.314845 -9.950676 59.576762 21.089650 -31.520917 -16.878260 1.380508 11.119617 -1.233250 30.713646 -163.916398 68.997833 17.948472 -1.957963 -57.809963 -7.989578 -37.183656 18.044188 -1.611270 7.231688 4.092158 -14.100900 
-0.429368 90.505623 -438.207794 93.019240 5.666753 90.397895 -177.351517 -7.148896 178.398517 -13.946463 -2.565375 -4.654872 73.323331 0.439828 -9.753562 21.454555 0.003094 -0.000000 -176.197598 17.622904 -169.846710 -19.910906 3.037716 3.593320 78.861712 0.334890 11.817697 21.454558 -0.003114 -0.000018 8.371118 -0.853248 -0.112339 6.732147 -1.698550 -0.273997 6.413905 -1.700050 -0.263720 0.409798 -6.087142 -5.212014 -19.056677 14.291383 -11.963659 -169.639291 -74.451767 -12.079390 -9.940566 59.690580 21.026737 -32.048542 -17.053405 1.402736 11.016789 -1.306301 30.702247 -164.069887 69.075397 17.789305 -2.064890 -57.950781 -7.761707 -37.299499 18.077796 -1.613835 7.232715 4.050826 -14.262430 
-0.505986 90.505028 -438.251495 93.028754 5.637482 90.584940 -177.406719 -7.179500 178.479181 -13.856522 -2.516060 -4.597459 73.260534 0.384716 -9.780341 21.454553 0.003093 0.000001 -176.192653 17.563008 -169.819294 -19.942223 3.064446 3.686855 78.933033 0.257593 11.810755 21.454558 -0.003099 -0.000017 8.369370 -0.851277 -0.120959 6.728774 -1.687533 -0.290908 6.410519 -1.689122 -0.280705 0.249287 -6.251823 -5.217348 -19.045079 14.384558 -12.040236 -169.893907 -74.541836 -11.818732 -10.079261 59.785588 20.895203 -32.642553 -17.252807 1.428161 10.893769 -1.411316 30.871017 -164.351932 69.201277 17.496875 -2.155886 -58.097077 -7.554118 -37.352256 18.086737 -1.615265 7.172010 4.120212 -14.306537 
-0.572159 90.499542 -438.301300 93.039068 5.658851 90.747751 -177.418508 -7.210697 178.492391 -13.785713 -2.471275 -4.512811 73.201125 0.315361 -9.790251 21.454555 0.003092 0.000001 -176.179839 17.516295 -169.787588 -20.027861 3.077615 3.756533 79.008814 0.197081 11.802493 21.454557 -0.003104 -0.000018 8.380707 -0.849721 -0.124248 6.751511 -1.685198 -0.297671 6.433266 -1.686804 -0.287464 0.189705 -6.336929 -5.252064 -19.136414 14.425315 -12.123914 -170.356352 -74.689116 -11.345116 -10.259933 59.877878 20.683109 -33.287671 -17.460142 1.455483 10.777352 -1.460726 31.126794 -164.680178 69.231371 17.157584 -2.267674 -58.116734 -7.415273 -37.338301 18.101905 -1.615790 7.115008 4.116080 -14.160784 
-0.619788 90.490173 -438.358307 93.054142 5.705533 90.867949 -177.423139 -7.239502 178.456000 -13.763163 -2.452441 -4.419215 73.159283 0.247994 -9.778131 21.454551 0.003089 0.000002 -176.182202 17.490105 -169.769201 -20.147485 3.076002 3.805237 79.085674 0.153008 11.798274 21.454560 -0.003110 -0.000018 8.398375 -0.848982 -0.122932 6.786821 -1.686843 -0.295549 6.468572 -1.688445 -0.285345 0.213773 -6.435993 -5.298732 -19.280157 14.500744 -12.240106 -171.073781 -74.784581 -10.610787 -10.436410 59.892317 20.415401 -33.953943 -17.631416 1.481287 10.674867 -1.488069 31.217482 -164.913811 69.257681 16.916090 -2.396796 -58.084229 -7.342701 -37.297600 18.108165 -1.615631 7.194699 4.045501 -14.030026 
-0.652884 90.479507 -438.427612 93.058165 5.719045 90.954016 -177.493913 -7.302704 178.467242 -13.805469 -2.517151 -4.361726 73.143608 0.218588 -9.737609 21.454555 0.003099 0.000001 -176.255176 17.450503 -169.718057 -20.291228 3.017304 3.818072 79.152480 0.140431 11.807753 21.454558 -0.003105 -0.000017 8.408349 -0.849460 -0.122532 6.806775 -1.690294 -0.294710 6.488522 -1.691894 -0.284493 0.238316 -6.508474 -5.335510 -19.345211 14.569296 -12.326542 -171.801579 -74.872930 -9.865787 -10.644682 59.909631 20.081740 -34.578246 -17.773363 1.504571 10.528429 -1.553660 31.404704 -165.094183 69.289435 16.729619 -2.543640 -58.058807 -7.235297 -37.180353 18.131832 -1.614941 7.197721 3.909050 -14.040915 
-0.670812 90.470627 -438.501495 93.060631 5.720087 91.005242 -177.580329 -7.339799 178.604242 -13.856885 -2.586023 -4.397111 73.135350 0.248145 -9.725192 21.454553 0.003090 0.000000 -176.358203 17.414699 -169.673278 -20.430472 2.935656 3.814489 79.198851 0.144107 11.824455 21.454562 -0.003114 -0.000019 8.416741 -0.852843 -0.129559 6.823681 -1.696613 -0.309056 6.505432 -1.698317 -0.298798 0.248724 -6.563398 -5.336049 -19.382310 14.645809 -12.372164 -172.600683 -74.996577 -9.048429 -10.801735 59.924070 19.840342 -35.187687 -17.908548 1.527373 10.496005 -1.550866 31.537162 -165.258421 69.383090 16.559377 -2.668796 -58.103210 -7.147339 -37.041202 18.151984 -1.613953 7.086171 3.884390 -14.070973 
-0.664273 90.467239 -438.572601 93.061819 5.723953 91.017352 -177.648576 -7.343206 178.711900 -13.899829 -2.622853 -4.442104 73.134210 0.283251 -9.717652 21.454550 0.003082 -0.000002 -176.453416 17.392592 -169.775922 -20.520453 2.893288 3.868634 79.195237 0.114395 11.856092 21.454555 -0.003103 -0.000018 8.424032 -0.858838 -0.138538 6.838400 -1.708050 -0.327485 6.520169 -1.709859 -0.317154 0.282704 -6.549492 -5.312920 -19.440257 14.665437 -12.361100 -173.504495 -75.157216 -8.124535 -10.898555 59.930750 19.812975 -35.742650 -18.096981 1.552596 10.552799 -1.469533 31.302952 -165.404724 69.526271 16.407407 -2.674297 -58.208177 -7.140124 -36.983599 18.175786 -1.612882 7.061286 3.871114 -14.103277 
-0.639193 90.458939 -438.642090 93.074373 5.725372 90.984123 -177.720662 -7.314999 178.740136 -13.974159 -2.635833 -4.467732 73.162828 0.307488 -9.706355 21.454553 0.003090 0.000001 -176.557508 17.402690 -169.862379 -20.597824 2.845252 3.885129 79.216418 0.109145 11.886778 21.454563 -0.003119 -0.000018 8.428308 -0.870169 -0.146990 6.847148 -1.730180 -0.345082 6.528908 -1.732097 -0.334614 0.344211 -6.500290 -5.277414 -19.531686 14.621994 -12.310169 -174.490788 -75.342130 -7.116575 -10.913634 59.921011 19.950723 -36.142195 -18.273241 1.573526 10.497494 -1.510859 31.120732 -165.647401 69.641264 16.156199 -2.569496 -58.268617 -7.153421 -36.964564 18.183987 -1.611905 7.123338 3.796085 -14.115043 
-0.602699 90.449203 -438.711487 93.081893 5.710695 90.929243 -177.814946 -7.281903 178.721926 -14.073752 -2.638074 -4.477892 73.211575 0.323507 -9.689927 21.454551 0.003088 0.000000 -176.669304 17.419404 -169.900682 -20.647315 2.785546 3.863396 79.239272 0.130166 11.913291 21.454558 -0.003103 -0.000018 8.430926 -0.879920 -0.161044 6.843883 -1.748815 -0.373763 6.525619 -1.750907 -0.363186 0.428270 -6.466482 -5.242767 -19.655090 14.545439 -12.253580 -175.444214 -75.514066 -6.143138 -10.886718 59.900404 20.058801 -36.360474 -18.357981 1.584269 10.382144 -1.654186 31.123338 -165.966985 69.760082 15.825591 -2.417341 -58.306811 -7.195863 -36.925154 18.193884 -1.610106 7.204262 3.760793 -14.093660 
